{"version": 0.6, "generator": "Overpass API 0.7.62.8 e802775f", "osm3s": {"timestamp_osm_base": "2025-11-22T19:08:54Z", "copyright": "The data included in this document is from www.openstreetmap.org. The data is made available under ODbL."}, "elements": [{"type": "node", "id": 1435101070, "lat": 49.8861364, "lon": -119.4952397, "tags": {"amenity": "cafe", "brand": "Starbucks", "brand:wikidata": "Q37158", "brand:wikipedia": "en:Starbucks", "cuisine": "coffee_shop", "name": "Deville Coffee Bernard", "official_name": "Starbucks Coffee", "opening_hours": "07:00-17:00;", "phone": "+1 778 940 6018", "takeaway": "yes", "website": "https://www.devillecoffee.ca/kelowna-cafes", "wheelchair": "yes"}}, {"type": "node", "id": 1582309679, "lat": 49.8861836, "lon": -119.4956058, "tags": {"addr:housenumber": "363", "addr:postcode": "V1Y 6N6", "addr:street": "Bernard Avenue", "amenity": "restaurant", "cuisine": "sandwich", "name": "The Bread Company", "opening_hours": "Mo-Sa 07:00-15:00; Su 08:00-15:00", "shop": "bakery", "website": "https://www.thebreadcompany.ca"}}, {"type": "node", "id": 1849263065, "lat": 49.8898518, "lon": -119.4932513, "tags": {"addr:city": "Kelowna", "addr:housenumber": "1357", "addr:postcode": "V1Y 1Z9", "addr:province": "BC", "addr:street": "Ellis Street", "addr:unit": "101", "amenity": "cafe", "email": "bikecafeandcatering@shaw.ca", "name": "Bike Shop Cafe and Catering", "opening_hours": "Mo-Fr 07:30-14:00; Sa 11:00-14:00", "outdoor_seating": "no", "phone": "+1 250-861-6858", "website": "https://www.bikeshopcafeandcatering.com/"}}, {"type": "node", "id": 2318468463, "lat": 49.8837709, "lon": -119.4949017}, {"type": "node", "id": 2318468465, "lat": 49.8837723, "lon": -119.4945586}, {"type": "node", "id": 2318468500, "lat": 49.8838737, "lon": -119.4949027}, {"type": "node", "id": 2318468502, "lat": 49.883874, "lon": -119.4948279}, {"type": "node", "id": 2318468528, "lat": 49.8839532, "lon": -119.4948287}, {"type": "node", "id": 2318468530, "lat": 49.8839543, "lon": -119.4945604}, {"type": "node", "id": 2318874221, "lat": 49.8947079, "lon": -119.4931748}, {"type": "node", "id": 2318939248, "lat": 49.883299, "lon": -119.491737}, {"type": "node", "id": 2318939249, "lat": 49.883297, "lon": -119.491382}, {"type": "node", "id": 2318939274, "lat": 49.883466, "lon": -119.491735}, {"type": "node", "id": 2318939276, "lat": 49.883466, "lon": -119.491624}, {"type": "node", "id": 2318939278, "lat": 49.883466, "lon": -119.491543}, {"type": "node", "id": 2318939280, "lat": 49.883465, "lon": -119.491381}, {"type": "node", "id": 2318939282, "lat": 49.883477, "lon": -119.491624}, {"type": "node", "id": 2318939284, "lat": 49.883477, "lon": -119.491543}, {"type": "node", "id": 2688941991, "lat": 49.8852937, "lon": -119.4933488, "tags": {"addr:city": "Kelowna", "addr:housenumber": "1607", "addr:postcode": "V1Y 2A8", "addr:street": "Ellis Street", "amenity": "restaurant", "cuisine": "japanese", "name": "Sushi Sai", "phone": "2364201514", "website": "https://sushisaikelowna.com/#"}}, {"type": "node", "id": 2727912585, "lat": 49.890462, "lon": -119.4976669, "tags": {"addr:city": "Kelowna", "addr:housenumber": "1352", "addr:postcode": "V1Y 9P4", "addr:province": "BC", "addr:street": "Water Street", "amenity": "restaurant", "diet:vegan": "yes", "diet:vegetarian": "yes", "name": "King Taps", "opening_hours": "Mo-We 11:00-00:00; Th-Fr 11:00-00:30; Sa 10:00-00:30; Su 10:00-00:00", "phone": "+1 778-738-3989", "website": "https://kingtaps.com/locations/lakeside/", "website:menu": "https://kingtaps.com/locations/lakeside/menu/"}}, {"type": "node", "id": 2740972649, "lat": 49.886024, "lon": -119.4991046, "tags": {"addr:city": "Kelowna", "addr:country": "CA", "addr:housenumber": "211", "addr:postcode": "V1Y 6N2", "addr:province": "BC", "addr:street": "Bernard Avenue", "amenity": "restaurant", "name": "Earls Kitchen + Bar", "name:en": "Earls Kitchen + Bar", "shop": "clothes"}}, {"type": "node", "id": 2741027691, "lat": 49.8864969, "lon": -119.497693, "tags": {"addr:housenumber": "262", "addr:street": "Bernard Avenue", "amenity": "restaurant", "entrance": "main", "name": "Kelly O' Bryan's Neighborhood Restaurant"}}, {"type": "node", "id": 2742416413, "lat": 49.8865083, "lon": -119.4973305, "tags": {"addr:housenumber": "371", "addr:street": "Bernard Avenue", "amenity": "restaurant", "name": "Wicked chicken"}}, {"type": "node", "id": 2742416420, "lat": 49.8865091, "lon": -119.4971835, "tags": {"addr:housenumber": "280", "addr:street": "Bernard Avenue", "amenity": "restaurant", "name": "Korean Restaurant"}}, {"type": "node", "id": 2742416428, "lat": 49.8864798, "lon": -119.495521, "tags": {"addr:housenumber": "366", "addr:street": "Bernard Avenue", "amenity": "restaurant", "office": "vacant", "old_name": "MiMi's Italian Grill"}}, {"type": "node", "id": 2742445751, "lat": 49.8861783, "lon": -119.4986727, "tags": {"addr:housenumber": "227", "addr:street": "Bernard Avenue", "amenity": "restaurant", "name": "Asuka Japanese Restaurant"}}, {"type": "node", "id": 2742445752, "lat": 49.8861786, "lon": -119.4986115, "tags": {"addr:housenumber": "229", "addr:street": "Bernard Avenue", "amenity": "fast_food", "brand": "Pita Pit", "brand:wikidata": "Q7757289", "brand:wikipedia": "en:Pita Pit", "cuisine": "pita", "name": "Pita Pit", "takeaway": "yes"}}, {"type": "node", "id": 2742460127, "lat": 49.8861749, "lon": -119.4984467, "tags": {"addr:housenumber": "235", "addr:street": "Bernard Avenue", "amenity": "restaurant", "name": "Gorgeous Georges"}}, {"type": "node", "id": 2742460128, "lat": 49.8861787, "lon": -119.4983835, "tags": {"addr:housenumber": "239", "addr:street": "Bernard Avenue", "amenity": "restaurant", "check_date": "2025-11-11", "name": "Moo-Lix Ice Cream", "opening_hours": "Mo-Th,Su 10:00-23:00; Fr-Sa 10:00-24:00", "phone": "+1 (778) 484-6660", "website": "https://moolix.ca/"}}, {"type": "node", "id": 2742460129, "lat": 49.8861782, "lon": -119.4983219, "tags": {"addr:housenumber": "243", "addr:street": "Bernard Avenue", "amenity": "restaurant", "name": "Salt & Brick", "website": "https://saltandbrick.ca/"}}, {"type": "node", "id": 2742460130, "lat": 49.8861774, "lon": -119.4985423, "tags": {"addr:housenumber": "231", "addr:street": "Bernard Avenue", "amenity": "restaurant", "name": "The Rotten Grape"}}, {"type": "node", "id": 2742471853, "lat": 49.8861713, "lon": -119.497377, "tags": {"addr:housenumber": "275", "addr:street": "Bernard Avenue", "amenity": "restaurant", "name": "Bai Tong Thai Food"}}, {"type": "node", "id": 2742471854, "lat": 49.8861699, "lon": -119.4975882, "tags": {"addr:housenumber": "269", "addr:street": "Bernard Avenue", "addr:unit": "100", "amenity": "restaurant", "name": "Fresh Healthy Cafe"}}, {"type": "node", "id": 2742471855, "lat": 49.886171, "lon": -119.4975017, "tags": {"addr:housenumber": "269", "addr:street": "Bernard Avenue", "addr:unit": "101", "amenity": "restaurant", "name": "Ginza Japanese Restaurant"}}, {"type": "node", "id": 2742482066, "lat": 49.8861691, "lon": -119.4967802, "tags": {"addr:housenumber": "297", "addr:postcode": "V1Y 6N2", "addr:street": "Bernard Avenue", "amenity": "cafe", "brand": "Blenz Coffee", "brand:wikidata": "Q4926090", "cuisine": "coffee_shop", "internet_access": "wlan", "internet_access:fee": "no", "name": "Blenz Coffee", "opening_hours": "Mo-Th 08:00-21:30; Fr,Sa 08:00-22:00; Su 09:00-21:30", "source": "Bing", "takeaway": "yes", "wheelchair": "yes"}}, {"type": "node", "id": 2742493695, "lat": 49.8861658, "lon": -119.4969957, "tags": {"addr:housenumber": "289", "addr:street": "Bernard Avenue", "amenity": "restaurant", "name": "Memphis Blues", "opening_hours": "Su-Th 11:30-21:00; Fr,Sa 11:30-22:00", "wheelchair": "yes"}}, {"type": "node", "id": 2742501960, "lat": 49.8861667, "lon": -119.4972642, "tags": {"addr:housenumber": "279", "addr:street": "Bernard Avenue", "amenity": "restaurant", "name": "Fernando's Taqueria"}}, {"type": "node", "id": 2898339169, "lat": 49.8871728, "lon": -119.4952, "tags": {"addr:housenumber": "1440", "addr:street": "Pandosy Street", "amenity": "fast_food", "brand": "Subway", "brand:wikidata": "Q244457", "brand:wikipedia": "en:Subway (restaurant)", "cuisine": "sandwich", "entrance": "main", "name": "Subway", "takeaway": "yes"}}, {"type": "node", "id": 3352675379, "lat": 49.8838567, "lon": -119.4991759, "tags": {"amenity": "restaurant", "cuisine": "seafood", "name": "Pilgrim & Pearl"}}, {"type": "node", "id": 3753662707, "lat": 49.885739, "lon": -119.4933063, "tags": {"addr:city": "Kelowna", "addr:housenumber": "1559", "addr:street": "Ellis Street", "amenity": "restaurant", "cuisine": "pizza", "delivery": "yes", "name": "Dunn Enzies"}}, {"type": "node", "id": 4396391193, "lat": 49.8861232, "lon": -119.4967803, "tags": {"amenity": "restaurant", "name": "Micro Bar", "name:en": "Micro Bar"}}, {"type": "node", "id": 4396459490, "lat": 49.8864802, "lon": -119.492764, "tags": {"addr:housenumber": "524", "addr:postcode": "V1Y 6P1", "addr:street": "Bernard Avenue", "amenity": "restaurant", "craft": "caterer", "name": "Bohemian Cafe & Catering Co.", "name:en": "Bohemian Cafe & Catering Co.", "outdoor_seating": "yes", "short_name": "The Boh", "website": "http://bohemiancater.com"}}, {"type": "node", "id": 4396459492, "lat": 49.8848245, "lon": -119.4936876, "tags": {"amenity": "restaurant", "name": "Yamas Greek Taverna", "name:en": "Yamas Greek Taverna"}}, {"type": "node", "id": 4396459589, "lat": 49.8852622, "lon": -119.4975338, "tags": {"addr:city": "Kelowna", "addr:country": "CA", "addr:housenumber": "281", "addr:postcode": "V1Y 6L2", "addr:province": "BC", "addr:street": "Lawrence Avenue", "amenity": "restaurant", "name": "KRAFTY kitchen + bar", "note": "Closing December 22nd, 2024. https://www.castanet.net/news/Kelowna/513167/Downtown_Kelowna_restaurant_Krafty_Kitchen_Bar_closing_after_10_years"}}, {"type": "node", "id": 4396459689, "lat": 49.8859961, "lon": -119.4967841, "tags": {"amenity": "restaurant", "name": "Raudz", "name:en": "Raudz"}}, {"type": "node", "id": 4396461089, "lat": 49.8855353, "lon": -119.4981957, "tags": {"amenity": "restaurant", "name": "Social 242 Lounge & Grill", "name:en": "Social 242 Lounge & Grill"}}, {"type": "node", "id": 4396518989, "lat": 49.8894669, "lon": -119.4971808, "tags": {"amenity": "restaurant", "brand": "Cactus Club Cafe", "brand:wikidata": "Q5016149", "name": "Cactus Club Cafe", "name:en": "Cactus Club Cafe", "opening_hours": "Mo-Fr 07:30-17:00; Sa,Su 07:30-19:00"}}, {"type": "node", "id": 4505455094, "lat": 49.8839496, "lon": -119.4908612, "tags": {"amenity": "cafe", "brand": "Starbucks", "brand:wikidata": "Q37158", "cuisine": "coffee_shop", "name": "Starbucks", "official_name": "Starbucks Coffee", "takeaway": "yes"}}, {"type": "node", "id": 4986011922, "lat": 49.8838393, "lon": -119.4991812, "tags": {"amenity": "restaurant", "cuisine": "seafood;grill", "name": "West Coast Grill & Oyster Bar", "name:en": "West Coast Grill & Oyster Bar"}}, {"type": "node", "id": 5800952607, "lat": 49.88614, "lon": -119.4979327, "tags": {"addr:city": "Kelowna", "addr:housenumber": "261", "addr:postcode": "V1Y 6N2", "addr:street": "Bernard Avenue", "amenity": "cafe", "brand": "Tim Hortons", "brand:wikidata": "Q175106", "brand:wikipedia": "en:Tim Hortons", "cuisine": "coffee_shop", "drive_through": "no", "level": "0", "name": "Tim Hortons", "outdoor_seating": "yes", "source": "NRCan-CanVec-10.0", "takeaway": "yes", "website": "https://www.timhortons.ca/store-locator/store/restaurant_75820"}}, {"type": "node", "id": 5907249469, "lat": 49.8884187, "lon": -119.4934658, "tags": {"addr:city": "Kelowna", "addr:housenumber": "1423", "addr:postcode": "V1Y 1Z9", "addr:street": "Ellis Street", "amenity": "restaurant", "check_date": "2025-11-11", "cuisine": "pizza;comfort_food", "delivery": "no", "name": "The Curious caf\u00e9", "opening_hours": "Mo-Sa 11:30-24:00; Su 09:00-14:00; PH off", "phone": "+1 (778) 484-0490", "website": "https://www.thecurious.ca"}}, {"type": "node", "id": 6148683784, "lat": 49.890055, "lon": -119.4939977, "tags": {"addr:city": "Kelowna", "addr:housenumber": "1360", "addr:postcode": "V1Y 2A2", "addr:street": "Ellis Street", "amenity": "restaurant", "cuisine": "pizza", "name": "Pizza Studio", "outdoor_seating": "yes", "smoking": "no", "takeaway": "yes"}}, {"type": "node", "id": 6431018987, "lat": 49.8943991, "lon": -119.4958599, "tags": {"addr:street": "Sunset Drive", "amenity": "restaurant", "name": "Bouchons Bistro"}}, {"type": "node", "id": 6439400186, "lat": 49.8945386, "lon": -119.4961481, "tags": {"addr:housenumber": "1180", "addr:postcode": "V1Y 9W6", "addr:street": "Sunset Drive", "amenity": "restaurant", "name": "Waterfront Wines Restaurant"}}, {"type": "node", "id": 6632262243, "lat": 49.8918949, "lon": -119.4937982, "tags": {"amenity": "restaurant", "cuisine": "sushi", "name": "Nagano Sushi"}}, {"type": "node", "id": 7020697785, "lat": 49.8855213, "lon": -119.4952285, "tags": {"addr:city": "Kelowna", "addr:country": "CA", "addr:housenumber": "1598", "addr:postcode": "V1Y 1P4", "addr:province": "BC", "addr:street": "Pandosy Street", "amenity": "cafe", "email": "pulpfictionch@gmail.com", "name": "Pulp Fiction Coffee House", "opening_hours": "Mo-Fr 08:00-17:00; Sa-Su 08:30-17:00;", "phone": "+1 778 484 7555", "website": "https://pulpfictioncoffeehouse.com/"}}, {"type": "node", "id": 7052707551, "lat": 49.8855219, "lon": -119.4993008, "tags": {"addr:city": "Kelowna", "addr:country": "CA", "addr:housenumber": "210", "addr:postcode": "V1Y 6L3", "addr:province": "BC", "addr:street": "Lawrence Avenue", "amenity": "restaurant", "cuisine": "thai", "name": "Thai Terrace Restaurant"}}, {"type": "node", "id": 7115075646, "lat": 49.88608, "lon": -119.4990009, "tags": {"addr:city": "Kelowna", "addr:country": "CA", "addr:housenumber": "211", "addr:postcode": "V1Y6N2", "addr:province": "BC", "addr:street": "Bernard Avenue", "amenity": "restaurant"}}, {"type": "node", "id": 7337231323, "lat": 49.8861249, "lon": -119.4988696, "tags": {"addr:city": "Kelowna", "addr:country": "CA", "addr:housenumber": "219", "addr:postcode": "V1Y 6N2", "addr:province": "BC", "addr:street": "Bernard Avenue", "amenity": "restaurant", "name": "Pacific Poke", "opening_hours": "Mo-Su 10:30-22:00"}}, {"type": "node", "id": 7621386785, "lat": 49.8861839, "lon": -119.4953791, "tags": {"addr:housenumber": "377", "addr:street": "Bernard Avenue", "amenity": "restaurant", "cuisine": "sushi", "name": "Momo Sushi Downtown", "phone": "+1-250-763-1030", "website": "https://momosushikelowna.com"}}, {"type": "node", "id": 7768634885, "lat": 49.8833028, "lon": -119.49276, "tags": {"addr:housenumber": "515", "addr:street": "Harvey Avenue", "addr:unit": "5", "amenity": "fast_food", "brand": "Subway", "brand:wikidata": "Q244457", "cuisine": "sandwich", "name": "Subway", "opening_hours": "10:00-22:00", "phone": "+1-250-862-3122", "website": "https://www.subway.com"}}, {"type": "node", "id": 8043413614, "lat": 49.8861849, "lon": -119.4926894, "tags": {"addr:housenumber": "523", "addr:postcode": "V1Y 6N9", "addr:street": "Bernard Avenue", "alt_name": "Dosa Crepe Cafe", "amenity": "restaurant", "contact:facebook": "https://www.facebook.com/dosacrepecafe", "cuisine": "indian", "name": "Dosa Crepe Caf\u00e9", "phone": "+1-778-484-6551", "website": "https://dosacrepecafe.com/"}}, {"type": "node", "id": 8065990153, "lat": 49.8866823, "lon": -119.4963979, "tags": {"addr:housenumber": "1481", "addr:postcode": "V1Y 1J6", "addr:street": "Water Street", "amenity": "restaurant", "name": "Skinny Duke's Glorious Emporium", "old_name": "Sturgeon Hall", "website": "https://www.skinnydukes.com"}}, {"type": "node", "id": 8065990156, "lat": 49.8861835, "lon": -119.4957408, "tags": {"addr:housenumber": "353", "addr:postcode": "V1Y 6N6", "addr:street": "Bernard Avenue", "amenity": "restaurant", "name": "Bernies"}}, {"type": "node", "id": 8065990157, "lat": 49.8861843, "lon": -119.4958744, "tags": {"addr:housenumber": "347", "addr:postcode": "V1Y 6N6", "addr:street": "Bernard Avenue", "alt_name": "Antico Pizza Napoletana", "amenity": "restaurant", "delivery": "yes", "name": "Antico Pizza Napoletana", "phone": "+1-250-717-3741", "website": "http://anticapizza.ca"}}, {"type": "node", "id": 8067327179, "lat": 49.8934914, "lon": -119.4986893, "tags": {"alt_name": "Tugboat Bay Crafted Street Food", "amenity": "fast_food", "check_date:opening_hours": "2024-07-26", "cuisine": "waffle", "name": "Crafted Street Food", "opening_hours:signed": "no", "website": "https://www.facebook.com/Crafted-Street-Food-165705103484990", "wheelchair": "yes"}}, {"type": "node", "id": 8070420628, "lat": 49.8865078, "lon": -119.4945856, "tags": {"addr:housenumber": "426", "addr:street": "Bernard Avenue", "addr:unit": "A", "amenity": "restaurant", "cuisine": "tapas", "name": "Boathouse on Bernard", "website": "https://boathouse-on-bernard.business.site"}}, {"type": "node", "id": 8070420638, "lat": 49.886186, "lon": -119.4939598, "tags": {"addr:housenumber": "469", "addr:postcode": "V1Y 6N8", "addr:street": "Bernard Avenue", "amenity": "fast_food", "cuisine": "donair", "name": "Subcity Donair", "website": "https://subcity.ca/location/downtown-kelowna"}}, {"type": "node", "id": 8070420639, "lat": 49.8861858, "lon": -119.4940321, "tags": {"addr:housenumber": "467", "addr:postcode": "V1Y 6N8", "addr:street": "Bernard Avenue", "amenity": "restaurant", "cuisine": "thai", "name": "Pick Thai Restaurant", "website": "https://pickthaifood.com"}}, {"type": "node", "id": 8072155852, "lat": 49.8864803, "lon": -119.4929568, "tags": {"addr:housenumber": "520", "addr:postcode": "V1Y 6P1", "addr:street": "Bernard Avenue", "amenity": "cafe", "name": "Chilango"}}, {"type": "node", "id": 8072155855, "lat": 49.88648, "lon": -119.4925165, "tags": {"addr:housenumber": "530", "addr:postcode": "V1Y 6P1", "addr:street": "Bernard Avenue", "amenity": "restaurant", "cuisine": "korean", "name": "Soban Korean Bistro"}}, {"type": "node", "id": 8072316310, "lat": 49.8861794, "lon": -119.4917292, "tags": {"addr:housenumber": "551", "addr:postcode": "V1Y 6P1", "addr:street": "Bernard Avenue", "amenity": "cafe", "cuisine": "fusion", "name": "Mad Mango Caf\u00e9", "opening_hours": "Mo-Sa 10:00-18:00; Su 10:00-17:00;", "outdoor_seating": "yes", "phone": "+1 250 762 8988", "website": "https://www.madmangocafe.com"}}, {"type": "node", "id": 9779505717, "lat": 49.8854971, "lon": -119.4940552, "tags": {"amenity": "restaurant", "name": "OEB"}}, {"type": "node", "id": 11915079669, "lat": 49.8943225, "lon": -119.4828936, "tags": {"addr:housenumber": "889", "addr:postcode": "V1Y 7E4", "addr:street": "Vaughan Avenue", "amenity": "restaurant", "contact:facebook": "motherlovekombucha", "cuisine": "breakfast", "diet:vegan": "yes", "internet_access": "wlan", "name": "motherlove ferments", "opening_hours": "Mo-Th 09:00-17:00; Fr 09:00-19:00; Sa 11:00-18:00; Su 12:00-16:00", "phone": "+1-778-940-5664", "website": "https://www.motherloveferments.com/"}}, {"type": "node", "id": 11915089169, "lat": 49.8851455, "lon": -119.4907639, "tags": {"addr:housenumber": "571", "addr:postcode": "V1Y 6L8", "addr:street": "Lawrence Avenue", "amenity": "restaurant", "contact:facebook": "CafeSaharaKelowna", "cuisine": "american;breakfast", "diet:vegan": "yes", "email": "info@nakedcafekelowna.com", "name": "Naked Cafe", "opening_hours": "Su-Th 09:00-20:00; Fr-Sa 09:00-21:00", "phone": "+1-778-484-5640", "website": "http://www.nakedcafekelowna.com/"}}, {"type": "node", "id": 12075669833, "lat": 49.8865091, "lon": -119.4974302, "tags": {"addr:housenumber": "272", "addr:street": "Bernard Avenue", "amenity": "restaurant", "name": "Ten 13"}}, {"type": "node", "id": 12143432977, "lat": 49.8921331, "lon": -119.493282, "tags": {"addr:city": "Kelowna", "addr:housenumber": "1289", "addr:province": "BC", "addr:street": "Ellis Street", "addr:unit": "104", "amenity": "cafe", "check_date": "2024-08-28", "cuisine": "dessert;tea", "diet:vegan": "yes", "diet:vegetarian": "yes", "drive_through": "no", "indoor_seating": "yes", "name": "Chaibaba", "opening_hours": "Mo-Su 09:30-17:30", "operator": "Crystal Russell", "outdoor_seating": "sidewalk", "payment:cash": "yes", "payment:credit_cards": "yes", "payment:debit_cards": "yes", "payment:mastercard": "yes", "payment:visa": "yes", "phone": "+1 250-717-5616", "takeaway": "yes", "website": "https://chaibabatea.ca"}}, {"type": "node", "id": 12143600182, "lat": 49.8880021, "lon": -119.4931928, "tags": {"addr:city": "Kelowna", "addr:housenumber": "1441", "addr:postcode": "V1Y 2A3", "addr:province": "BC", "addr:street": "Ellis Street", "addr:unit": "201", "amenity": "cafe", "check_date": "2025-11-11", "cuisine": "dessert;tea;coffee_shop", "diet:gluten_free": "yes", "diet:vegan": "yes", "diet:vegetarian": "yes", "email": "info@catelowna.com", "level": "1", "name": "Catelowna", "opening_hours": "Mo 11:00-16:00; Tu-Fr 11:00-18:00; Sa 10:00-17:00; Su 11:00-16:00", "outdoor_seating": "no", "phone": "+1 236-420-2011", "website": "https://catelowna.com/", "website:menu": "https://catelowna.com/new-page"}}, {"type": "node", "id": 12170512001, "lat": 49.8864993, "lon": -119.4913606, "tags": {"amenity": "restaurant", "cuisine": "ramen", "name": "Kinton Ramen"}}, {"type": "node", "id": 12298337510, "lat": 49.8893227, "lon": -119.4937264, "tags": {"addr:city": "Kelowna", "addr:housenumber": "460", "addr:postcode": "V1Y 2A2", "addr:province": "BC", "addr:street": "Doyle Avenue", "addr:unit": "104", "amenity": "cafe", "branch": "Blenz in Innovation Centre", "brand": "Blenz Coffee", "brand:wikidata": "Q4926090", "cuisine": "coffee_shop", "name": "Blenz Coffee", "opening_hours": "Mo-Fr 07:00-16:30; Sa 08:00-16:00; Su 10:00-15:00", "phone": "+1 250-712-2227", "takeaway": "yes", "website": "https://blenz.com/news/stores/blenz-in-innovation-centre/"}}, {"type": "node", "id": 12298337511, "lat": 49.8891448, "lon": -119.4937264, "tags": {"addr:city": "Kelowna", "addr:housenumber": "460", "addr:postcode": "V1Y 0C2", "addr:province": "BC", "addr:street": "Doyle Avenue", "addr:unit": "105", "amenity": "restaurant", "cuisine": "korean;italian", "diet:vegan": "yes", "diet:vegetarian": "yes", "email": "info@gatherkelowna.com", "name": "Gather Restaurant", "opening_hours": "Tu-Fr 11:00-15:00,17:00-21:00; Sa-Su 17:00-21:00", "phone": "+1 778-478-2959", "website": "https://www.gatherkelowna.com/", "website:menu": "https://www.gatherkelowna.com/#menus-section"}}, {"type": "node", "id": 12298672321, "lat": 49.8831447, "lon": -119.4950284, "tags": {"addr:city": "Kelowna", "addr:housenumber": "375", "addr:postcode": "V1Y 6C3", "addr:province": "BC", "addr:street": "Harvey Avenue", "amenity": "fast_food", "drive_through": "yes", "email": "554@whitespot.ca", "name": "Triple O's", "opening_hours": "Mo-Th 07:00-22:00; Fr-Sa 07:00-23:00; Su 08:00-20:00", "phone": "+1 250-860-6096", "website": "https://www.tripleos.com/locations/kelowna-city-park/"}}, {"type": "node", "id": 12829131190, "lat": 49.8861807, "lon": -119.490939, "tags": {"addr:city": "Kelowna", "addr:housenumber": "567", "addr:postcode": "V1Y 6N9", "addr:province": "BC", "addr:street": "Bernard Avenue", "amenity": "cafe", "contact:facebook": "https://www.facebook.com/people/Cozy-Nook-Caf%C3%A9-Bar/61560688810894/", "email": "cozynook92@gmail.com", "name": "The Nook Cafe + Bar", "opening_hours": "Su-Sa 08:00-15:00", "phone": "+1-778-478-0143", "shop": "bakery", "takeaway": "yes", "website": "https://nookcafe.ca/", "wheelchair": "yes"}}, {"type": "node", "id": 13048399141, "lat": 49.8947075, "lon": -119.4932908}, {"type": "node", "id": 13048399142, "lat": 49.8945484, "lon": -119.4932895}, {"type": "node", "id": 13048399143, "lat": 49.8945488, "lon": -119.4931735}, {"type": "node", "id": 13300907233, "lat": 49.8912834, "lon": -119.4969244, "tags": {"amenity": "cafe", "name": "Eurobean Coffee", "opening_hours": "07:00-17:00;", "phone": "+1 778 484 4744"}}, {"type": "node", "id": 13300922148, "lat": 49.8944015, "lon": -119.4947496, "tags": {"amenity": "cafe", "name": "Analog Coffee", "opening_hours": "07:00-16:00;", "phone": "+1 778 940 4880", "website": "https://www.analogcoffee.ca/"}}, {"type": "node", "id": 13300926880, "lat": 49.8896863, "lon": -119.4971434, "tags": {"amenity": "cafe", "name": "The Galley Lakeside Cafe", "opening_hours": "Mo-Th 07:30-17:00; Fr-Su 07:30-19:00;", "phone": "+1 250 762 3310", "website": "https://kelownayachtclub.com/thegalley/"}}, {"type": "node", "id": 13300927596, "lat": 49.8852876, "lon": -119.4953982, "tags": {"amenity": "cafe", "name": "O-Lake Cafe & Bistro", "opening_hours": "Mo-Sa 10:00-17:00; Su 11:00-16:00;", "phone": "+1 250 502 6666"}}, {"type": "node", "id": 13300934824, "lat": 49.8946971, "lon": -119.4859058, "tags": {"amenity": "cafe", "name": "Tackle Box Coffee Bar", "opening_hours": "Mo-Fr 07:00-15:00; Sa-Su 08:00-16:00;", "phone": "+1 250 862 3737", "website": "https://rusticreel.com/pages/coffee"}}, {"type": "node", "id": 13300939996, "lat": 49.8891454, "lon": -119.4931822, "tags": {"amenity": "cafe", "email": "north@beanscene.ca", "name": "Bean Scene North", "opening_hours": "Mo-Fr 07:00-17:00; Sa-Su 08:00-17:00; PH 08:00-16:00;", "phone": "+1 236 420 1192", "website": "https://beanscene.ca/shops-new/bean-scene-north/"}}, {"type": "node", "id": 13300941610, "lat": 49.8920977, "lon": -119.4938009, "tags": {"amenity": "cafe", "name": "J\u2019s Cafe & Bistro", "opening_hours": "Mo-Sa 10:00-21:00;", "phone": "+1 778 478 7899"}}, {"type": "node", "id": 13300954105, "lat": 49.8873394, "lon": -119.4916714, "tags": {"amenity": "cafe", "name": "Blend Bites Kelowna", "opening_hours": "Mo-Th 00:00-02:00, 08:00-00:00; Fr 00:00-02:00, 10:00-00:00; Sa-Su 00:00-02:30, 10:00-00:00;", "phone": "+1 236 763 1351", "website": "https://blendbiteskelownadowntown.square.site/"}}, {"type": "node", "id": 13300962522, "lat": 49.8857357, "lon": -119.4933042, "tags": {"amenity": "cafe", "name": "Switch Cafe", "opening_hours": "Mo-Tu 10:00-17:00; We 09:00-15:00; Th-Sa 10:00-17:00; Su 11:00-16:00;", "phone": "+1 236 420 1358", "website": "https://www.ubereats.com/ca/store/switch-cafe-1561-ellis-street/mDm5OOrsUdaKNxg75PZtjg"}}, {"type": "node", "id": 13300981324, "lat": 49.8946359, "lon": -119.4870185, "tags": {"amenity": "cafe", "name": "CeCe's Coffee", "opening_hours": "Mo-Fr 08:00-16:00; Sa 08:30-16:00;", "phone": "+1 236 766 1698", "website": "https://cecescoffee.ca/"}}, {"type": "way", "id": 222904255, "nodes": [2318468500, 2318468502, 2318468528, 2318468530, 2318468465, 2318468463, 2318468500], "tags": {"addr:city": "Kelowna", "addr:housenumber": "430", "addr:province": "BC", "addr:street": "Harvey Avenue", "amenity": "restaurant", "building": "yes", "contact:facebook": "tammmexicanrestaurant", "cuisine": "mexican", "diet:vegetarian": "yes", "email": "tammrestaurant@hotmail.com", "name": "Tamm Mexican Restaurant", "phone": "+1 236-420-4981", "source": "Bing", "website": "https://www.tammrestaurant.com/", "website:menu": "https://acrobat.adobe.com/id/urn:aaid:sc:US:6c399da5-1607-4b4f-9d97-1f789842ce8d"}}, {"type": "way", "id": 222951080, "nodes": [2318939282, 2318939284, 2318939278, 2318939280, 2318939249, 2318939248, 2318939274, 2318939276, 2318939282], "tags": {"amenity": "restaurant", "brand": "Boston Pizza", "brand:wikidata": "Q894578", "brand:wikipedia": "en:Boston Pizza", "building": "yes", "cuisine": "pizza", "name": "Boston Pizza", "opening_hours": "Su-Th 11:00-24:00, Fr,Sa 11:00-01:00", "source": "Bing", "wheelchair": "limited"}}, {"type": "way", "id": 1419990349, "nodes": [2318874221, 13048399141, 13048399142, 13048399143, 2318874221], "tags": {"addr:city": "Kelowna", "addr:housenumber": "1155", "addr:postcode": "V1Y 1Z5", "addr:province": "BC", "addr:street": "Ellis Street", "amenity": "restaurant", "building": "yes", "cuisine": "burger", "name": "Central Kitchen"}}]}