{"version": 0.6, "generator": "Overpass API 0.7.62.8 e802775f", "osm3s": {"timestamp_osm_base": "2025-11-22T19:08:54Z", "copyright": "The data included in this document is from www.openstreetmap.org. The data is made available under ODbL."}, "elements": [{"type": "node", "id": 257102284, "lat": 48.4255715, "lon": -123.367493, "tags": {"addr:housenumber": "1199", "addr:postcode": "V8W 1T3", "addr:street": "Government Street", "amenity": "restaurant", "brand": "Earls", "brand:wikidata": "Q5326525", "cuisine": "american", "level": "1", "name": "Earls", "wheelchair": "yes"}}, {"type": "node", "id": 287209244, "lat": 48.4255604, "lon": -123.3561298, "tags": {"amenity": "restaurant", "brand": "Moxie's", "brand:wikidata": "Q6927497", "cuisine": "bar_and_grill", "name": "Moxie's", "wheelchair": "yes"}}, {"type": "node", "id": 287209284, "lat": 48.4252795, "lon": -123.3571271, "tags": {"amenity": "cafe", "diet:vegetarian": "yes", "name": "Basic Cafe", "opening_hours": "Mo-Th 07:00-22:00; Fr 07:00-21:00; Sa,Su 09:00-21:00"}}, {"type": "node", "id": 290578170, "lat": 48.426198, "lon": -123.3625952, "tags": {"addr:housenumber": "784", "addr:street": "Yates Street", "amenity": "restaurant", "cuisine": "pizza", "name": "Brickyard Pizza", "phone": "+1 250 995-2722", "website": "https://www.brickyardpizza.ca/", "wheelchair": "yes"}}, {"type": "node", "id": 634778375, "lat": 48.4203847, "lon": -123.365962, "tags": {"addr:city": "Victoria", "addr:housenumber": "703", "addr:postcode": "V8W 2B4", "addr:street": "Douglas Street", "amenity": "restaurant", "brand": "The Old Spaghetti Factory", "brand:wikidata": "Q7754912", "cuisine": "italian", "name": "The Old Spaghetti Factory", "opening_hours": "Su-Th 11:30-22:00; Fr-Sa 11:30-22:00", "phone": "+1-250-381-8444", "wheelchair": "yes"}}, {"type": "node", "id": 703609181, "lat": 48.4372156, "lon": -123.3660103, "tags": {"addr:city": "Victoria", "addr:housenumber": "2631", "addr:province": "BC", "addr:street": "Douglas Street", "addr:unit": "1", "amenity": "restaurant", "delivery": "yes", "name": "Local Urban Bites", "phone": "+1-250-686-5972", "website": "https://localurbanbites.com"}}, {"type": "node", "id": 1101092268, "lat": 48.4257138, "lon": -123.3681325}, {"type": "node", "id": 1101092281, "lat": 48.4259016, "lon": -123.3683686}, {"type": "node", "id": 1101092318, "lat": 48.4258743, "lon": -123.368096}, {"type": "node", "id": 1102757728, "lat": 48.4253936, "lon": -123.3690108}, {"type": "node", "id": 1102757738, "lat": 48.4255369, "lon": -123.3653303}, {"type": "node", "id": 1102757824, "lat": 48.4251231, "lon": -123.3692508}, {"type": "node", "id": 1102757834, "lat": 48.4254114, "lon": -123.3691836}, {"type": "node", "id": 1102757851, "lat": 48.4251054, "lon": -123.3690781}, {"type": "node", "id": 1102757870, "lat": 48.4255892, "lon": -123.3658018}, {"type": "node", "id": 1102772430, "lat": 48.4257392, "lon": -123.3683855}, {"type": "node", "id": 1102772448, "lat": 48.4257581, "lon": -123.3684013}, {"type": "node", "id": 1102836437, "lat": 48.4249335, "lon": -123.3644282}, {"type": "node", "id": 1102836469, "lat": 48.4246708, "lon": -123.3644907}, {"type": "node", "id": 1102836519, "lat": 48.4246814, "lon": -123.3645915}, {"type": "node", "id": 1102836623, "lat": 48.4248564, "lon": -123.3644466}, {"type": "node", "id": 1102836624, "lat": 48.4249441, "lon": -123.364529}, {"type": "node", "id": 1103519113, "lat": 48.4270728, "lon": -123.3591091, "tags": {"amenity": "restaurant", "name": "Mantu", "opening_hours": "Th-Su 16:00-21:00"}}, {"type": "node", "id": 1103648660, "lat": 48.4322293, "lon": -123.3783274, "tags": {"addr:unit": "102", "amenity": "cafe", "check_date": "2025-06-15", "cuisine": "deli;breakfast", "internet_access": "wlan", "name": "Caffe Fantastico", "opening_hours": "Mo-Su 07:30-17:00", "phone": "+1-250-590-2315", "website": "https://caffefantastico.com/"}}, {"type": "node", "id": 1104333673, "lat": 48.4256367, "lon": -123.3653052}, {"type": "node", "id": 1104333677, "lat": 48.4254532, "lon": -123.3645713}, {"type": "node", "id": 1104333681, "lat": 48.4257283, "lon": -123.3644987}, {"type": "node", "id": 1104333687, "lat": 48.4255986, "lon": -123.3645621}, {"type": "node", "id": 1104333723, "lat": 48.4255107, "lon": -123.3645836}, {"type": "node", "id": 1104333744, "lat": 48.425689, "lon": -123.3657767}, {"type": "node", "id": 1104333745, "lat": 48.4256416, "lon": -123.3645516}, {"type": "node", "id": 1104333753, "lat": 48.4257316, "lon": -123.3645296}, {"type": "node", "id": 1249611974, "lat": 48.423996, "lon": -123.357902, "tags": {"addr:city": "Victoria", "addr:housenumber": "940", "addr:postcode": "V8V 3K2", "addr:street": "Fort Street", "amenity": "restaurant", "cuisine": "sushi", "name": "Sen Zushi", "opening_hours": "Mo-Sa 11:30-14:00,17:00-20:30", "phone": "+1-250-385-4320", "website": "https://www.senzushi.com/", "wheelchair": "yes"}}, {"type": "node", "id": 1419188457, "lat": 48.424338, "lon": -123.3704303}, {"type": "node", "id": 1419188458, "lat": 48.4243411, "lon": -123.3703512}, {"type": "node", "id": 1419188459, "lat": 48.4243598, "lon": -123.3704323}, {"type": "node", "id": 1419188460, "lat": 48.4243629, "lon": -123.3703532}, {"type": "node", "id": 1424890764, "lat": 48.4264338, "lon": -123.3702652}, {"type": "node", "id": 1424890765, "lat": 48.426432, "lon": -123.3702893}, {"type": "node", "id": 1424890792, "lat": 48.4264084, "lon": -123.3706157}, {"type": "node", "id": 1424890797, "lat": 48.4264098, "lon": -123.3705962}, {"type": "node", "id": 1424890799, "lat": 48.426515, "lon": -123.3702963}, {"type": "node", "id": 1424890800, "lat": 48.4264882, "lon": -123.3706387}, {"type": "node", "id": 1500843730, "lat": 48.4209878, "lon": -123.3743714}, {"type": "node", "id": 1500843753, "lat": 48.4210331, "lon": -123.3745127}, {"type": "node", "id": 1500843756, "lat": 48.421039, "lon": -123.3745078}, {"type": "node", "id": 1500843766, "lat": 48.4210546, "lon": -123.3745471}, {"type": "node", "id": 1500843774, "lat": 48.4211243, "lon": -123.3744764}, {"type": "node", "id": 1500843780, "lat": 48.4211341, "lon": -123.374258}, {"type": "node", "id": 1500843783, "lat": 48.4211422, "lon": -123.3742821}, {"type": "node", "id": 1500843787, "lat": 48.421172, "lon": -123.3744343}, {"type": "node", "id": 1500843790, "lat": 48.4211731, "lon": -123.374259}, {"type": "node", "id": 1500843791, "lat": 48.4211735, "lon": -123.3744386}, {"type": "node", "id": 1500843794, "lat": 48.421207, "lon": -123.374363}, {"type": "node", "id": 1500843795, "lat": 48.4212155, "lon": -123.3743979}, {"type": "node", "id": 1654838472, "lat": 48.4261454, "lon": -123.3616547, "tags": {"addr:housenumber": "808", "addr:postcode": "V8W 3S2", "addr:street": "Yates Street", "amenity": "cafe", "cuisine": "coffee_shop", "name": "Habit Coffee", "opening_hours": "Mo-Fr 07:00-21:00; Sa 08:00-21:00; Su 08:00-17:00", "phone": "+1-250-590-5953", "website": "https://habitcoffee.com/"}}, {"type": "node", "id": 1665875631, "lat": 48.437365, "lon": -123.3588256, "tags": {"addr:housenumber": "975", "addr:postcode": "V8T 1W7", "addr:street": "Kings Road", "amenity": "cafe", "name": "Caff\u00e8 Fantastico", "opening_hours": "Su-We 07:00-18:30; Th-Sa 07:00-21:00", "phone": "+1-250-385-2326", "website": "https://caffefantastico.com/", "wheelchair": "limited"}}, {"type": "node", "id": 1823560813, "lat": 48.4303466, "lon": -123.3526763, "tags": {"addr:city": "Victoria", "addr:housenumber": "1105", "addr:postcode": "V8T 1E9", "addr:street": "Caledonia Avenue", "amenity": "cafe", "cuisine": "coffee_shop", "name": "The Parsonage Cafe", "opening_hours": "Mo-Su 07:00-18:00", "outdoor_seating": "yes", "smoking": "no", "website": "https://fernwoodcoffee.com"}}, {"type": "node", "id": 1830360216, "lat": 48.425508, "lon": -123.3645579}, {"type": "node", "id": 1831416921, "lat": 48.4254375, "lon": -123.364425}, {"type": "node", "id": 1831416929, "lat": 48.4256537, "lon": -123.3643721}, {"type": "node", "id": 1831416931, "lat": 48.4256604, "lon": -123.3644341}, {"type": "node", "id": 1831416947, "lat": 48.425759, "lon": -123.36441}, {"type": "node", "id": 1831416948, "lat": 48.4257675, "lon": -123.3644891}, {"type": "node", "id": 2148443002, "lat": 48.4257743, "lon": -123.364774, "tags": {"addr:housenumber": "1213", "addr:street": "Douglas Street", "amenity": "cafe", "internet_access": "wlan", "name": "Cat's Coffee & Cake"}}, {"type": "node", "id": 2148443003, "lat": 48.4257072, "lon": -123.364786, "tags": {"addr:housenumber": "1209", "addr:street": "Douglas Street", "amenity": "fast_food", "brand": "Fatburger", "brand:wikidata": "Q1397976", "check_date": "2025-03-08", "cuisine": "burger", "internet_access": "wlan", "name": "Fatburger", "opening_hours": "Mo-Su 10:00-21:00", "phone": "+1-250-590-4142", "takeaway": "yes"}}, {"type": "node", "id": 2148443007, "lat": 48.4254759, "lon": -123.3638392, "tags": {"addr:housenumber": "736", "addr:street": "View Street", "addr:unit": "B", "amenity": "cafe", "cuisine": "soup", "name": "Soupa Cafe"}}, {"type": "node", "id": 2266409113, "lat": 48.4262042, "lon": -123.3661008, "tags": {"addr:housenumber": "1235", "addr:postcode": "V8W 2A4", "addr:street": "Broad Street", "amenity": "restaurant", "cuisine": "breakfast", "name": "West Coast Waffles", "wheelchair": "yes"}}, {"type": "node", "id": 2322054997, "lat": 48.4247186, "lon": -123.3677519, "tags": {"addr:city": "Victoria", "addr:housenumber": "1023", "addr:street": "Government Street", "amenity": "fast_food", "brand": "A&W", "brand:wikidata": "Q2818848", "check_date": "2025-03-03", "cuisine": "burger", "name": "A&W", "source": "NRCan-CanVec-10.0", "takeaway": "yes"}}, {"type": "node", "id": 2401074120, "lat": 48.4242259, "lon": -123.3628078, "tags": {"addr:housenumber": "799", "addr:street": "Fort Street", "addr:unit": "B", "amenity": "fast_food", "cuisine": "sandwich", "name": "Delicados"}}, {"type": "node", "id": 2445121562, "lat": 48.4256489, "lon": -123.3625159}, {"type": "node", "id": 2445121563, "lat": 48.4256607, "lon": -123.3626403}, {"type": "node", "id": 2445121564, "lat": 48.4257082, "lon": -123.3625031}, {"type": "node", "id": 2445121565, "lat": 48.42572, "lon": -123.3626275}, {"type": "node", "id": 2519432219, "lat": 48.4286307, "lon": -123.3675675, "tags": {"addr:housenumber": "556", "addr:postcode": "V8W 1N7", "addr:street": "Pandora Avenue", "addr:unit": "A", "amenity": "restaurant", "check_date": "2025-08-01", "description": "dumplings to eat in, take out, or buy frozen", "email": "hello@dumplingdrop.ca", "name": "Dumpling Drop", "opening_hours": "11:30-20:00", "payment:cash": "yes", "payment:credit_cards": "yes", "payment:debit_cards": "yes", "phone": "+1 (250) 590-3262", "website": "https://dumplingdrop.ca", "wheelchair": "yes"}}, {"type": "node", "id": 2589491131, "lat": 48.426229, "lon": -123.3628256, "tags": {"addr:housenumber": "768", "addr:postcode": "V8W 1L4", "addr:street": "Yates Street", "amenity": "restaurant", "capacity": "50", "cuisine": "regional", "name": "Cenote Restaurant and Lounge"}}, {"type": "node", "id": 2619256360, "lat": 48.4252436, "lon": -123.356851, "tags": {"addr:city": "Victoria", "addr:housenumber": "911", "addr:street": "Yates Street", "amenity": "restaurant", "check_date": "2025-10-09", "cuisine": "burger", "name": "Bin 4 Burger Lounge"}}, {"type": "node", "id": 2726246820, "lat": 48.4265949, "lon": -123.3700387, "tags": {"addr:housenumber": "1219", "addr:street": "Wharf Street", "amenity": "fast_food", "cuisine": "pizza", "indoor_seating": "yes", "name": "The Joint Pizzeria", "outdoor_seating": "no", "wheelchair": "yes"}}, {"type": "node", "id": 2726252125, "lat": 48.4292373, "lon": -123.3684685, "tags": {"addr:housenumber": "533", "addr:postcode": "V8W 1R3", "addr:street": "Fisgard Street", "amenity": "cafe", "internet_access": "no", "name": "Bean Around The World", "wheelchair": "no"}}, {"type": "node", "id": 2726253773, "lat": 48.4244508, "lon": -123.3622603, "tags": {"addr:housenumber": "1111", "addr:street": "Blanshard Street", "amenity": "fast_food", "brand": "Subway", "brand:wikidata": "Q244457", "brand:wikipedia": "en:Subway (restaurant)", "cuisine": "sandwich", "name": "Subway", "takeaway": "yes"}}, {"type": "node", "id": 2726253790, "lat": 48.4246559, "lon": -123.3622104, "tags": {"addr:housenumber": "1113", "addr:street": "Blanshard Street", "amenity": "restaurant", "cuisine": "sushi", "name": "Shiki Sushi", "opening_hours": "Mo-Th 11:00-14:30,16:30-21:00; Fr 11:00-14:30,16:30-21:30; Sa 16:00-21:30; Su 16:00-21:00", "phone": "+1 250 381-8622", "website": "https://shikisushivictoria.ca/"}}, {"type": "node", "id": 2901476839, "lat": 48.4242924, "lon": -123.3611471, "tags": {"addr:housenumber": "830", "addr:street": "Fort Street", "amenity": "restaurant", "cuisine": "french", "name": "Choux Choux Charcuterie", "opening_hours": "Tu-Fr 10:00-17:30; Sa 10:00-17:00"}}, {"type": "node", "id": 2981948276, "lat": 48.4227679, "lon": -123.3661265, "tags": {"addr:housenumber": "818", "addr:postcode": "V8W 2B6", "addr:street": "Douglas Street", "amenity": "restaurant", "cuisine": "noodle", "name": "Noodle Box"}}, {"type": "node", "id": 3066159766, "lat": 48.4227278, "lon": -123.3688365, "tags": {"amenity": "restaurant", "branch": "Bar & Grill", "brand": "Milestones", "brand:wikidata": "Q6851623", "cuisine": "bar_and_grill", "name": "Milestones", "outdoor_seating": "yes", "wheelchair": "no"}}, {"type": "node", "id": 3066164520, "lat": 48.4350725, "lon": -123.3653862}, {"type": "node", "id": 3066164542, "lat": 48.4349081, "lon": -123.3655772}, {"type": "node", "id": 3066164551, "lat": 48.4349709, "lon": -123.3653282}, {"type": "node", "id": 3067883499, "lat": 48.427759, "lon": -123.3566515}, {"type": "node", "id": 3067883521, "lat": 48.4278832, "lon": -123.3566386}, {"type": "node", "id": 3067884271, "lat": 48.4278569, "lon": -123.3568929}, {"type": "node", "id": 3067884298, "lat": 48.4277056, "lon": -123.3569197}, {"type": "node", "id": 3067884326, "lat": 48.4276859, "lon": -123.3565618}, {"type": "node", "id": 3067884339, "lat": 48.4278889, "lon": -123.3568285}, {"type": "node", "id": 3067884344, "lat": 48.4277533, "lon": -123.3565528}, {"type": "node", "id": 3181244905, "lat": 48.4352397, "lon": -123.3749866, "tags": {"addr:housenumber": "360", "addr:postcode": "V8T 1P7", "addr:street": "Bay Street", "amenity": "fast_food", "cuisine": "local", "name": "Salt Chuck Pie Company", "opening_hours": "Mo-Su 09:00-18:00", "phone": "+1-250-383-7551", "shop": "bakery", "website": "https://saltchuckpies.com/"}}, {"type": "node", "id": 3215319166, "lat": 48.423432, "lon": -123.3561838, "tags": {"addr:housenumber": "1015", "addr:street": "Fort Street", "amenity": "restaurant", "cuisine": "indian", "name": "The Mantra", "opening_hours": "Mo-Su 11:00-21:30", "phone": "+1 778 265-3786", "website": "https://www.mantrarestaurant.ca/"}}, {"type": "node", "id": 3277893607, "lat": 48.4312974, "lon": -123.3583122, "tags": {"addr:city": "Victoria", "addr:housenumber": "1921", "addr:province": "BC", "addr:street": "Quadra Street", "amenity": "restaurant", "cuisine": "japanese;sushi", "diet:vegan": "yes", "diet:vegetarian": "yes", "name": "MoMo Sushi", "opening_hours": "We-Mo 11:00-21:00", "phone": "+1-250-590-8807", "website": "http://momosushivictoria.ca/"}}, {"type": "node", "id": 3279844755, "lat": 48.4236145, "lon": -123.370532, "tags": {"addr:city": "Victoria", "addr:housenumber": "950", "addr:postcode": "V8W 1T3", "addr:province": "BC", "addr:street": "Wharf Street", "addr:unit": "A", "amenity": "restaurant", "cuisine": "regional", "name": "Flying Otter Grill"}}, {"type": "node", "id": 3317905682, "lat": 48.4320397, "lon": -123.3649647, "tags": {"addr:city": "Victoria", "addr:housenumber": "664", "addr:province": "BC", "addr:street": "Discovery Street", "amenity": "cafe", "cuisine": "coffee_shop", "name": "Discovery Coffee", "opening_hours": "Mo-Su 07:00-16:00"}}, {"type": "node", "id": 3344999394, "lat": 48.420071, "lon": -123.3628864, "tags": {"addr:city": "Victoria", "addr:housenumber": "810", "addr:postcode": "V8V 5B1", "addr:street": "Humboldt Street", "amenity": "restaurant", "check_date": "2025-05-09", "cuisine": "coffee;wine;beer", "name": "Tre Fantastico", "opening_hours": "07:00-22:00"}}, {"type": "node", "id": 3431121076, "lat": 48.425118, "lon": -123.3690118, "tags": {"addr:housenumber": "512", "addr:street": "Fort Street", "amenity": "restaurant", "cuisine": "thai", "name": "Siam Thai Cuisine", "source": "Bing"}}, {"type": "node", "id": 3431121077, "lat": 48.4251845, "lon": -123.369662, "tags": {"amenity": "restaurant", "branch": "Steakhouse & Bar", "brand": "The Keg", "brand:wikidata": "Q7744066", "brand:wikipedia": "en:The Keg", "cuisine": "steak_house", "indoor_seating": "yes", "name": "The Keg", "outdoor_seating": "no", "source": "Bing", "website": "https://thekeg.com/en/locations/fort-street", "website:en": "https://thekeg.com/en/locations/fort-street", "website:fr": "https://thekeg.com/fr/restaurants/fort-street"}}, {"type": "node", "id": 3438282372, "lat": 48.4253494, "lon": -123.3679801, "tags": {"addr:housenumber": "1110", "addr:street": "Government Street", "amenity": "cafe", "cuisine": "tea;coffee_shop", "name": "Murchie's Cafe", "opening_hours": "Mo-Sa 07:30-18:00; Su 08:00-18:00; PH 11:00-18:00", "outdoor_seating": "yes", "phone": "+1-250-381-5451"}}, {"type": "node", "id": 3782800106, "lat": 48.4244549, "lon": -123.369405, "tags": {"addr:city": "Victoria", "addr:housenumber": "1001", "addr:province": "BC", "addr:street": "Wharf Street", "amenity": "restaurant", "check_date": "2025-05-18", "cuisine": "seafood", "name": "Nautical Nellies Steak & Seafood House"}}, {"type": "node", "id": 3849480263, "lat": 48.4262445, "lon": -123.3629455, "tags": {"addr:housenumber": "762", "addr:street": "Yates Street", "amenity": "cafe", "check_date": "2025-08-01", "cuisine": "bubble_tea", "name": "Momo Tea"}}, {"type": "node", "id": 4069874853, "lat": 48.4266716, "lon": -123.3672494, "tags": {"addr:housenumber": "1301", "addr:street": "Government Street", "amenity": "cafe", "brand": "Starbucks", "brand:wikidata": "Q37158", "brand:wikipedia": "en:Starbucks", "check_date": "2025-05-18", "cuisine": "coffee_shop", "internet_access": "wlan", "name": "Starbucks", "official_name": "Starbucks Coffee", "operator": "starbucks", "takeaway": "yes"}}, {"type": "node", "id": 4071028771, "lat": 48.4292284, "lon": -123.366605, "tags": {"addr:housenumber": "1689", "addr:street": "Government Street", "amenity": "cafe", "brand": "Starbucks", "brand:wikidata": "Q37158", "brand:wikipedia": "en:Starbucks", "cuisine": "coffee_shop", "name": "Starbucks", "official_name": "Starbucks Coffee", "takeaway": "yes"}}, {"type": "node", "id": 4071029437, "lat": 48.429475, "lon": -123.3675857, "tags": {"addr:housenumber": "560", "addr:street": "Fisgard Street", "amenity": "restaurant", "name": "Wah Laiyuen", "opening_hours": "Tu-Su 11:00-20:00", "phone": "+1-250-381-5355"}}, {"type": "node", "id": 4071957739, "lat": 48.4249904, "lon": -123.365929, "tags": {"amenity": "fast_food", "brand": "A&W", "brand:wikidata": "Q2818848", "brand:wikipedia": "en:A&W (Canada)", "cuisine": "burger", "level": "4", "name": "A&W", "takeaway": "yes"}}, {"type": "node", "id": 4072639381, "lat": 48.4358254, "lon": -123.36309, "tags": {"amenity": "fast_food", "brand": "Wendy's", "brand:wikidata": "Q550258", "brand:wikipedia": "en:Wendy's", "check_date": "2025-04-23", "cuisine": "burger", "drive_through": "yes", "name": "Wendy's", "takeaway": "yes"}}, {"type": "node", "id": 4072641316, "lat": 48.4364828, "lon": -123.363063, "tags": {"amenity": "fast_food", "brand": "Subway", "brand:wikidata": "Q244457", "brand:wikipedia": "en:Subway (restaurant)", "check_date": "2025-04-23", "cuisine": "sandwich", "name": "Subway", "takeaway": "yes"}}, {"type": "node", "id": 4336451731, "lat": 48.4350097, "lon": -123.3656352}, {"type": "node", "id": 4336460504, "lat": 48.4235377, "lon": -123.354255, "tags": {"addr:housenumber": "1090", "addr:street": "Fort Street", "amenity": "fast_food", "brand": "Subway", "brand:wikidata": "Q244457", "brand:wikipedia": "en:Subway (restaurant)", "cuisine": "sandwich", "name": "Subway", "opening_hours": "Mo-We 08:00-02:00, Th,Fr 08:00-03:30, Su 09:00-02:00", "takeaway": "yes"}}, {"type": "node", "id": 4483270768, "lat": 48.430612, "lon": -123.3673211, "tags": {"addr:housenumber": "1812", "addr:street": "Government Street", "amenity": "cafe", "cuisine": "coffee_shop", "name": "Cascadia"}}, {"type": "node", "id": 4483270779, "lat": 48.430337, "lon": -123.3677317, "tags": {"addr:housenumber": "542", "addr:street": "Herald Street", "amenity": "restaurant", "name": "Jam Cafe", "name:en": "Jam Cafe", "opening_hours": "08:00-15:00", "phone": "+1-778-440-4489", "website": "http://jamcafes.com/victoria/"}}, {"type": "node", "id": 4681148890, "lat": 48.4272638, "lon": -123.361995, "tags": {"addr:housenumber": "1410", "addr:street": "Blanshard Street", "amenity": "cafe", "brand": "Tim Hortons", "brand:wikidata": "Q175106", "brand:wikipedia": "en:Tim Hortons", "cuisine": "coffee_shop", "drive_through": "no", "internet_access": "wlan", "name": "Tim Hortons", "opening_hours": "Mo-Su 06:00-20:00", "takeaway": "yes"}}, {"type": "node", "id": 4681149291, "lat": 48.4249682, "lon": -123.3666426, "tags": {"amenity": "cafe", "cuisine": "coffee_shop", "name": "Good Earth"}}, {"type": "node", "id": 4683969189, "lat": 48.427073, "lon": -123.362134, "tags": {"addr:housenumber": "780", "addr:street": "Johnson Street", "amenity": "cafe", "name": "Macchiato Caffe", "opening_hours": "Mo-Fr 07:30-15:30", "phone": "+1-250-590-5985"}}, {"type": "node", "id": 4684060891, "lat": 48.4269769, "lon": -123.3649927, "tags": {"addr:housenumber": "1322", "addr:street": "Douglas Street", "amenity": "fast_food", "check_date": "2025-10-07", "cuisine": "pizza", "name": "Second Slice Pizza", "name:en": "Second Slice Pizza", "opening_hours": "Mo-Th 11:00-27:00; Fr 11:00-28:30; Sa 12:00-28:30; Su 12:00-27:00", "phone": "+1 250 385-1000", "website": "https://secondslice.com/", "wheelchair": "yes"}}, {"type": "node", "id": 4684074093, "lat": 48.4271088, "lon": -123.3649579, "tags": {"addr:housenumber": "1328", "addr:street": "Douglas Street", "amenity": "fast_food", "brand": "Burger King", "brand:wikidata": "Q177054", "brand:wikipedia": "en:Burger King", "cuisine": "burger", "name": "Burger King", "name:en": "Burger King", "takeaway": "yes", "wheelchair": "yes"}}, {"type": "node", "id": 4684167389, "lat": 48.4270271, "lon": -123.3649794, "tags": {"addr:housenumber": "1324", "addr:street": "Douglas Street", "amenity": "fast_food", "brand": "Subway", "brand:wikidata": "Q244457", "brand:wikipedia": "en:Subway (restaurant)", "check_date": "2025-10-07", "cuisine": "sandwich", "name": "Subway", "name:en": "Subway", "takeaway": "yes"}}, {"type": "node", "id": 4751971321, "lat": 48.4242668, "lon": -123.366707, "tags": {"addr:city": "Victoria", "addr:housenumber": "1002", "addr:province": "BC", "addr:street": "Broad Street", "amenity": "cafe", "name": "Macchiato Caffe"}}, {"type": "node", "id": 4775888875, "lat": 48.4241533, "lon": -123.3620757, "tags": {"addr:housenumber": "807", "addr:street": "Fort Street", "amenity": "restaurant", "cuisine": "vietnamese", "name": "Original Pho", "opening_hours": "Su-Th 11:30-21:00; Fr-Sa 11:30-21:30", "phone": "+1 250 590-2789", "website": "https://www.originalpho.ca/"}}, {"type": "node", "id": 4775889057, "lat": 48.4242216, "lon": -123.362763, "tags": {"addr:housenumber": "799", "addr:street": "Fort Street", "addr:unit": "A", "amenity": "restaurant", "name": "Good Ovening Korean Pub and Oven Roasted Chicken", "opening_hours": "Mo-Su 11:30-23:00"}}, {"type": "node", "id": 4775890326, "lat": 48.4241666, "lon": -123.3621996, "tags": {"addr:housenumber": "805", "addr:street": "Fort Street", "amenity": "restaurant", "cuisine": "fish;salad", "diet:vegetarian": "no", "name": "Fish Hook", "name:en": "Fish Hook", "opening_hours": "Tu-Sa 11:30-21:00; Su 11:30-20:00", "phone": "+12504770470", "website": "https://fishhookvic.com/"}}, {"type": "node", "id": 4789078621, "lat": 48.4236813, "lon": -123.3684025, "tags": {"amenity": "fast_food", "brand": "Burger King", "brand:wikidata": "Q177054", "brand:wikipedia": "en:Burger King", "cuisine": "burger", "name": "Burger King", "name:en": "Burger King", "takeaway": "yes"}}, {"type": "node", "id": 4789078921, "lat": 48.4233994, "lon": -123.3680717, "tags": {"addr:housenumber": "817", "addr:street": "Government Street", "amenity": "cafe", "name": "Milano"}}, {"type": "node", "id": 4789235822, "lat": 48.4268124, "lon": -123.362151, "tags": {"addr:housenumber": "1324", "addr:street": "Blanshard Street", "amenity": "restaurant", "name": "Shuck Taylor's", "opening_hours": "11:30-22:00", "website": "https://wanderingmollusk.com/st/"}}, {"type": "node", "id": 4799876624, "lat": 48.4239584, "lon": -123.3653024, "tags": {"addr:housenumber": "1001", "addr:street": "Douglas Street", "amenity": "cafe", "brand": "Blenz Coffee", "brand:wikidata": "Q4926090", "cuisine": "coffee_shop", "internet_access": "wlan", "name": "Blenz Coffee", "name:en": "Blenz Coffee", "opening_hours": "Mo-Fr 07:00-17:00; Sa,Su 08:00-17:00", "takeaway": "yes"}}, {"type": "node", "id": 4855462570, "lat": 48.4275357, "lon": -123.3687508, "tags": {"addr:housenumber": "555", "addr:postcode": "V8W 1M2", "addr:street": "Johnson Street", "amenity": "restaurant", "cuisine": "italian", "email": "ilterrazzo@shaw.ca", "name": "Il Terrazzo", "phone": "+1 250 361 0028", "website": "https://www.ilterrazzo.com/index.php"}}, {"type": "node", "id": 4988830904, "lat": 48.4230459, "lon": -123.3681116, "tags": {"addr:housenumber": "805", "addr:street": "Government Street", "amenity": "restaurant", "name": "Tractor"}}, {"type": "node", "id": 5003594639, "lat": 48.4269403, "lon": -123.3690811, "tags": {"addr:housenumber": "536", "addr:street": "Yates Street", "amenity": "restaurant", "cuisine": "seafood", "name": "Ferris'"}}, {"type": "node", "id": 5020495621, "lat": 48.4275793, "lon": -123.364838, "tags": {"addr:housenumber": "1414", "addr:street": "Douglas Street", "amenity": "restaurant", "cuisine": "indian;asian", "name": "The Mint", "name:fr": "The Mint", "opening_hours": "Mo-Su 17:00-02:00"}}, {"type": "node", "id": 5021162423, "lat": 48.4294677, "lon": -123.3682128, "tags": {"addr:housenumber": "538", "addr:street": "Fisgard Street", "amenity": "restaurant", "cuisine": "chinese;seafood", "name": "Don Mee Seafood Restaurant", "name:en": "Don Mee Seafood Restaurant", "opening_hours": "Mo-Fr 11:00-22:00; Sa-Su 10:00-22:00", "phone": "+1-250-383-1032"}}, {"type": "node", "id": 5023176918, "lat": 48.4282697, "lon": -123.3690512, "tags": {"addr:housenumber": "560", "addr:street": "Johnson Street", "addr:unit": "140", "amenity": "restaurant", "cuisine": "indonesian", "name": "Ayo Eat", "takeaway": "yes", "website": "http://www.ayoeat.ca/"}}, {"type": "node", "id": 5024738047, "lat": 48.4298192, "lon": -123.366884, "tags": {"addr:housenumber": "1715", "addr:street": "Government Street", "amenity": "restaurant", "cuisine": "french", "delivery": "no", "name": "Brasserie L'\u00e9cole", "opening_hours": "Tu-Sa 17:30-23:00", "takeaway": "no", "website": "https://www.lecole.ca/", "wheelchair": "yes"}}, {"type": "node", "id": 5025395638, "lat": 48.430099, "lon": -123.3683847, "tags": {"addr:housenumber": "537", "addr:street": "Herald Street", "amenity": "cafe", "cuisine": "sandwich", "name": "Union Pacific Coffee", "opening_hours": "Mo-Sa 08:00-15:00", "outdoor_seating": "yes", "phone": "+1-250-380-0005", "takeaway": "yes", "website": "https://www.unionpacificcoffee.ca/", "wheelchair": "yes"}}, {"type": "node", "id": 5026647921, "lat": 48.4281807, "lon": -123.3694415, "tags": {"addr:housenumber": "1437", "addr:street": "Store Street", "amenity": "restaurant", "cuisine": "mexican", "name": "Fuego", "name:en": "Fuego", "opening_hours": "Mo-Fr 09:00-15:00; Sa-Su 08:00-15:00"}}, {"type": "node", "id": 5026664949, "lat": 48.4294766, "lon": -123.3673656, "tags": {"addr:housenumber": "568", "addr:street": "Fisgard Street", "amenity": "restaurant", "cuisine": "chinese", "delivery": "yes", "name": "Ocean Garden", "takeaway": "yes", "wheelchair": "yes"}}, {"type": "node", "id": 5029339655, "lat": 48.4244768, "lon": -123.3664079, "tags": {"addr:city": "Victoria", "addr:housenumber": "1011", "addr:street": "Broad Street", "amenity": "restaurant", "check_date": "2025-08-01", "cuisine": "italian", "delivery": "yes", "name": "Pagliacci's", "opening_hours": "Mo-Th 11:30-22:00; Fr-Sa 11:30-23:00; Su 10:00-22:00", "phone": "+1-250-386-1662", "takeaway": "yes", "website": "https://www.pagliaccis.ca/"}}, {"type": "node", "id": 5033262227, "lat": 48.4286352, "lon": -123.3679645, "tags": {"addr:housenumber": "544", "addr:postcode": "V8W 1N6", "addr:street": "Pandora Avenue", "amenity": "cafe", "email": "info@justmatcha.com", "name": "Just Matcha", "name:en": "Just Matcha", "opening_hours": "Mo-Sa 10:00-18:00; Su 12:00-17:00", "phone": "+1-250-813-2456", "website": "https://justmatcha.com/"}}, {"type": "node", "id": 5033332823, "lat": 48.4295028, "lon": -123.366712, "tags": {"addr:housenumber": "1701", "addr:street": "Government Street", "amenity": "cafe", "cuisine": "breakfast;cake;coffee_shop;pancake;sandwich", "internet_access": "wlan", "name": "QV Cafe", "name:en": "QV Cafe & Bakery", "opening_hours": "Mo-Su 08:30-21:00", "phone": "+1-250-384-8831", "website": "https://www.qvcafe.ca/"}}, {"type": "node", "id": 5033332824, "lat": 48.4266997, "lon": -123.364614, "tags": {"addr:housenumber": "1313", "addr:street": "Douglas Street", "amenity": "restaurant", "check_date": "2025-10-07", "cuisine": "chinese", "name": "Hope Key", "name:en": "Hope Key"}}, {"type": "node", "id": 5033391724, "lat": 48.4226725, "lon": -123.3544883, "tags": {"amenity": "restaurant", "cuisine": "thai", "name": "My Thai Caf\u00e9", "name:en": "My Thai Caf\u00e9", "opening_hours": "Tu-Fr 11:30-14:00,17:00-21:00; Sa 12:00-15:00,17:00-21:00; Su 12:00-15:00,17:00-20:00", "phone": "+1-250-472-7574"}}, {"type": "node", "id": 5134236921, "lat": 48.4213995, "lon": -123.3746492, "tags": {"amenity": "restaurant", "check_date": "2023-04-27", "cuisine": "mexican", "name": "Santiago's"}}, {"type": "node", "id": 5195384232, "lat": 48.4222944, "lon": -123.3656783, "tags": {"addr:housenumber": "809", "addr:street": "Douglas Street", "amenity": "restaurant", "name": "Browns Social House", "opening_hours": "Mo-Fr 11:00-24:00, Sa-Su 10:00-24:00", "phone": "+1 250 388-0200", "website": "https://www.brownssocialhouse.com/victoriafalls"}}, {"type": "node", "id": 5296238921, "lat": 48.4210217, "lon": -123.371103, "tags": {"addr:city": "Victoria", "addr:housenumber": "470", "addr:postcode": "V8V 1W9", "addr:street": "Belleville Street", "amenity": "cafe", "brand": "Starbucks", "brand:wikidata": "Q37158", "brand:wikipedia": "en:Starbucks", "cuisine": "coffee_shop", "internet_access": "wlan", "name": "Starbucks", "official_name": "Starbucks Coffee", "takeaway": "yes"}}, {"type": "node", "id": 5296549923, "lat": 48.4278091, "lon": -123.3637705, "tags": {"addr:housenumber": "723", "addr:postcode": "V8W 1N9", "addr:street": "Pandora Avenue", "amenity": "restaurant", "check_date": "2025-04-23", "name": "John's Place", "phone": "+1-250-389-0711", "website": "http://www.johnsplace.ca"}}, {"type": "node", "id": 5299909985, "lat": 48.4210431, "lon": -123.3713347, "tags": {"addr:city": "Victoria", "addr:housenumber": "470", "addr:postcode": "V8V 1W9", "addr:street": "Belleville Street", "amenity": "restaurant", "cuisine": "seafood", "email": "gmss@xtramile.ca", "name": "Steamship Grill & Bar", "opening_hours": "Mo-Th 11:00-22:00; Fr 11:00-22:30; Sa 10:00-22:30; Su 10:00-21:30", "phone": "+1-778-433-6736", "website": "https://steamshipgrill.com/"}}, {"type": "node", "id": 5311385621, "lat": 48.4279321, "lon": -123.3686514, "tags": {"addr:housenumber": "560", "addr:postcode": "V8W3C6", "addr:street": "Johnson Street", "amenity": "restaurant", "changing_table": "yes", "check_date": "2025-03-02", "contact:facebook": "greencuisinevictoria", "diet:vegan": "yes", "diet:vegetarian": "only", "level": "-1", "name": "Green Cuisine", "opening_hours": "Mo-Fr 10:00-19:00; Sa-Su 11:00-19:00", "outdoor_seating": "yes", "phone": "+1 250 385 1809", "takeaway": "yes", "toilets": "yes", "toilets:wheelchair": "limited", "website": "https://www.greencuisine.com/"}}, {"type": "node", "id": 5447397946, "lat": 48.4277474, "lon": -123.363417, "tags": {"addr:housenumber": "739", "addr:street": "Pandora Avenue", "amenity": "restaurant", "name": "Nubo Japanese Tapas"}}, {"type": "node", "id": 5550523821, "lat": 48.4245382, "lon": -123.3633893, "tags": {"addr:housenumber": "766", "addr:street": "Fort Street", "amenity": "restaurant", "cuisine": "american", "name": "Serena's Pizzeria and Hoagies", "website": "https://serenas.ca/"}}, {"type": "node", "id": 5635890650, "lat": 48.4238612, "lon": -123.3624162, "tags": {"addr:housenumber": "1011", "addr:street": "Blanshard Street", "amenity": "restaurant", "cuisine": "middle_eastern", "name": "Yalla", "opening_hours": "Mo-Sa 11:00-21:00, Su 11:00-16:00", "phone": "+1-250-384-0069", "website": "https://letsgoyalla.ca/"}}, {"type": "node", "id": 5738265521, "lat": 48.4267179, "lon": -123.3692715, "tags": {"addr:housenumber": "533", "addr:street": "Yates Street", "amenity": "restaurant", "check_date": "2025-03-03", "name": "El Furniture Warehouse", "outdoor_seating": "yes", "phone": "+1 778 265-9575", "website": "https://warehousegroup.ca/location/el-furniture-warehouse-victoria/"}}, {"type": "node", "id": 5739779792, "lat": 48.4228708, "lon": -123.366105, "tags": {"addr:housenumber": "850", "addr:postcode": "V8W 2B6", "addr:street": "Douglas Street", "addr:unit": "150", "amenity": "restaurant", "brand": "Cora", "brand:wikidata": "Q2996960", "brand:wikipedia": "en:Cora (restaurant)", "cuisine": "breakfast", "name": "Cora", "outdoor_seating": "no", "website": "https://www.chezcora.com/en"}}, {"type": "node", "id": 5744265377, "lat": 48.4267222, "lon": -123.3616615, "tags": {"addr:housenumber": "1325", "addr:street": "Blanshard Street", "amenity": "restaurant", "name": "Superbaba", "opening_hours": "Mo-Su 12:00-20:00", "phone": "+1-250-590-2725", "website": "https://eatsuperbaba.com/"}}, {"type": "node", "id": 5744887892, "lat": 48.425269, "lon": -123.36489, "tags": {"amenity": "restaurant", "level": "-1", "name": "James Joyce Bistro and Peacock Billiards", "sport": "billiards"}}, {"type": "node", "id": 5744887998, "lat": 48.4337971, "lon": -123.358598, "tags": {"addr:housenumber": "2224", "addr:street": "Quadra Street", "amenity": "restaurant", "check_date:opening_hours": "2021-07-05", "diet:vegetarian": "no", "name": "Chicken 649", "opening_hours": "Mo-Sa 11:30-21:00", "phone": "+1-250-590-6491", "website": "https://chicken649.ca/"}}, {"type": "node", "id": 5757042871, "lat": 48.4261102, "lon": -123.3612503, "tags": {"addr:housenumber": "820", "addr:street": "Yates Street", "amenity": "restaurant", "check_date": "2025-06-23", "name": "Zambri's", "opening_hours": "We-Fr 11:30-14:30, Tu-Th 17:00-21:00, Fr-Sa 17:00-22:00", "phone": "+1 250 360-1171", "website": "https://www.zambris.ca/"}}, {"type": "node", "id": 5757047706, "lat": 48.4263833, "lon": -123.3611372, "tags": {"amenity": "restaurant", "cuisine": "ramen", "name": "Taosis Ramen", "opening_hours": "Mo-Su 11:00-21:30"}}, {"type": "node", "id": 5830956998, "lat": 48.4261062, "lon": -123.3698466, "tags": {"addr:housenumber": "1205", "addr:street": "Wharf Street", "amenity": "restaurant", "indoor_seating": "yes", "name": "The Local", "outdoor_seating": "yes", "phone": "+1 250 385-1999", "website": "https://thelocalvictoria.com/"}}, {"type": "node", "id": 5921737685, "lat": 48.4283808, "lon": -123.3684216, "tags": {"addr:housenumber": "529", "addr:street": "Pandora Avenue", "amenity": "cafe", "check_date": "2025-03-08", "cuisine": "breakfast;coffee_shop", "internet_access": "wlan", "name": "Shanzee's Biscuit Caf\u00e9", "name:en": "Shanzee's Biscuit Cafe", "opening_hours": "Mo-Su 08:00-15:00", "outdoor_seating": "yes", "phone": "+1-778-433-9089", "toilets": "yes", "toilets:wheelchair": "yes", "warning": "House number out of sequence"}}, {"type": "node", "id": 6054072677, "lat": 48.4248239, "lon": -123.365048, "tags": {"addr:housenumber": "1125", "addr:street": "Douglas Street", "amenity": "restaurant", "brand": "Cactus Club Cafe", "brand:wikidata": "Q5016149", "cuisine": "international", "name": "Cactus Club Cafe", "opening_hours": "Mo-Th,Su 11:00-00:00; Fr,Sa 11:00-01:00"}}, {"type": "node", "id": 6163784687, "lat": 48.4237434, "lon": -123.3561317, "tags": {"amenity": "restaurant", "diet:vegetarian": "yes", "name": "J&J Wonton Noodle House", "opening_hours": "Tu-Sa 11:00-13:55,16:30-20:25"}}, {"type": "node", "id": 6179360711, "lat": 48.4240875, "lon": -123.365742, "tags": {"addr:housenumber": "1000", "addr:street": "Douglas Street", "amenity": "restaurant", "brand": "Freshii", "brand:wikidata": "Q5503051", "brand:wikipedia": "en:Freshii", "cuisine": "salad", "name": "Freshii", "smoking": "no", "website": "https://freshii.com/"}}, {"type": "node", "id": 6179366151, "lat": 48.4250352, "lon": -123.3657891, "tags": {"amenity": "fast_food", "brand": "Edo Japan", "brand:wikidata": "Q17492665", "cuisine": "japanese", "level": "4", "name": "Edo Japan", "takeaway": "yes"}}, {"type": "node", "id": 6179366153, "lat": 48.424271, "lon": -123.3676444, "tags": {"addr:housenumber": "602", "addr:street": "Broughton Street", "amenity": "fast_food", "cuisine": "pastry", "name": "BeaverTails", "opening_hours": "Mo-We,Su 12:00-21:00; Sa 11:00-00:00; Th 12:00-00:00", "website": "https://beavertails.com/"}}, {"type": "node", "id": 6179366771, "lat": 48.4249288, "lon": -123.3659147, "tags": {"amenity": "fast_food", "check_date": "2025-08-01", "cuisine": "greek", "level": "4", "name": "Opa! of Greece"}}, {"type": "node", "id": 6179366782, "lat": 48.4248122, "lon": -123.3659933, "tags": {"addr:city": "Victoria", "addr:housenumber": "670", "addr:postcode": "V8W 1T3", "addr:street": "Fort Street", "amenity": "restaurant", "cuisine": "japanese;sushi", "name": "Bento"}}, {"type": "node", "id": 6179366814, "lat": 48.4254484, "lon": -123.3672646, "tags": {"amenity": "fast_food", "brand": "Jugo Juice", "brand:wikidata": "Q119705456", "cuisine": "juice", "level": "1", "name": "Jugo Juice", "takeaway": "yes"}}, {"type": "node", "id": 6179366817, "lat": 48.4242745, "lon": -123.3675426, "tags": {"addr:housenumber": "604", "addr:street": "Broughton Street", "amenity": "restaurant", "cuisine": "japanese;sushi", "name": "Ebiz\u014d Sushi", "opening_hours": "Tu-Sa 11:30-13:45,17:00-20:45; Su 17:00-20:30", "smoking": "no"}}, {"type": "node", "id": 6182235085, "lat": 48.4233196, "lon": -123.3671433, "tags": {"addr:housenumber": "619", "addr:street": "Courtney Street", "amenity": "restaurant", "name": "The Courtney Room", "phone": "+1-250-940-4090", "website": "https://thecourtneyroom.com/"}}, {"type": "node", "id": 6240420201, "lat": 48.4286308, "lon": -123.3676199, "tags": {"addr:housenumber": "554", "addr:street": "Pandora Avenue", "amenity": "restaurant", "check_date": "2025-08-01", "name": "Momi Noodle", "opening_hours": "11:30-20:30", "phone": "+1 778 265-8081", "website": "https://www.mominoodle.com/", "wheelchair": "yes"}}, {"type": "node", "id": 6268965104, "lat": 48.4216174, "lon": -123.3678599, "tags": {"alt_name": "Lobby Lounge", "amenity": "cafe", "cuisine": "tea", "indoor": "yes", "level": "1", "name": "Tea at the Empress", "start_date": "1908-01-25", "tourism": "attraction", "website": "https://www.teaattheempress.com"}}, {"type": "node", "id": 6268965122, "lat": 48.4217472, "lon": -123.3674768, "tags": {"alt_name": "Empress Dining Room", "amenity": "restaurant", "cuisine": "american", "level": "1", "name": "Q at the Empress"}}, {"type": "node", "id": 6273358612, "lat": 48.4207692, "lon": -123.3660286, "tags": {"amenity": "cafe", "name": "Capital City Caf\u00e9"}}, {"type": "node", "id": 6273386525, "lat": 48.4224712, "lon": -123.3641836, "tags": {"addr:city": "Victoria", "addr:housenumber": "740", "addr:postcode": "V8W 1B2", "addr:street": "Burdett Avenue", "amenity": "restaurant", "description": "Vista 18 Westcoast Grill and Wine Bar", "level": "17", "name": "Vista 18", "opening_hours": "Su-Th 06:30-22:30; Fr-Sa 06:30-00:00", "website": "https://www.vista18.com"}}, {"type": "node", "id": 6276057390, "lat": 48.4294854, "lon": -123.366601, "tags": {"addr:housenumber": "612", "addr:street": "Fisgard Street", "amenity": "restaurant", "cuisine": "indian", "level": "0", "name": "Indian Aroma Restaurant", "phone": "+1-250-385-3288", "wheelchair": "no"}}, {"type": "node", "id": 6339462485, "lat": 48.4239753, "lon": -123.3623904, "tags": {"addr:housenumber": "1019", "addr:street": "Blanshard Street", "amenity": "restaurant", "name": "be love", "opening_hours": "Su-Th 11:30-21:00; Fr,Sa 11:30-21:30"}}, {"type": "node", "id": 6348155585, "lat": 48.4261134, "lon": -123.370225, "tags": {"addr:housenumber": "1208", "addr:street": "Wharf Street", "amenity": "restaurant", "cuisine": "seafood", "name": "Finn\u2019s Seafood Chops Cocktails", "website": "https://www.finnsvictoria.com/", "wheelchair": "limited"}}, {"type": "node", "id": 6363907485, "lat": 48.4245227, "lon": -123.3632374, "tags": {"addr:housenumber": "772", "addr:street": "Fort Street", "amenity": "restaurant", "name": "Pho Vy"}}, {"type": "node", "id": 6556449285, "lat": 48.4216675, "lon": -123.376769, "tags": {"amenity": "cafe", "name": "Nourish Kitchen & Cafe"}}, {"type": "node", "id": 6556449286, "lat": 48.4239525, "lon": -123.3576447, "tags": {"amenity": "restaurant", "name": "Cafe Brio", "opening_hours": "Tu-Sa 16:30-20:00+"}}, {"type": "node", "id": 6556449385, "lat": 48.4270459, "lon": -123.3698755, "tags": {"addr:housenumber": "512", "addr:street": "Yates Street", "amenity": "restaurant", "indoor_seating": "yes", "name": "Chimac", "opening_hours": "Mo-Th 12:00-24:00, Fr,Sa 12:00-01:00, Su 12:00-21:30", "outdoor_seating": "no", "phone": "+1 250 590-5098", "website": "https://chimac.ca/"}}, {"type": "node", "id": 6556449386, "lat": 48.4236293, "lon": -123.3587966, "tags": {"addr:city": "Victoria", "addr:housenumber": "919", "addr:postcode": "V8V 3K3", "addr:province": "BC", "addr:street": "Fort Street", "addr:unit": "101", "amenity": "cafe", "diet:vegetarian": "yes", "name": "Blue Fox Cafe", "opening_hours": "Mo,Tu,Th,Fr 08:00-14:00; Sa,Su,PH 08:00-15:00", "phone": "+1-250-380-1683", "website": "https://thebluefoxcafe.com/", "website:menu": "https://thebluefoxcafe.com/menu"}}, {"type": "node", "id": 6704747085, "lat": 48.4254352, "lon": -123.3660719, "tags": {"addr:housenumber": "655", "addr:street": "View Street", "amenity": "fast_food", "cuisine": "sandwich", "name": "Orchard on View"}}, {"type": "node", "id": 6751689085, "lat": 48.4266994, "lon": -123.3700749, "tags": {"addr:housenumber": "1245", "addr:street": "Wharf Street", "amenity": "restaurant", "check_date": "2025-08-17", "cuisine": "japanese", "indoor_seating": "yes", "name": "Uni Modern Japanese", "opening_hours": "Mo-Th,Su 12:00-21:30; Fr-Sa 12:00-22:00", "outdoor_seating": "yes", "website": "https://unijapanese.ca/"}}, {"type": "node", "id": 6760847287, "lat": 48.4236312, "lon": -123.3624292, "tags": {"addr:housenumber": "1001", "addr:street": "Blanshard Street", "amenity": "cafe", "cuisine": "coffee_shop", "name": "Discovery Coffee", "opening_hours": "Mo-Fr 07:00-17:00; Sa,Su 08:00-17:00", "website": "https://discoverycoffee.com"}}, {"type": "node", "id": 6836247376, "lat": 48.4278916, "lon": -123.3534816, "tags": {"amenity": "fast_food", "check_date": "2025-10-08", "cuisine": "mexican", "name": "Taco Justice"}}, {"type": "node", "id": 7087621680, "lat": 48.4294333, "lon": -123.3525098, "tags": {"addr:housenumber": "1-1115", "addr:postcode": "V8W 1C7", "addr:street": "North Park Street", "amenity": "cafe", "diet:vegan": "yes", "email": "info@ferncafeandbakery.ca", "name": "Fern Cafe and Bakery", "opening_hours": "Mo-Su 09:00-17:00", "phone": "+1 250 590 3376", "website": "https://www.ferncafeandbakery.ca/"}}, {"type": "node", "id": 7159767801, "lat": 48.4363876, "lon": -123.3690344}, {"type": "node", "id": 7159767802, "lat": 48.4363755, "lon": -123.3691051}, {"type": "node", "id": 7159767803, "lat": 48.4363974, "lon": -123.3691136}, {"type": "node", "id": 7159767804, "lat": 48.4364094, "lon": -123.3690428}, {"type": "node", "id": 7703820876, "lat": 48.4254423, "lon": -123.3638853, "tags": {"addr:housenumber": "736", "addr:street": "View Street", "addr:unit": "A", "amenity": "cafe", "name": "Empire Donuts"}}, {"type": "node", "id": 8757253160, "lat": 48.4370912, "lon": -123.3701884}, {"type": "node", "id": 8757253161, "lat": 48.4371182, "lon": -123.3700465}, {"type": "node", "id": 8757253180, "lat": 48.4371605, "lon": -123.3702183}, {"type": "node", "id": 8757253181, "lat": 48.4371874, "lon": -123.3700764}, {"type": "node", "id": 8829760098, "lat": 48.4218038, "lon": -123.3752636, "tags": {"addr:housenumber": "309", "addr:street": "Belleville Street", "amenity": "restaurant", "email": "info@pendrayinnandteahouse.com", "name": "Pendray Tea House", "phone": "+1-250-388-3892", "website": "https://www.pendrayinnandteahouse.com/"}}, {"type": "node", "id": 8915333923, "lat": 48.435158, "lon": -123.3612659, "tags": {"addr:city": "Victoria", "addr:housenumber": "823", "addr:province": "BC", "addr:street": "Bay Street", "amenity": "restaurant", "name": "Xin Korean Restaurant", "opening_hours": "We-Su 11:30-21:00"}}, {"type": "node", "id": 8915333936, "lat": 48.4294902, "lon": -123.3659542, "tags": {"addr:housenumber": "626", "addr:street": "Fisgard Street", "amenity": "restaurant", "name": "Bao"}}, {"type": "node", "id": 8915333937, "lat": 48.429281, "lon": -123.3647172, "tags": {"addr:housenumber": "1696", "addr:street": "Douglas Street", "amenity": "restaurant", "check_date": "2025-10-07", "cuisine": "korean", "name": "Sura Korean Restaurant", "smoking": "no"}}, {"type": "node", "id": 8915333938, "lat": 48.4290202, "lon": -123.364719, "tags": {"addr:housenumber": "1674", "addr:street": "Douglas Street", "amenity": "restaurant", "check_date": "2025-10-07", "name": "Island Pok\u00e9"}}, {"type": "node", "id": 8915333939, "lat": 48.4291506, "lon": -123.3647181, "tags": {"addr:housenumber": "1684", "addr:street": "Douglas Street", "amenity": "restaurant", "check_date": "2025-10-07", "name": "Green Leaf Vietnamese Bistro", "smoking": "no"}}, {"type": "node", "id": 8915396569, "lat": 48.4274854, "lon": -123.3643522, "tags": {"addr:housenumber": "1483", "addr:street": "Douglas Street", "addr:unit": "105", "amenity": "fast_food", "brand": "Freshslice Pizza", "brand:wikidata": "Q5503082", "brand:wikipedia": "en:Freshslice Pizza", "cuisine": "pizza", "name": "Freshslice Pizza", "takeaway": "yes"}}, {"type": "node", "id": 8915396570, "lat": 48.4265362, "lon": -123.3655401, "tags": {"addr:housenumber": "648", "addr:street": "Yates Street", "amenity": "fast_food", "brand": "Lotteria", "brand:wikidata": "Q249525", "brand:wikipedia": "en:Lotteria", "cuisine": "burger", "name": "Lotteria", "takeaway": "yes"}}, {"type": "node", "id": 8915396573, "lat": 48.4252002, "lon": -123.3591754, "tags": {"addr:housenumber": "1213", "addr:street": "Quadra Street", "amenity": "restaurant", "cuisine": "sushi", "name": "Sakura Sushi", "opening_hours": "Mo-Sa 11:00-19:00"}}, {"type": "node", "id": 8915396575, "lat": 48.4228755, "lon": -123.3677457, "tags": {"addr:housenumber": "620", "addr:street": "Humboldt Street", "amenity": "restaurant", "name": "10 Acres Commons", "opening_hours": "Mo-Th 11:30-24:00, Fr-Sa 11:30-25:00, Su 11:30-23:00", "phone": "+1 250 893-1529", "website": "https://10acres.ca/commons-restaurant/"}}, {"type": "node", "id": 8915396576, "lat": 48.4236647, "lon": -123.3685205, "tags": {"addr:city": "Victoria", "addr:housenumber": "910", "addr:province": "BC", "addr:street": "Government Street", "addr:unit": "38", "amenity": "restaurant", "name": "Frankie's Modern Diner", "opening_hours": "Mo-Su 07:00+"}}, {"type": "node", "id": 8915396577, "lat": 48.4242749, "lon": -123.367378, "tags": {"addr:city": "Victoria", "addr:housenumber": "608", "addr:province": "BC", "addr:street": "Broughton Street", "addr:unit": "108", "amenity": "cafe", "brand": "Xing Fu Tang", "brand:en": "Xing Fu Tang", "brand:wikidata": "Q95720330", "brand:wikipedia": "zh:\u5e78\u798f\u5802", "brand:zh": "\u5e78\u798f\u5802", "cuisine": "bubble_tea", "int_name": "Xing Fu Tang", "name": "Xing Fu Tang", "name:en": "Xing Fu Tang", "name:zh": "\u5e78\u798f\u5802", "takeaway": "yes"}}, {"type": "node", "id": 8915396578, "lat": 48.4243807, "lon": -123.3686928, "tags": {"addr:city": "Victoria", "addr:housenumber": "1005", "addr:province": "BC", "addr:street": "Langley Street", "amenity": "restaurant", "name": "Gozen Sushi Bar Izakaya"}}, {"type": "node", "id": 8915396579, "lat": 48.4246183, "lon": -123.3688443, "tags": {"addr:city": "Victoria", "addr:housenumber": "1010", "addr:province": "BC", "addr:street": "Langley Street", "amenity": "restaurant", "name": "Le Petit Saigon"}}, {"type": "node", "id": 8915396580, "lat": 48.426749, "lon": -123.3699256, "tags": {"addr:housenumber": "515", "addr:street": "Yates Street", "amenity": "restaurant", "name": "Fiamo Pizza & Wine Bar"}}, {"type": "node", "id": 9033507017, "lat": 48.4238551, "lon": -123.3670602, "tags": {"addr:housenumber": "915", "addr:street": "Gordon Street", "amenity": "cafe", "name": "Sounds Like Coffee"}}, {"type": "node", "id": 9038129263, "lat": 48.4286715, "lon": -123.3673249, "tags": {"addr:housenumber": "1600", "addr:postcode": "V8W 1Z3", "addr:street": "Government Street", "amenity": "restaurant", "changing_table": "yes", "check_date": "2025-03-04", "contact:facebook": "VarshaIndianKitchen", "contact:twitter": "VarshaYYJ", "cuisine": "indian", "email": "info@varsha.ca", "internet_access": "wlan", "name": "Varsha Indian Kitchen", "opening_hours": "Mo-Su 11:00-22:00", "phone": "+12505906252", "toilets": "yes", "toilets:wheelchair": "yes", "website": "https://www.varsha.ca/", "wheelchair": "yes"}}, {"type": "node", "id": 9038144392, "lat": 48.4286584, "lon": -123.3685065, "tags": {"addr:housenumber": "530", "addr:postcode": "V8W 1N6", "addr:street": "Pandora Avenue", "amenity": "restaurant", "contact:facebook": "VirtuousPieVictoria", "diet:vegan": "yes", "email": "VPPandora@virtuouspie.com", "name": "Virtuous Pie", "opening_hours": "Mo-Su 12:00-21:00", "website": "https://virtuouspie.com/locations/canada/virtuous-pie-victoria-2/"}}, {"type": "node", "id": 9038177216, "lat": 48.4280222, "lon": -123.369385, "tags": {"addr:housenumber": "1425", "addr:postcode": "V8W 3C6", "addr:street": "Store Street", "amenity": "restaurant", "name": "Cafe Mexico"}}, {"type": "node", "id": 9038185658, "lat": 48.4314557, "lon": -123.3649125, "tags": {"amenity": "restaurant", "name": "Red Cedar Cafe"}}, {"type": "node", "id": 9038196217, "lat": 48.4307241, "lon": -123.3642548, "tags": {"amenity": "restaurant", "cuisine": "thai", "name": "Bangkok Modern Thai Cuisine"}}, {"type": "node", "id": 9038464588, "lat": 48.425185, "lon": -123.356803, "tags": {"amenity": "restaurant", "brand": "Pizza Hut", "brand:wikidata": "Q191615", "brand:wikipedia": "en:Pizza Hut", "cuisine": "pizza", "name": "Pizza Hut", "opening_hours": "Mo-Th 11:00-23:30, Fr,Sa 11:00-24:00, Su 11:00-23:00"}}, {"type": "node", "id": 9732916655, "lat": 48.4240618, "lon": -123.362827, "tags": {"addr:housenumber": "1028", "addr:street": "Blanshard Street", "amenity": "restaurant", "name": "L'Ap\u00e9ro"}}, {"type": "node", "id": 9732916656, "lat": 48.4237357, "lon": -123.3629172, "tags": {"addr:housenumber": "1008", "addr:street": "Blanshard Street", "amenity": "restaurant", "cuisine": "burger", "name": "The Pink Bicycle", "website": "https://pinkbicycle.ca"}}, {"type": "node", "id": 9732916661, "lat": 48.4238344, "lon": -123.3628877, "tags": {"addr:housenumber": "1012", "addr:street": "Blanshard Street", "amenity": "restaurant", "cuisine": "vietnamese", "name": "Pho Tru"}}, {"type": "node", "id": 9732916662, "lat": 48.4236572, "lon": -123.3629274, "tags": {"addr:housenumber": "1002", "addr:street": "Blanshard Street", "amenity": "restaurant", "name": "Tourist Wine Bar", "website": "https://www.touristwinebar.com/"}}, {"type": "node", "id": 9732916667, "lat": 48.4238997, "lon": -123.3628737, "tags": {"addr:housenumber": "1018", "addr:street": "Blanshard Street", "amenity": "restaurant", "check_date": "2025-04-27", "cuisine": "japanese", "name": "Menbow Ramen Bar", "website": "https://menbowramenbar.com"}}, {"type": "node", "id": 10282460207, "lat": 48.4233408, "lon": -123.3690561, "tags": {"addr:housenumber": "819", "addr:street": "Wharf Street", "air_conditioning": "yes", "amenity": "cafe", "brand": "Starbucks", "brand:wikidata": "Q37158", "cuisine": "coffee_shop", "diet:vegetarian": "yes", "indoor_seating": "yes", "internet_access": "yes", "internet_access:fee": "no", "name": "Starbucks", "official_name": "Starbucks Coffee", "opening_hours": "Su-We 05:00-20:00; Th-Sa 05:00-21:00", "outdoor_seating": "yes", "phone": "+1778-600-0401", "smoking": "no", "takeaway": "yes"}}, {"type": "node", "id": 10727112779, "lat": 48.4290716, "lon": -123.369466, "tags": {"addr:housenumber": "1623", "addr:street": "Store Street", "amenity": "restaurant", "name": "The Sour Pickle Cafe", "website": "https://sourpicklecafe.business.site/"}}, {"type": "node", "id": 10795274907, "lat": 48.4286309, "lon": -123.3676724, "tags": {"addr:housenumber": "552", "addr:postcode": "V8W 1N7", "addr:street": "Pandora Avenue", "amenity": "cafe", "check_date": "2025-08-01", "check_date:opening_hours": "2024-04-08", "contact:facebook": "habitcoffee", "contact:instagram": "habitcoffee", "cuisine": "coffee_shop", "email": "info@habitcoffee.com", "name": "Habit Coffee", "opening_hours": "Mo-Fr 07:00-18:00; Sa-Su 08:00-18:00", "phone": "+1 250 294 1127", "website": "https://habitcoffee.com"}}, {"type": "node", "id": 10800011699, "lat": 48.427577, "lon": -123.369236, "tags": {"addr:housenumber": "537", "addr:postcode": "V8W 1M2", "addr:street": "Johnson Street", "amenity": "restaurant", "contact:facebook": "fodvictoria", "contact:instagram": "fodvictoria", "email": "victoria@fodlounge.com", "name": "Friends of Dorothy", "opening_hours": "Th-Mo 10:00-24:00; Tu,We 16:00-24:00", "phone": "+1 778 432 4565", "website": "https://www.fodlounge.com/victoria", "website:booking": "https://www.opentable.ca/r/friends-of-dorothy-victoria", "website:menu": "https://www.fodlounge.com/victoria/menu"}}, {"type": "node", "id": 11094568456, "lat": 48.4279767, "lon": -123.3628964, "tags": {"addr:housenumber": "760", "addr:postcode": "V8W 1N9", "addr:street": "Pandora Avenue", "amenity": "fast_food", "cuisine": "mexican", "email": "victoria@tacofino.com", "name": "Tacofino", "opening_hours": "Mo-Su 11:00-23:00", "phone": "+1 778-406 1787", "website": "http://www.tacofino.com/location/victoria-taco-bar"}}, {"type": "node", "id": 11094568457, "lat": 48.4280384, "lon": -123.3632989, "tags": {"addr:housenumber": "754", "addr:postcode": "V8W 3K2", "addr:street": "Pandora Avenue", "amenity": "restaurant", "cuisine": "sushi", "name": "Cube Food Box", "website": "https://www.cubefoodbox.com"}}, {"type": "node", "id": 11128791343, "lat": 48.4211069, "lon": -123.3731394, "tags": {"addr:housenumber": "427", "addr:street": "Belleville Street", "amenity": "restaurant", "name": "Belleville's", "website": "https://bellevilles.ca/"}}, {"type": "node", "id": 11149175722, "lat": 48.4303199, "lon": -123.3673584, "tags": {"addr:housenumber": "1802", "addr:street": "Government Street", "amenity": "restaurant", "name": "End Dive", "website": "https://www.enddiverestaurant.com/"}}, {"type": "node", "id": 11242061939, "lat": 48.4278185, "lon": -123.3691736, "tags": {"addr:housenumber": "560", "addr:postcode": "V8W 3C6", "addr:street": "Johnson Street", "addr:unit": "122", "amenity": "cafe", "cuisine": "coffee_shop", "indoor_seating": "yes", "name": "Hey Happy", "opening_hours": "Mo-Fr 07:30-17:30; Sa,Su 09:00-17:00", "outdoor_seating": "yes", "phone": "+12505909680", "website": "https://heyhappycoffee.com/"}}, {"type": "node", "id": 11273332290, "lat": 48.4277718, "lon": -123.3559565, "tags": {"amenity": "restaurant", "cuisine": "regional;mexican", "name": "Quesadas Burritos & Tacos", "opening_hours": "Mo-Th 10:00-21:00; Fr,Sa 10:00-23:00; Su 11:00-21:00"}}, {"type": "node", "id": 11273332291, "lat": 48.4279251, "lon": -123.355938, "tags": {"amenity": "fast_food", "brand": "Panago", "brand:wikidata": "Q17111672", "cuisine": "pizza", "name": "Panago", "opening_hours": "Su-Th 11:00-24:00, Fr,Sa 11:00-24:00, Sa,Su 00:00-01:00", "takeaway": "yes"}}, {"type": "node", "id": 11289264469, "lat": 48.4262341, "lon": -123.3628655, "tags": {"addr:housenumber": "766", "addr:postcode": "V8W 1L4", "addr:street": "Yates Street", "amenity": "fast_food", "name": "Volta", "opening_hours": "We-Su 08:00-14:00", "website": "https://voltavictoria.com/"}}, {"type": "node", "id": 11327799124, "lat": 48.4293538, "lon": -123.3710728, "tags": {"addr:housenumber": "407", "addr:postcode": "V8W 1S2", "addr:street": "Swift Street", "addr:unit": "100", "amenity": "restaurant", "cuisine": "indian;south_indian", "email": "cafemalabar.ca@gmail.com", "name": "Cafe Malabar", "opening_hours": "Wed-Su 12:00-15:00; 17:00-21:00", "phone": "+1-780 600 0005", "website": "https://cafemalabar.ca/"}}, {"type": "node", "id": 11547523569, "lat": 48.4291912, "lon": -123.3692655, "tags": {"addr:housenumber": "509", "addr:postcode": "V8W1R3", "addr:street": "Fisgard Street", "amenity": "restaurant", "cuisine": "bavarian;german", "name": "Eva Schnitzelhous", "name:en": "Eva Schnitzelhaus", "website": "https://www.evaschnitzel.com/"}}, {"type": "node", "id": 11548009169, "lat": 48.427886, "lon": -123.3647695, "tags": {"addr:housenumber": "1450", "addr:postcode": "V8W2G1", "addr:street": "Douglas Street", "amenity": "restaurant", "cuisine": "grill", "name": "The Palms Restaurant & Lounge", "website": "https://thepalmsrestaurant.ca/"}}, {"type": "node", "id": 11552239769, "lat": 48.4213898, "lon": -123.3648496, "tags": {"addr:postcode": "V8W 3Z5", "amenity": "restaurant", "cuisine": "fine_dining", "name": "Fire+ Water Restaurant", "website": "https://www.marriott.com/en-us/hotels/yyjmc-victoria-marriott-inner-harbour/dining/fire-water-dining-module/"}}, {"type": "node", "id": 11564920570, "lat": 48.4284031, "lon": -123.3607017, "tags": {"addr:housenumber": "1527", "addr:postcode": "V8W 2K1", "addr:street": "Amelia Street", "amenity": "restaurant", "cuisine": "polish", "name": "Cook & Dan Polish Delicatessen & Cafe", "website": "https://cooknpandeli.wixsite.com/mysite"}}, {"type": "node", "id": 11639091995, "lat": 48.4245782, "lon": -123.3637797, "tags": {"addr:housenumber": "754", "addr:street": "Fort Street", "addr:unit": "101", "amenity": "cafe", "brand": "Tim Hortons", "brand:wikidata": "Q175106", "cuisine": "coffee_shop", "name": "Tim Hortons", "takeaway": "yes"}}, {"type": "node", "id": 11639091998, "lat": 48.4242482, "lon": -123.363037, "tags": {"addr:housenumber": "787", "addr:street": "Fort Street", "amenity": "restaurant", "cuisine": "burger", "name": "Burger Crush", "opening_hours": "Mo-Su 11:30-22:00"}}, {"type": "node", "id": 11639092002, "lat": 48.4239336, "lon": -123.3601748, "tags": {"addr:housenumber": "893", "addr:street": "Fort Street", "amenity": "restaurant", "cuisine": "thai", "diet:vegetarian": "yes", "name": "Sookjai Thai", "opening_hours": "We-Mo 16:00-21:00"}}, {"type": "node", "id": 11686048370, "lat": 48.429949, "lon": -123.3647213, "tags": {"addr:housenumber": "1724", "addr:street": "Douglas Street", "amenity": "restaurant", "contact:email": "bluenilevictoria@hotmail.com", "cuisine": "ethiopian", "name": "Blue Nile African Restaurant", "opening_hours": "Mo-Sa 11:00-14:00, 17:00-21:00", "phone": "+1 (250) 475 6453", "website": "https://bluenilerestaurantvictoria.com/"}}, {"type": "node", "id": 11688150399, "lat": 48.4287257, "lon": -123.3701127, "tags": {"addr:housenumber": "460", "addr:street": "Pandora Avenue", "amenity": "restaurant", "cuisine": "tapas", "name": "Bray's", "phone": "+17784323287", "website": "https://braysvictoria.ca/"}}, {"type": "node", "id": 11688150400, "lat": 48.4287673, "lon": -123.3697475, "tags": {"addr:housenumber": "490", "addr:street": "Pandora Avenue", "amenity": "restaurant", "cuisine": "sushi;japanese", "name": "Nubo Kitchen + Bar", "phone": "+17784400490", "website": "https://nubokitchen.com/"}}, {"type": "node", "id": 11688150401, "lat": 48.4287954, "lon": -123.3694528, "tags": {"addr:housenumber": "1609", "addr:street": "Store Street", "amenity": "restaurant", "cuisine": "ramen", "name": "Ghost Ramen", "phone": "+12505909821", "website": "https://ghostramen.ca/"}}, {"type": "node", "id": 11688150402, "lat": 48.4289957, "lon": -123.3694587, "tags": {"addr:housenumber": "1619", "addr:street": "Store Street", "amenity": "restaurant", "name": "Chubby Dumpling", "phone": "+12503616346", "website": "https://chubbydumpling.ca/"}}, {"type": "node", "id": 11689741133, "lat": 48.4274994, "lon": -123.3527892, "tags": {"amenity": "restaurant", "cuisine": "pizza", "name": "Standard Pizza", "opening_hours": "We,Th,Su 17:00-21:00; Fr,Sa 17:00-22:00"}}, {"type": "node", "id": 11689741134, "lat": 48.427562, "lon": -123.3529902, "tags": {"amenity": "restaurant", "cuisine": "chinese", "name": "Sun Wah", "opening_hours": "Tu-Su 16:00-21:00"}}, {"type": "node", "id": 11721794986, "lat": 48.43633, "lon": -123.36345, "tags": {"addr:housenumber": "770", "addr:street": "Bay Street", "addr:unit": "1", "amenity": "fast_food", "brand": "Domino's", "brand:wikidata": "Q839466", "cuisine": "pizza", "name": "Domino's", "opening_hours": "Su-Th 10:00-25:00, Fr-Sa 10:00-27:00", "phone": "+1 250-405-2848", "takeaway": "yes", "website": "https://pizza.dominos.ca/Victoria-British-Columbia-10055/"}}, {"type": "node", "id": 11735594282, "lat": 48.42425, "lon": -123.35571, "tags": {"addr:city": "Victoria", "addr:housenumber": "1029", "addr:postcode": "V8V 0C9", "addr:province": "BC", "addr:street": "View Street", "addr:unit": "105", "amenity": "restaurant", "cuisine": "vietnamese", "diet:vegan": "yes", "diet:vegetarian": "yes", "name": "Ox King Noodles", "opening_hours": "Mo-Sa 12:00-21:00", "phone": "+1 778 967-1022", "website": "https://ox-king-noodles.com/"}}, {"type": "node", "id": 11735594286, "lat": 48.42336, "lon": -123.35492, "tags": {"addr:housenumber": "1075", "addr:street": "Fort Street", "amenity": "restaurant", "diet:vegan": "no", "diet:vegetarian": "yes", "name": "Avalon Restaurant", "opening_hours": "Mo-We 09:00-14:00, Fr 09:00-14:00, Sa-Su 08:00-15:00", "phone": "+1 250 385-2129", "website": "https://avalonvictoria.ca/"}}, {"type": "node", "id": 11754531269, "lat": 48.4294562, "lon": -123.3688996, "tags": {"addr:housenumber": "516", "addr:postcode": "V8W 2K4", "addr:street": "Fisgard Street", "amenity": "restaurant", "cuisine": "pizza", "name": "Pinhalla", "opening_hours": "Mo-Th 16:00-23:00; Fr-Sa 11:30-22:00; Su 00:00-24:00", "website": "https://pinhalla.com/"}}, {"type": "node", "id": 11796074127, "lat": 48.4258693, "lon": -123.363614, "tags": {"addr:housenumber": "735", "addr:street": "Yates Street", "amenity": "restaurant", "cuisine": "indian", "diet:vegetarian": "yes", "name": "Dosa Paragon", "opening_hours": "Tu-Th 11:30-14:30,15:30-19:30; Fr-Su 11:30-14:30,15:30-20:00", "phone": "+17784402206", "warning": "Unit number required", "website": "https://dosaparagon.com/location/yates_street/?"}}, {"type": "node", "id": 11802756916, "lat": 48.4273461, "lon": -123.3652153, "tags": {"addr:unit": "A", "amenity": "restaurant", "name": "The Ruby", "opening_hours": "Mo-Fr 08:00-14:00; Sa,Su 08:00-15:00", "phone": "+1 778 265-8750", "website": "https://therubyvictoria.com/johnson-menu/"}}, {"type": "node", "id": 11842330571, "lat": 48.4294686, "lon": -123.3681331, "tags": {"addr:housenumber": "540", "addr:street": "Fisgard Street", "amenity": "restaurant", "cuisine": "mexican", "name": "MAiiZ Tortilleria & Eatery", "website": "https://maiiz.ca"}}, {"type": "node", "id": 11886206969, "lat": 48.4300348, "lon": -123.365552, "tags": {"addr:postcode": "V8W 1R9", "amenity": "restaurant", "diet:vegan": "yes", "email": "info@inerplantalchemy.ca", "name": "In Er G Plant Alchemy", "opening_hours": "Mo-Fr 10:00-16:00", "phone": "+1 778 677 7689", "website": "https://inergplantalchemy.ca/"}}, {"type": "node", "id": 11962795668, "lat": 48.4235602, "lon": -123.3648802, "tags": {"amenity": "cafe", "name": "Bean Bandits Coffee"}}, {"type": "node", "id": 12026708450, "lat": 48.4239276, "lon": -123.3623999, "tags": {"addr:housenumber": "1017", "addr:street": "Blanshard Street", "amenity": "restaurant", "cuisine": "mexican", "name": "La Taquisa"}}, {"type": "node", "id": 12026814680, "lat": 48.4238056, "lon": -123.3590387, "tags": {"amenity": "restaurant", "cuisine": "thai", "name": "Thai Food Near Me", "opening_hours": "Mo-Su 11:30-20:30"}}, {"type": "node", "id": 12231562701, "lat": 48.4295883, "lon": -123.3626148, "tags": {"addr:housenumber": "790", "addr:postcode": "V8W 0B8", "addr:street": "Fisgard Street", "amenity": "fast_food", "check_date": "2025-03-07", "cuisine": "american", "diet:vegan": "only", "drive_through": "no", "highchair": "yes", "name": "Odd Burger", "opening_hours": "Mo-Th 08:00-21:00; Fr 08:00-23:00; Sa 08:00-23:00; Su 10:00-21:00", "outdoor_seating": "no", "phone": "2505904490", "takeaway": "yes", "website": "https://oddburger.com/", "wheelchair": "yes"}}, {"type": "node", "id": 12251654242, "lat": 48.4262103, "lon": -123.3625267, "tags": {"addr:housenumber": "788", "addr:postcode": "V8W 1L4", "addr:street": "Yates Street", "amenity": "restaurant", "cuisine": "sushi", "name": "Roll N Bowl", "opening_hours": "Su-Th 11:00-22:00; Fr-Sa 11:00-23:00", "phone": "+12508861518", "website": "http://rollnbowlvic.com/"}}, {"type": "node", "id": 12251671679, "lat": 48.4260149, "lon": -123.3637858, "tags": {"addr:housenumber": "727", "addr:street": "Yates Street", "amenity": "restaurant", "cuisine": "hot_dog;snackbar", "name": "Saint Franks", "opening_hours": "Su 17:00-24:00; We-Th 17:00-24:00; Fr-Sa 17:00-1:00", "website": "https://www.saintfranks.ca"}}, {"type": "node", "id": 12375045834, "lat": 48.4233626, "lon": -123.367572, "tags": {"addr:housenumber": "611", "addr:street": "Courtney Street", "amenity": "restaurant", "name": "10 Acres Bistro", "opening_hours": "Mo-We 11:00-23:00, Th-Su 11:00-24:00", "phone": "+1 250 893-5816", "website": "https://10acres.ca/bistro-restaurant/"}}, {"type": "node", "id": 12461471701, "lat": 48.4270235, "lon": -123.3642587, "tags": {"addr:housenumber": "705", "addr:street": "Johnson Street", "amenity": "cafe", "email": "info@boardwithfriends.ca", "name": "Board with Friends Cafe", "opening_hours": "Mo-Th 16:00-22:00; Fr 16:00-00:00; Sa 11:00-00:00; Su 11:00-22:00", "phone": "+1-250-590-6330", "website": "https://www.boardwithfriends.ca", "website:menu": "https://www.boardwithfriends.ca/menu"}}, {"type": "node", "id": 12463719201, "lat": 48.4373744, "lon": -123.3583617, "tags": {"addr:housenumber": "2571", "addr:street": "Quadra Street", "amenity": "restaurant", "cuisine": "international", "name": "Emmaline's", "opening_hours": "We-Su 15:00-22:00", "phone": "1-778-265-3662", "website": "https://www.emmalines.ca/"}}, {"type": "node", "id": 12477185701, "lat": 48.426914, "lon": -123.3688837, "tags": {"addr:housenumber": "538", "addr:postcode": "V8W 1K8", "addr:street": "Yates Street", "amenity": "restaurant", "cuisine": "seafood", "name": "Block Victoria", "opening_hours": "Mo-Su 15:00-22:00", "website": "https://www.blockvictoria.ca/"}}, {"type": "node", "id": 12487886102, "lat": 48.4246127, "lon": -123.3661786, "tags": {"addr:housenumber": "667", "addr:street": "Fort Street", "amenity": "cafe", "contact:facebook": "100067093573456", "contact:instagram": "flourishbeautea", "internet_access": "wlan", "name": "Flourish BeauTea", "opening_hours": "Mo-Th 11:00-17:30; Fr 11:00-18:30; Sa 11:00-19:00; Su 12:00-17:00", "phone": "+1 778-432-2828"}}, {"type": "node", "id": 12487886204, "lat": 48.4209415, "lon": -123.3725973, "tags": {"amenity": "cafe", "name": "Courtyard Caf\u00e9", "opening_hours": "Mo-Su 06:30-18:00", "website": "https://www.hotelgrandpacific.com/dine-courtyard-cafe/"}}, {"type": "node", "id": 12487886205, "lat": 48.4295466, "lon": -123.3635081, "tags": {"addr:housenumber": "770", "addr:street": "Fisgard Street", "amenity": "cafe", "diet:vegetarian": "yes", "email": "deeranddough@gmail.com", "name": "Deer & Dough Bakery Cafe", "opening_hours": "Mo-Fr 08:00-16:00; Sa 09:00-16:00; Su 09:00-15:00", "phone": "+1 250-590-3309", "website": "https://www.deeranddough.ca/", "website:menu": "https://www.deeranddough.ca/services-4"}}, {"type": "node", "id": 12515218075, "lat": 48.4234699, "lon": -123.3560606, "tags": {"amenity": "cafe", "name": "Picnic Too"}}, {"type": "node", "id": 12631524520, "lat": 48.4279286, "lon": -123.3683369, "tags": {"addr:housenumber": "560", "addr:street": "Johnson Street", "addr:unit": "69", "amenity": "restaurant", "check_date": "2025-03-02", "cuisine": "korean", "level": "-1", "name": "Mom's Kitchen"}}, {"type": "node", "id": 12637871905, "lat": 48.4256798, "lon": -123.3686153, "tags": {"addr:unit": "103", "amenity": "cafe", "check_date": "2025-03-03", "level": "-1", "name": "Wind Cries Mary"}}, {"type": "node", "id": 12637871907, "lat": 48.4266846, "lon": -123.3691775, "tags": {"addr:housenumber": "535", "addr:street": "Yates Street", "addr:unit": "101", "amenity": "cafe", "check_date": "2025-03-03", "name": "Saint Cecelia"}}, {"type": "node", "id": 12675244024, "lat": 48.4233359, "lon": -123.3684558, "tags": {"addr:housenumber": "890", "addr:street": "Government Street", "amenity": "restaurant", "cuisine": "kebab", "name": "Kebab On Fire", "opening_hours": "Fr-Sa 11:00-12:00; Su-Th 11:00-22:00", "website": "https://www.kebabonfire.ca"}}, {"type": "node", "id": 12675244025, "lat": 48.4234775, "lon": -123.3684492, "tags": {"addr:city": "Victoria", "addr:housenumber": "898", "addr:postcode": "V8W 1X1", "addr:province": "BC", "addr:street": "Government Street", "amenity": "restaurant", "cuisine": "pizza", "name": "Pizza Garden", "opening_hours": "Mo-Su 11:00-22:00", "phone": "+1-250-590-3389", "website": "https://www.pizzagarden.ca"}}, {"type": "node", "id": 12746044582, "lat": 48.4249892, "lon": -123.36261, "tags": {"addr:housenumber": "1122", "addr:street": "Blanshard Street", "amenity": "restaurant", "cuisine": "pizza", "name": "Sarpino's Pizza", "opening_hours": "Mo-Th 11:00-23:00; Fr 11:00-25:00; Sa 11:00-24:00; Su 16:00-23:00", "phone": "+1 250 590-5857", "website": "https://sarpinos.ca/locations/downtown-victoria/"}}, {"type": "node", "id": 12767061801, "lat": 48.4266328, "lon": -123.3691478, "tags": {"addr:housenumber": "555", "addr:postcode": "V8W2Z6", "addr:street": "Yates Street", "amenity": "cafe", "cuisine": "coffee_shop;ice_cream", "name": "Saint Cecilia Coffee, Ice Cream & Goods", "website": "https://saint-cecilia.ca/"}}, {"type": "node", "id": 12805035904, "lat": 48.4355416, "lon": -123.3733627, "tags": {"addr:housenumber": "492", "addr:street": "Bay Street", "amenity": "restaurant", "cuisine": "greek", "name": "Greek On the Street", "opening_hours": "Mo-Fr 09:00-15:00", "phone": "+1 250 813-3598", "website": "https://www.greekonthestreet.ca/"}}, {"type": "node", "id": 12806618428, "lat": 48.4247429, "lon": -123.3621995, "tags": {"addr:housenumber": "1117", "addr:street": "Blanshard Street", "amenity": "restaurant", "check_date": "2025-04-28", "cuisine": "thai", "name": "Baan Thai", "opening_hours": "11:00-23:00", "phone": "+1 250 383-0050", "website": "https://baanthaiwokandbar.ca/location/downtown-victoria/"}}, {"type": "node", "id": 12839028287, "lat": 48.426029, "lon": -123.3639241, "tags": {"addr:housenumber": "723", "addr:street": "Yates Street", "amenity": "cafe", "name": "Interactivity Board Game Cafe", "opening_hours": "Su-Th 11:00-23:00,Fr-Sa 11:00-24:00", "outdoor_seating": "no", "phone": "+12504803979", "website": "https://www.ibgcafe.com/"}}, {"type": "node", "id": 12882414104, "lat": 48.4261082, "lon": -123.3704728, "tags": {"addr:housenumber": "1208", "addr:street": "Wharf Street", "addr:unit": "100", "amenity": "fast_food", "cuisine": "burger;poutine", "layer": "-1", "name": "L'Authentique Poutine & Burgers", "phone": "+1 778 432-2444", "website": "https://www.lauthentiquepoutineandburgers.com/"}}, {"type": "node", "id": 12882654189, "lat": 48.4262853, "lon": -123.3710363, "tags": {"amenity": "restaurant", "name": "Lindo Bistro"}}, {"type": "node", "id": 12968776799, "lat": 48.4229981, "lon": -123.3537412, "tags": {"addr:city": "Victoria", "addr:housenumber": "1025", "addr:postcode": "V8V 3Z8", "addr:province": "BC", "addr:street": "Cook Street", "amenity": "restaurant", "cuisine": "breakfast", "delivery": "yes", "name": "The Breakfast Shop", "opening_hours": "Mo-Fr 07:00-15:00; Sa-Su 08:00-15:00", "outdoor_seating": "yes", "phone": "+1 250-590-8843", "wheelchair": "yes"}}, {"type": "node", "id": 13041869008, "lat": 48.4264593, "lon": -123.3671006, "tags": {"addr:housenumber": "605", "addr:street": "Yates Street", "amenity": "restaurant", "check_date": "2025-08-01", "name": "Frank's Honeybun Caf\u00e9", "phone": "+1 250 383-3231", "website": "https://frankshoneybuncafe.com/"}}, {"type": "node", "id": 13092859201, "lat": 48.4265894, "lon": -123.3659977, "tags": {"addr:housenumber": "632", "addr:street": "Yates Street", "amenity": "cafe", "name": "Wonderffle Cafe", "opening_hours": "Su-Tu 08:00-17:00; Th-Sa 08:00-17:00", "phone": "+1 778 899-4719", "website": "https://wonderffle.ca/"}}, {"type": "node", "id": 13143424501, "lat": 48.4284387, "lon": -123.3641753, "tags": {"addr:housenumber": "1525", "addr:street": "Douglas Street", "amenity": "restaurant", "cuisine": "seafood", "name": "Marilena Cafe & Raw Bar", "website": "https://marilenacafe.com/"}}, {"type": "way", "id": 94845565, "nodes": [1101092281, 1102772448, 1102772430, 1101092268, 1101092318, 1101092281], "tags": {"addr:housenumber": "50", "addr:street": "Bastion Square", "amenity": "restaurant", "building": "yes", "check_date": "2025-03-03", "cuisine": "regional", "name": "Re:Bar Modern Food", "source": "Bing"}}, {"type": "way", "id": 95035873, "nodes": [1102757728, 1102757851, 1102757824, 1102757834, 1102757728], "tags": {"addr:housenumber": "510", "addr:street": "Fort Street", "amenity": "restaurant", "building": "yes", "cuisine": "japanese", "name": "Koto Japanese Restaurant", "source": "Bing"}}, {"type": "way", "id": 95038493, "nodes": [1102836519, 1102836469, 1102836623, 1102836437, 1102836624, 1102836519], "tags": {"addr:housenumber": "718", "addr:street": "Fort Street", "amenity": "cafe", "building": "yes", "name": "The Dutch Bakery & Diner", "opening_hours": "Tu-Sa 08:00-16:00", "phone": "+1 250 385-1012", "source": "Bing", "website": "https://thedutchbakery.com/"}}, {"type": "way", "id": 95194615, "nodes": [1104333673, 1102757738, 1102757870, 1104333744, 1104333673], "tags": {"addr:housenumber": "1200", "addr:street": "Douglas Street", "amenity": "fast_food", "brand": "McDonald's", "brand:wikidata": "Q38076", "brand:wikipedia": "en:McDonald's", "building": "yes", "building:cladding": "glassfront", "building:levels": "2", "check_date": "2025-10-07", "cuisine": "burger", "internet_access": "wlan", "name": "McDonald's", "source": "Bing", "takeaway": "yes"}}, {"type": "way", "id": 128404624, "nodes": [1419188459, 1419188460, 1419188458, 1419188457, 1419188459], "tags": {"addr:housenumber": "1006", "addr:postcode": "V8W 1T4", "addr:street": "Wharf Street", "amenity": "fast_food", "building": "hut", "building:levels": "1", "cuisine": "fish_and_chips", "drive_through": "no", "name": "Red Fish Blue Fish", "opening_hours": "Mo-Su 11:00-20:00", "payment:interac": "yes", "phone": "+1-250-590-0795"}}, {"type": "way", "id": 136795941, "nodes": [1500843795, 1500843794, 1500843790, 1500843783, 1500843780, 1500843730, 1500843753, 1500843756, 1500843766, 1500843774, 1500843791, 1500843787, 1500843795], "tags": {"addr:housenumber": "607", "addr:street": "Oswego Street", "amenity": "restaurant", "building": "yes", "check_date": "2023-04-27", "cuisine": "regional", "name": "Harbour House Restaurant"}}, {"type": "way", "id": 172213069, "nodes": [1830360216, 1104333723, 1104333687, 1104333745, 1104333753, 1104333681, 1831416948, 1831416947, 1831416931, 1831416929, 1831416921, 1104333677, 1830360216], "tags": {"addr:housenumber": "708", "addr:street": "View Street", "amenity": "restaurant", "building": "yes", "building:levels": "1", "check_date": "2025-03-08", "cuisine": "sushi", "name": "Toro", "phone": "+1 250 381-8868", "roof:shape": "flat", "website": "https://www.torobarbar.ca/"}}, {"type": "way", "id": 236486957, "nodes": [2445121565, 2445121564, 2445121562, 2445121563, 2445121565], "tags": {"addr:housenumber": "769", "addr:street": "Yates Street", "amenity": "restaurant", "building": "retail", "building:levels": "1", "cuisine": "asian", "name": "Foo", "opening_hours": "Mo-Sa 11:30-22:00; Su 11:30-21:00", "outdoor_seating": "yes", "phone": "+1-250-383-3111", "source": "Bing", "takeaway": "yes", "website": "https://victoria.foofood.ca/"}}, {"type": "way", "id": 302360095, "nodes": [4336451731, 3066164542, 3066164551, 3066164520, 4336451731], "tags": {"addr:housenumber": "2350", "addr:street": "Douglas Street", "amenity": "fast_food", "brand": "Dairy Queen", "brand:wikidata": "Q1141226", "brand:wikipedia": "en:Dairy Queen", "building": "yes", "building:levels": "1", "cuisine": "ice_cream;burger", "name": "Dairy Queen", "opening_hours": "Mo-Sa 10:00-23:30; Su 10:00-23:00", "takeaway": "yes"}}, {"type": "way", "id": 302538803, "nodes": [3067884339, 3067884271, 3067884298, 3067884326, 3067884344, 3067883499, 3067883521, 3067884339], "tags": {"addr:housenumber": "980", "addr:street": "Pandora Avenue", "amenity": "fast_food", "brand": "McDonald's", "brand:wikidata": "Q38076", "brand:wikipedia": "en:McDonald's", "building": "retail", "cuisine": "burger", "drive_through": "yes", "internet_access": "wlan", "name": "McDonald's", "name:en": "McDonald's", "takeaway": "yes"}}, {"type": "way", "id": 336026733, "nodes": [1424890765, 1424890764, 1424890799, 1424890800, 1424890792, 1424890797, 1424890765], "tags": {"addr:housenumber": "1218", "addr:postcode": "V8W 1T8", "addr:street": "Wharf Street", "amenity": "restaurant", "building": "yes", "cuisine": "indian", "delivery": "no", "name": "Dosa Paragon", "outdoor_seating": "no", "phone": "+1-250-404-4112", "smoking": "outside", "takeaway": "yes", "wikidata": "Q111693586"}}, {"type": "way", "id": 766592866, "nodes": [7159767804, 7159767801, 7159767802, 7159767803, 7159767804], "tags": {"amenity": "fast_food", "name": "Melt", "street_vendor": "yes"}}, {"type": "way", "id": 945953591, "nodes": [8757253161, 8757253160, 8757253180, 8757253181, 8757253161], "tags": {"amenity": "restaurant", "cuisine": "sandwich", "level": "0", "name": "Wheelies Cafe", "outdoor_seating": "yes", "takeaway": "yes"}}]}