{"version": 0.6, "generator": "Overpass API 0.7.62.8 e802775f", "osm3s": {"timestamp_osm_base": "2025-11-22T19:08:54Z", "copyright": "The data included in this document is from www.openstreetmap.org. The data is made available under ODbL."}, "elements": [{"type": "node", "id": 1218625062, "lat": 48.4296229, "lon": -123.3677734}, {"type": "node", "id": 1218625102, "lat": 48.4294509, "lon": -123.3677669}, {"type": "node", "id": 1416737421, "lat": 48.4251403, "lon": -123.3585351}, {"type": "node", "id": 1416737424, "lat": 48.4251672, "lon": -123.3587853}, {"type": "node", "id": 1416737431, "lat": 48.4251934, "lon": -123.3590305}, {"type": "node", "id": 1416737433, "lat": 48.4251946, "lon": -123.3590416}, {"type": "node", "id": 1416737477, "lat": 48.4254689, "lon": -123.3584551}, {"type": "node", "id": 1416737479, "lat": 48.4255232, "lon": -123.3589616}, {"type": "node", "id": 1507707057, "lat": 48.4288762, "lon": -123.3776004}, {"type": "node", "id": 1507707060, "lat": 48.4289157, "lon": -123.3776293}, {"type": "node", "id": 1507707061, "lat": 48.4289213, "lon": -123.3774599}, {"type": "node", "id": 1507707068, "lat": 48.4289602, "lon": -123.3774883}, {"type": "node", "id": 1507707072, "lat": 48.4289688, "lon": -123.3776657}, {"type": "node", "id": 1507707078, "lat": 48.4290124, "lon": -123.3775275}, {"type": "node", "id": 1507707081, "lat": 48.4290261, "lon": -123.3777075}, {"type": "node", "id": 1507707092, "lat": 48.4290704, "lon": -123.3775699}, {"type": "node", "id": 1507707109, "lat": 48.4324674, "lon": -123.3588234}, {"type": "node", "id": 1507707113, "lat": 48.4324739, "lon": -123.3589244}, {"type": "node", "id": 1507707115, "lat": 48.4324855, "lon": -123.3588208}, {"type": "node", "id": 1507707119, "lat": 48.4325598, "lon": -123.3588079}, {"type": "node", "id": 1507707120, "lat": 48.4325761, "lon": -123.3588055}, {"type": "node", "id": 1507707121, "lat": 48.4325828, "lon": -123.3589084}, {"type": "node", "id": 3317905664, "lat": 48.4322197, "lon": -123.3648053, "tags": {"addr:housenumber": "2008", "addr:street": "Douglas Street", "name": "Filipino Mart", "opening_hours": "Tu-Sa 11:00-16:30; Su 12:00-15:30", "shop": "convenience"}}, {"type": "node", "id": 3431121075, "lat": 48.4265201, "lon": -123.3651105, "tags": {"addr:housenumber": "1300", "addr:street": "Douglas Street", "brand": "Circle K", "brand:wikidata": "Q3268010", "brand:wikipedia": "en:Circle K", "check_date": "2025-03-08", "name": "Circle K", "shop": "convenience"}}, {"type": "node", "id": 3803116376, "lat": 48.4224433, "lon": -123.365665, "tags": {"addr:housenumber": "813", "addr:street": "Douglas Street", "brand": "7-Eleven", "brand:wikidata": "Q259340", "brand:wikipedia": "en:7-Eleven", "check_date": "2024-03-19", "name": "7-Eleven", "payment:cash": "yes", "payment:credit_cards": "yes", "payment:debit_cards": "yes", "payment:mastercard": "yes", "payment:visa": "yes", "phone": "+1 250 381-5332", "shop": "convenience", "website": "https://stores.7-eleven.ca/store/34579", "wheelchair": "yes"}}, {"type": "node", "id": 3849480260, "lat": 48.4297526, "lon": -123.3647163, "tags": {"addr:housenumber": "1710", "addr:street": "Douglas Street", "name": "Best Buy", "shop": "convenience"}}, {"type": "node", "id": 3849480262, "lat": 48.4277461, "lon": -123.3642968, "tags": {"addr:housenumber": "1483", "addr:street": "Douglas Street", "check_date": "2025-04-23", "name": "Casa Convenience Store", "shop": "convenience"}}, {"type": "node", "id": 3849480269, "lat": 48.4292604, "lon": -123.3675318, "tags": {"addr:housenumber": "561", "addr:street": "Fisgard Street", "name": "Jia Hua Trading", "shop": "convenience"}}, {"type": "node", "id": 3849480272, "lat": 48.4275793, "lon": -123.3577926, "tags": {"name": "Mediterranean & Middle Eastern Foods", "shop": "convenience"}}, {"type": "node", "id": 3849480281, "lat": 48.4298763, "lon": -123.3669036, "tags": {"name": "Tai Sang Company", "shop": "convenience"}}, {"type": "node", "id": 3849480283, "lat": 48.4324515, "lon": -123.3594023, "tags": {"name": "Vegas Convenience Store", "shop": "convenience"}}, {"type": "node", "id": 3849480284, "lat": 48.4288155, "lon": -123.3672665, "tags": {"name": "Victoria Giftplus", "shop": "convenience"}}, {"type": "node", "id": 4358492192, "lat": 48.4264224, "lon": -123.364358, "tags": {"addr:housenumber": "706", "addr:street": "Yates Street", "brand": "Bulk Barn", "brand:wikidata": "Q4996466", "brand:wikipedia": "en:Bulk Barn", "name": "Bulk Barn", "shop": "supermarket", "wheelchair": "yes"}}, {"type": "node", "id": 4681165291, "lat": 48.4273412, "lon": -123.3528048, "tags": {"brand": "Circle K", "brand:wikidata": "Q3268010", "brand:wikipedia": "en:Circle K", "name": "Circle K", "shop": "convenience", "website": "https://www.circlek.com/store-locator/CA/victoria/1515-cook-street/0711166"}}, {"type": "node", "id": 5847709086, "lat": 48.4291406, "lon": -123.3672973, "tags": {"addr:housenumber": "1624", "addr:street": "Government Street", "name": "Silk Road Tea", "shop": "convenience", "website": "http://silkroadtea.com"}}, {"type": "node", "id": 6664892618, "lat": 48.4288744, "lon": -123.3586716, "tags": {"name": "Daily Fresh", "shop": "supermarket"}}, {"type": "node", "id": 9294687566, "lat": 48.4274875, "lon": -123.355612, "tags": {"addr:housenumber": "1010", "addr:street": "Pandora Avenue", "brand": "Save-On-Foods", "brand:wikidata": "Q7427974", "brand:wikipedia": "en:Save-On-Foods", "check_date": "2025-06-24", "name": "Save-On-Foods", "opening_hours": "Mo-Su 07:00-22:00", "payment:cash": "yes", "payment:credit_cards": "yes", "shop": "supermarket", "website": "https://www.saveonfoods.com/"}}, {"type": "node", "id": 11226344056, "lat": 48.4296208, "lon": -123.3678942}, {"type": "node", "id": 11226344057, "lat": 48.4294489, "lon": -123.3678893}, {"type": "way", "id": 128146125, "nodes": [1416737479, 1416737477, 1416737421, 1416737424, 1416737431, 1416737433, 1416737479], "tags": {"addr:housenumber": "903", "addr:street": "Yates Street", "building": "yes", "gst_number": "R136696234", "name": "Market on Yates", "opening_hours": "Mo-Su 07:00-23:00", "payment:interac": "yes", "phone": "+1-250-381-6000", "shop": "supermarket", "source": "Bing", "website": "www.themarketstores.com"}}, {"type": "way", "id": 137448634, "nodes": [1507707115, 1507707109, 1507707113, 1507707121, 1507707120, 1507707119, 1507707115], "tags": {"brand": "On the Run", "brand:wikidata": "Q16931259", "brand:wikipedia": "en:Husky Energy", "building": "yes", "name": "On the Run", "shop": "convenience"}}, {"type": "way", "id": 137574831, "nodes": [1507707072, 1507707060, 1507707057, 1507707061, 1507707068, 1507707078, 1507707092, 1507707081, 1507707072], "tags": {"brand": "Shell Select", "brand:wikidata": "Q110716465", "brand:wikipedia": "en:Royal Dutch Shell", "building": "retail", "name": "Shell Select", "opening_hours": "24/7", "shop": "convenience"}}, {"type": "way", "id": 1211744209, "nodes": [11226344057, 11226344056, 1218625062, 1218625102, 11226344057], "tags": {"addr:housenumber": "550", "addr:street": "Fisgard Street", "contact:facebook": "https://www.facebook.com/fisgardmarket/", "cuisine": "chinese;asian", "name": "Fisgard Market", "note": "It's a \"grocery store\" in local terms, it's not \"shop=grocery\" in OSM terms. Too small to be a supermarket, and that leaves \"shop=convenience\". I've also set \"cuisine=chinese;asian\" as it focuses on chinese foods, but also has other asian foods.", "opening_hours": "09:00-18:00", "origin": "asian", "phone": "+1 250 383 6969", "shop": "convenience", "start_date": "1994-06-24", "website": "https://fisgard-market-ltd.business.site"}}]}