{"version": 0.6, "generator": "Overpass API 0.7.62.8 e802775f", "osm3s": {"timestamp_osm_base": "2025-11-22T19:06:56Z", "copyright": "The data included in this document is from www.openstreetmap.org. The data is made available under ODbL."}, "elements": [{"type": "node", "id": 505751618, "lat": 49.2829841, "lon": -123.115166, "tags": {"addr:city": "Vancouver", "addr:housenumber": "596", "addr:province": "BC", "addr:street": "Seymour Street", "brand": "7-Eleven", "brand:wikidata": "Q259340", "brand:wikipedia": "en:7-Eleven", "name": "7-Eleven", "opening_hours": "24/7", "shop": "convenience", "website": "https://stores.7-eleven.ca/store/32999", "wheelchair": "yes"}}, {"type": "node", "id": 505778836, "lat": 49.278642, "lon": -123.1216903, "tags": {"addr:city": "Vancouver", "addr:housenumber": "990", "addr:postcode": "V6B 3L9", "addr:province": "BC", "addr:street": "Seymour Street", "brand": "Nesters Market", "check_date:opening_hours": "2024-07-13", "internet_access": "wlan", "name": "Nesters Market", "opening_hours": "Mo-Su 08:00-22:00", "operator": "Pattison Food Group", "outdoor_seating": "yes", "payment:credit_cards": "yes", "payment:debit_cards": "yes", "phone": "+1 604-682-3071", "shop": "supermarket", "website": "https://www.nestersmarket.com/store/yaletown-vancouver/", "wheelchair": "yes"}}, {"type": "node", "id": 513053228, "lat": 49.2800788, "lon": -123.1174613, "tags": {"addr:city": "Vancouver", "addr:housenumber": "489", "addr:postcode": "V6B 6L9", "addr:province": "BC", "addr:street": "Robson Street", "brand": "IGA", "brand:wikidata": "Q3146662", "brand:wikipedia": "en:IGA (supermarkets)", "check_date:opening_hours": "2024-07-14", "name": "IGA", "opening_hours": "Mo-Fr 08:00-23:30, Sa,Su 08:00-23:30", "payment:cash": "yes", "payment:credit_cards": "yes", "payment:debit_cards": "yes", "phone": "+1-604-684-5714", "shop": "supermarket", "source:website": "https://www.igastoresbc.com/sm/pickup/rsid/070/find-a-store/vancouver-robson-st-iga", "website": "https://www.igastoresbc.com/find-a-store/vancouver-robson-st-iga", "wheelchair": "yes"}}, {"type": "node", "id": 513053415, "lat": 49.2788081, "lon": -123.116272, "tags": {"addr:city": "Vancouver", "addr:housenumber": "310", "addr:province": "BC", "addr:street": "Robson Street", "brand": "7-Eleven", "brand:wikidata": "Q259340", "brand:wikipedia": "en:7-Eleven", "name": "7-Eleven", "opening_hours": "24/7", "phone": "+1-604-678-8305", "ref": "33462", "shop": "convenience", "website": "https://www.7-eleven.ca/locations/bc/vancouver/310-robson-street-33462", "wheelchair": "yes"}}, {"type": "node", "id": 638747932, "lat": 49.2760946, "lon": -123.127478, "tags": {"addr:city": "Vancouver", "addr:housenumber": "1294", "addr:province": "BC", "addr:street": "Granville Street", "brand": "7-Eleven", "brand:wikidata": "Q259340", "brand:wikipedia": "en:7-Eleven", "name": "7-Eleven", "opening_hours": "PH,Mo-Su 00:00-24:00", "shop": "convenience", "website": "https://stores.7-eleven.ca/store/32893", "wheelchair": "yes"}}, {"type": "node", "id": 638861830, "lat": 49.2767415, "lon": -123.130413, "tags": {"addr:city": "Vancouver", "addr:housenumber": "1348", "addr:province": "BC", "addr:street": "Hornby Street", "name": "Sashimiya", "opening_hours": "We-Su 11:00-20:00", "phone": "+1-604-689-0088", "shop": "supermarket"}}, {"type": "node", "id": 649986265, "lat": 49.2892045, "lon": -123.1225516, "tags": {"addr:city": "Vancouver", "addr:housenumber": "305", "addr:province": "BC", "addr:street": "Bute Street", "name": "Urban Fare", "opening_hours": "Mo-Su 07:00-21:00", "payment:credit_cards": "yes", "payment:debit_cards": "yes", "shop": "supermarket", "website": "https://www.urbanfare.com/store/coal-harbour", "wheelchair": "yes"}}, {"type": "node", "id": 811017732, "lat": 49.2757311, "lon": -123.124231, "tags": {"addr:city": "Vancouver", "addr:housenumber": "1202", "addr:postcode": "V6B 3G2", "addr:province": "BC", "addr:street": "Richards Street", "check_date:opening_hours": "2025-04-22", "email": "yaletown@choicesmarkets.com", "name": "Choices Market", "opening_hours": "Mo-Su 08:00-22:00", "payment:cash": "yes", "payment:credit_cards": "yes", "payment:debit_cards": "yes", "phone": "+1-604-633-2392", "shop": "supermarket", "website": "http://www.choicesmarket.com", "wheelchair": "yes"}}, {"type": "node", "id": 905410310, "lat": 49.2822136, "lon": -123.124929, "tags": {"addr:city": "Vancouver", "addr:housenumber": "909", "addr:postcode": "V6Z 2N2", "addr:province": "BC", "addr:street": "Burrard Street", "addr:unit": "110", "brand": "IGA", "brand:wikidata": "Q3146662", "brand:wikipedia": "en:IGA (supermarkets)", "name": "IGA", "name:en": "IGA", "opening_hours": "Mo-Su 08:00-21:00", "payment:credit_cards": "yes", "payment:debit_cards": "yes", "phone": "+1-604-605-0612", "shop": "supermarket", "website": "http://marketplaceiga.com", "wheelchair": "yes"}}, {"type": "node", "id": 1209173521, "lat": 49.2743145, "lon": -123.1221035, "tags": {"addr:city": "Vancouver", "addr:housenumber": "216", "addr:street": "Davie Street", "check_date": "2025-05-17", "name": "Martway", "opening_hours": "24/7", "shop": "convenience"}}, {"type": "node", "id": 1418439984, "lat": 49.2764951, "lon": -123.1216802, "tags": {"addr:city": "Vancouver", "addr:housenumber": "1085", "addr:street": "Homer Street", "brand": "7-Eleven", "brand:wikidata": "Q259340", "brand:wikipedia": "en:7-Eleven", "name": "7-Eleven", "opening_hours": "24/7", "shop": "convenience", "website": "https://stores.7-eleven.ca/store/33417", "wheelchair": "yes"}}, {"type": "node", "id": 1430594618, "lat": 49.2799356, "lon": -123.1081374, "tags": {"addr:city": "Vancouver", "addr:housenumber": "179", "addr:postcode": "V6B 6C1", "addr:province": "BC", "addr:street": "Keefer Place", "air_conditioning": "yes", "branch": "Chinatown Store", "brand": "T&T Supermarket", "brand:wikidata": "Q837893", "brand:wikipedia": "en:T & T Supermarket", "internet_access": "wlan", "internet_access:fee": "no", "level": "0", "name": "\u5927\u7d71\u83ef T&T Supermarket", "name:en": "T&T Supermarket", "name:zh-Hans": "\u5927\u7edf\u534e", "name:zh-Hant": "\u5927\u7d71\u83ef", "opening_hours": "Mo-Su 08:30-22:00", "payment:debit_cards": "yes", "shop": "supermarket", "website": "https://www.tntsupermarket.com"}}, {"type": "node", "id": 2269962036, "lat": 49.2805229, "lon": -123.118864, "tags": {"addr:city": "Vancouver", "addr:housenumber": "590", "addr:postcode": "V6B 2B7", "addr:province": "BC", "addr:street": "Robson Street", "alt_name:ko": "H \ub9c8\ud2b8", "brand": "H Mart", "brand:wikidata": "Q5636306", "brand:wikipedia": "en:H Mart", "check_date:opening_hours": "2024-07-14", "cuisine": "asian", "name": "H Mart", "name:en": "H Mart", "name:ko": "\ud55c\uc544\ub984", "name:zh-Hans": "\u97e9\u4e9a\u9f99", "name:zh-Hant": "\u97d3\u4e9e\u9f8d", "note": "9-22/7", "opening_hours": "Mo-Su 09:00-22:30", "payment:credit_cards": "yes", "payment:debit_cards": "yes", "shop": "supermarket"}}, {"type": "node", "id": 2288279916, "lat": 49.2825067, "lon": -123.1342965}, {"type": "node", "id": 2288279918, "lat": 49.2827256, "lon": -123.1339627}, {"type": "node", "id": 2321011530, "lat": 49.282273, "lon": -123.1339335}, {"type": "node", "id": 2321011537, "lat": 49.2825191, "lon": -123.1335282}, {"type": "node", "id": 2321015151, "lat": 49.2825016, "lon": -123.1335571}, {"type": "node", "id": 2321115305, "lat": 49.2884384, "lon": -123.122991, "tags": {"addr:city": "Vancouver", "addr:housenumber": "1199", "addr:province": "BC", "addr:street": "West Pender Street", "addr:unit": "104", "brand": "7-Eleven", "brand:wikidata": "Q259340", "brand:wikipedia": "en:7-Eleven", "name": "7-Eleven", "opening_hours": "24/7", "shop": "convenience", "source": "survey", "website": "https://stores.7-eleven.ca/store/34290", "wheelchair": "no"}}, {"type": "node", "id": 2464516836, "lat": 49.2859852, "lon": -123.1244926, "tags": {"addr:city": "Vancouver", "addr:housenumber": "1133", "addr:postcode": "V6E 4T9", "addr:province": "BC", "addr:street": "Alberni Street", "email": "alberni@urbanfare.com", "internet_access": "wlan", "name": "Urban Fare", "opening_hours": "Mo-Su 07:00-22:00", "payment:credit_cards": "yes", "payment:debit_cards": "yes", "phone": "+1-604-648-2053", "shop": "supermarket", "website": "http://www.urbanfare.com/store/shangri-la", "wheelchair": "yes"}}, {"type": "node", "id": 2485918695, "lat": 49.2803888, "lon": -123.131473, "tags": {"addr:city": "Vancouver", "addr:housenumber": "1201", "addr:province": "BC", "addr:street": "Thurlow Street", "name": "Mart Way", "opening_hours": "24/7", "payment:credit_cards": "yes", "payment:debit_cards": "yes", "shop": "convenience", "wheelchair": "yes"}}, {"type": "node", "id": 2998231878, "lat": 49.279649, "lon": -123.123989, "tags": {"addr:city": "Vancouver", "addr:housenumber": "780", "addr:province": "BC", "addr:street": "Nelson Street", "name": "One Stop Shop", "opening_hours": "Mo-Su 07:00-19:00", "payment:credit_cards": "yes", "payment:debit_cards": "yes", "shop": "convenience", "wheelchair": "yes"}}, {"type": "node", "id": 3108751084, "lat": 49.2781932, "lon": -123.1242984, "tags": {"addr:city": "Vancouver", "addr:housenumber": "1090", "addr:province": "BC", "addr:street": "Granville Street", "check_date:opening_hours": "2024-08-19", "name": "Granville Food Market", "opening_hours": "Mo-Th, Su 09:00-11:30; Fr, Sa 09:00-02:00", "opening_hours:signed": "no", "payment:credit_cards": "yes", "payment:debit_cards": "yes", "shop": "convenience", "wheelchair": "yes"}}, {"type": "node", "id": 3601697960, "lat": 49.2765465, "lon": -123.115167, "tags": {"addr:city": "Vancouver", "addr:province": "BC", "addr:street": "Smithe Street", "brand": "7-Eleven", "brand:wikidata": "Q259340", "brand:wikipedia": "en:7-Eleven", "diet:halal": "no", "name": "7-Eleven", "opening_hours": "24/7", "shop": "convenience", "website": "https://stores.7-eleven.ca/store/33424", "wheelchair": "yes"}}, {"type": "node", "id": 3679459601, "lat": 49.2827613, "lon": -123.133914}, {"type": "node", "id": 3679459602, "lat": 49.282307, "lon": -123.1338776}, {"type": "node", "id": 3679459603, "lat": 49.2822936, "lon": -123.1338581}, {"type": "node", "id": 3679459604, "lat": 49.2826591, "lon": -123.1340641}, {"type": "node", "id": 3679459605, "lat": 49.2825747, "lon": -123.1341928}, {"type": "node", "id": 3679459606, "lat": 49.2826501, "lon": -123.1340491}, {"type": "node", "id": 3679459607, "lat": 49.282566, "lon": -123.1341781}, {"type": "node", "id": 3705977111, "lat": 49.2872617, "lon": -123.1335205, "tags": {"addr:city": "Vancouver", "addr:housenumber": "1500", "addr:postcode": "V6G 1J7", "addr:province": "BC", "addr:street": "Barclay Street", "name": "Danial Market", "payment:cash": "yes", "payment:credit_cards": "yes", "payment:debit_cards": "yes", "shop": "supermarket"}}, {"type": "node", "id": 3708806648, "lat": 49.279303, "lon": -123.1213597, "tags": {"addr:city": "Vancouver", "addr:housenumber": "927", "addr:province": "BC", "addr:street": "Seymour Street", "check_date:opening_hours": "2024-09-02", "name": "Foodness Supermarket", "opening_hours": "Mo-Sa 10:00-20:00", "payment:debit_cards": "yes", "shop": "convenience", "wheelchair": "yes"}}, {"type": "node", "id": 3719407591, "lat": 49.2822519, "lon": -123.109283, "tags": {"addr:city": "Vancouver", "addr:housenumber": "166", "addr:province": "BC", "addr:street": "West Hastings Street", "name": "Victory Food Market", "shop": "convenience"}}, {"type": "node", "id": 3729617704, "lat": 49.2811016, "lon": -123.124385, "tags": {"addr:city": "Vancouver", "addr:housenumber": "951", "addr:province": "BC", "addr:street": "Hornby Street", "diet:halal": "no", "diet:kosher": "no", "name": "Oscar's Smoke Shop", "opening_hours": "Mo-Fr 07:00-19:00; Sa 09:00-19:00; Su 10:30-19:00", "payment:credit_cards": "yes", "payment:debit_cards": "yes", "shop": "convenience", "wheelchair": "yes"}}, {"type": "node", "id": 3729617774, "lat": 49.2819564, "lon": -123.123078, "tags": {"addr:city": "Vancouver", "addr:housenumber": "863", "addr:province": "BC", "addr:street": "Hornby Street", "name": "Terrace Smoke Shop", "opening_hours": "Mo-Fr 08:00-19:00; Sa 12:00-18:00", "payment:credit_cards": "yes", "payment:debit_cards": "yes", "shop": "convenience", "wheelchair": "yes"}}, {"type": "node", "id": 3734942642, "lat": 49.2783946, "lon": -123.130591, "tags": {"addr:city": "Vancouver", "addr:housenumber": "1253", "addr:province": "BC", "addr:street": "Burrard Street", "name": "Burrard Corner Store", "opening_hours": "Mo-Sa 12:00-17:00", "payment:credit_cards": "yes", "payment:debit_cards": "yes", "shop": "convenience", "toilets:wheelchair": "no", "wheelchair": "yes"}}, {"type": "node", "id": 3743635243, "lat": 49.277439, "lon": -123.12696, "tags": {"addr:city": "Vancouver", "addr:housenumber": "732", "addr:province": "BC", "addr:street": "Davie Street", "name": "Urban Choice Market", "opening_hours": "24/7", "payment:credit_cards": "yes", "payment:debit_cards": "yes", "shop": "convenience", "wheelchair": "yes"}}, {"type": "node", "id": 3753945310, "lat": 49.2833921, "lon": -123.113138, "tags": {"addr:city": "Vancouver", "addr:housenumber": "516", "addr:province": "BC", "addr:street": "West Pender Street", "check_date": "2024-12-03", "currency:XBT": "yes", "name": "Al-Madina General Store", "payment:coinos": "yes", "payment:lightning": "yes", "payment:onchain": "yes", "shop": "convenience", "survey:date": "2025-08-08"}}, {"type": "node", "id": 3753957572, "lat": 49.283786, "lon": -123.1118241, "tags": {"addr:city": "Vancouver", "addr:housenumber": "450", "addr:province": "BC", "addr:street": "West Hastings Street", "name": "My Convenience Store", "shop": "convenience"}}, {"type": "node", "id": 3755319078, "lat": 49.2840683, "lon": -123.1134863, "tags": {"addr:housenumber": "468", "addr:street": "Seymour Street", "name": "Seymour Mini Mart", "shop": "convenience"}}, {"type": "node", "id": 3786978105, "lat": 49.2794688, "lon": -123.107847, "tags": {"addr:city": "Vancouver", "addr:housenumber": "623", "addr:postcode": "V6B 0J4", "addr:province": "BC", "addr:street": "Abbott Street", "alt_name": "Your Local Convenience Store", "name": "Neotown", "shop": "convenience"}}, {"type": "node", "id": 3788419829, "lat": 49.2816781, "lon": -123.107508, "tags": {"addr:city": "Vancouver", "addr:housenumber": "433", "addr:province": "BC", "addr:street": "Abbott Street", "name": "Mexican Stop", "shop": "greengrocer"}}, {"type": "node", "id": 3789851064, "lat": 49.2862492, "lon": -123.1165796, "tags": {"addr:city": "Vancouver", "addr:housenumber": "435", "addr:province": "BC", "addr:street": "Hornby Street", "name": "Jubilee Smoke & Things", "shop": "convenience"}}, {"type": "node", "id": 3931566491, "lat": 49.2802877, "lon": -123.1074, "tags": {"addr:city": "Vancouver", "addr:province": "BC", "addr:street": "Abbott Street", "addr:unit": "1075", "brand": "7-Eleven", "brand:wikidata": "Q259340", "brand:wikipedia": "en:7-Eleven", "name": "7-Eleven", "shop": "convenience"}}, {"type": "node", "id": 3940285759, "lat": 49.280083, "lon": -123.1208635, "tags": {"addr:city": "Vancouver", "addr:housenumber": "665", "addr:province": "BC", "addr:street": "Smithe Street", "check_date:opening_hours": "2023-12-03", "name": "Smoke & Food Market", "opening_hours:signed": "no", "payment:credit_cards": "yes", "payment:debit_cards": "yes", "shop": "convenience", "wheelchair": "no"}}, {"type": "node", "id": 3940617014, "lat": 49.2828522, "lon": -123.107023, "tags": {"addr:city": "Vancouver", "addr:housenumber": "303", "addr:province": "BC", "addr:street": "Abbott Street", "name": "Express News", "opening_hours": "Mo-Th 08:00-00:00; Sa 09:00-02:00; Su 09:00-00:00; Fr 08:00-02:00", "shop": "convenience"}}, {"type": "node", "id": 3940620195, "lat": 49.2825578, "lon": -123.1071738, "tags": {"addr:city": "Vancouver", "addr:housenumber": "333", "addr:postcode": "V6B 0G6", "addr:province": "BC", "addr:street": "Abbott Street", "brand": "Nesters Market", "name": "Nesters Market", "opening_hours": "Mo-Su 08:00-21:00", "operator": "Pattison Food Group", "phone": "+1-604-688-7550", "shop": "supermarket", "website": "https://www.nestersmarket.com/store/woodwards-vancouver/"}}, {"type": "node", "id": 4305377798, "lat": 49.2804768, "lon": -123.131611, "tags": {"addr:city": "Vancouver", "addr:housenumber": "1104", "addr:postcode": "V6E 1X4", "addr:province": "BC", "addr:street": "Davie Street", "check_date:opening_hours": "2024-09-21", "email": "info@mitierralatina.ca", "name": "Mi Tierra Latina", "opening_hours": "09:00-21:00", "payment:credit_cards": "yes", "phone": "+1 866-967-1378", "shop": "supermarket", "website": "https://mitierralatina.ca/", "wheelchair": "yes"}}, {"type": "node", "id": 4305378420, "lat": 49.2812854, "lon": -123.132874, "tags": {"addr:city": "Vancouver", "addr:housenumber": "150", "addr:postcode": "V6E 1N1", "addr:province": "BC", "addr:street": "Davie Street", "name": "Kin's Farm Market", "opening_hours": "Mo-Su 09:00-20:00", "organic": "yes", "payment:credit_cards": "yes", "payment:debit_cards": "yes", "phone": "+1-604-687-8081", "shop": "greengrocer", "toilets:wheelchair": "no", "wheelchair": "yes"}}, {"type": "node", "id": 4323354089, "lat": 49.2868204, "lon": -123.1286434, "tags": {"addr:housenumber": "1296", "addr:street": "Robson Street", "check_date": "2024-09-18", "name": "Cherry Market", "opening_hours:signed": "no", "payment:credit_cards": "yes", "payment:debit_cards": "yes", "shop": "convenience", "wheelchair": "yes"}}, {"type": "node", "id": 4390230579, "lat": 49.2818491, "lon": -123.116762, "tags": {"addr:city": "Vancouver", "addr:housenumber": "595", "addr:province": "BC", "addr:street": "West Georgia Street", "brand": "Circle K", "brand:wikidata": "Q3268010", "brand:wikipedia": "en:Circle K", "name": "Circle K", "shop": "convenience"}}, {"type": "node", "id": 4675760389, "lat": 49.2870439, "lon": -123.119786, "tags": {"addr:city": "Vancouver", "addr:province": "BC", "addr:street": "West Pender Street", "name": "Fujiya", "shop": "supermarket"}}, {"type": "node", "id": 5004169223, "lat": 49.2763124, "lon": -123.1208, "tags": {"addr:city": "Vancouver", "addr:province": "BC", "addr:street": "Hamilton Street", "name": "Your Dollar Store", "name:en": "Your Dollar Store", "opening_hours": "Mo-Sa 10:00-20:00; Su 10:00-18:00", "shop": "convenience", "wheelchair": "yes"}}, {"type": "node", "id": 5925534985, "lat": 49.2745481, "lon": -123.1259674, "tags": {"addr:city": "Vancouver", "addr:housenumber": "1312", "addr:province": "BC", "addr:street": "Richards Street", "air_conditioning": "yes", "check_date:opening_hours": "2024-07-20", "name": "Farm to Table", "opening_hours": "Mo-Su 07:00-23:00", "payment:debit_cards": "yes", "shop": "supermarket", "wheelchair": "yes"}}, {"type": "node", "id": 6018363188, "lat": 49.274455, "lon": -123.126735, "tags": {"addr:city": "Vancouver", "addr:housenumber": "1355", "addr:province": "BC", "addr:street": "Richards Street", "name": "Stop 'n Go", "shop": "convenience"}}, {"type": "node", "id": 6505003628, "lat": 49.2863788, "lon": -123.127863, "tags": {"addr:city": "Vancouver", "addr:housenumber": "1238", "addr:province": "BC", "addr:street": "Robson Street", "check_date": "2024-09-18", "name": "Konbiniya Japan Centre", "opening_hours": "10:00-23:00", "payment:credit_cards": "yes", "payment:debit_cards": "yes", "shop": "convenience", "website": "https://www.konbiniya.com/", "wheelchair": "yes"}}, {"type": "node", "id": 6552017237, "lat": 49.2844311, "lon": -123.125345, "tags": {"addr:city": "Vancouver", "addr:housenumber": "805", "addr:postcode": "V6E 1W2", "addr:province": "BC", "addr:street": "Thurlow Street", "check_date": "2024-09-18", "check_date:opening_hours": "2023-11-25", "clothes": "women;men;athletic", "diet:halal": "no", "diet:kosher": "no", "name": "Dank Mart", "opening_hours": "Mo-Su 11:00-23:00", "payment:credit_cards": "yes", "payment:debit_cards": "yes", "phone": "+1-778-379-4232", "shop": "convenience", "wheelchair": "yes"}}, {"type": "node", "id": 7083406176, "lat": 49.2902777, "lon": -123.1344236, "tags": {"addr:city": "Vancouver", "addr:housenumber": "837", "addr:province": "BC", "addr:street": "Bidwell Street", "name": "Aria Market", "shop": "supermarket"}}, {"type": "node", "id": 7231937859, "lat": 49.2740907, "lon": -123.120278, "tags": {"addr:city": "Vancouver", "addr:housenumber": "1146", "addr:postcode": "V6Z 2Y0", "addr:province": "BC", "addr:street": "Pacific Boulevard", "brand": "Canada Post", "brand:wikidata": "Q1032001", "brand:wikipedia": "en:Canada Post", "name": "Yaletown Express", "opening_hours": "Mo-Fr 09:00-19:30; Sa 11:00-16:00", "operator": "Canada Post", "operator:wikidata": "Q1032001", "operator:wikipedia": "en:Canada Post", "shop": "convenience", "wheelchair": "yes"}}, {"type": "node", "id": 7443788485, "lat": 49.2819265, "lon": -123.1329073, "tags": {"addr:street": "Bute Street", "internet_access": "wlan", "name": "Fresco Foods", "opening_hours": "Mo-We 06:30-19:00; Sa 08:00-20:00; Su 08:00-19:00; Th-Fr 06:30-20:00", "phone": "+1-604-423-3445", "shop": "supermarket", "website": "https://frescofoods.ca"}}, {"type": "node", "id": 8292120465, "lat": 49.2787756, "lon": -123.1283516, "tags": {"addr:city": "Vancouver", "addr:housenumber": "931", "addr:province": "BC", "addr:street": "Davie Street", "check_date:opening_hours": "2024-10-06", "name": "El Paisano", "opening_hours:signed": "no", "payment:credit_cards": "yes", "payment:debit_cards": "yes", "shop": "supermarket", "wheelchair": "yes"}}, {"type": "node", "id": 8294734201, "lat": 49.275371, "lon": -123.130507, "tags": {"addr:city": "Vancouver", "addr:housenumber": "1423", "addr:province": "BC", "addr:street": "Continental Street", "name": "Fresh Street Market", "opening_hours": "Mo-Su 08:00-22:00", "payment:debit_cards": "yes", "shop": "supermarket"}}, {"type": "node", "id": 9670437429, "lat": 49.2815956, "lon": -123.133376, "tags": {"addr:city": "Vancouver", "addr:housenumber": "1198", "addr:province": "BC", "addr:street": "Davie Street", "brand": "Circle K", "brand:wikidata": "Q3268010", "brand:wikipedia": "en:Circle K", "check_date:opening_hours": "2022-09-10", "name": "Circle K", "opening_hours:signed": "no", "phone": "+1-604-669-3874", "shop": "convenience", "website": "https://www.circlek.com/store-locator/CA/vancouver/1198-davie-st/0711133", "wheelchair": "yes"}}, {"type": "node", "id": 9981992784, "lat": 49.2893278, "lon": -123.129092, "tags": {"name": "Freshco Food Mart", "opening_hours": "Mo-Sa 09:30-24:00; Su 11:00-22:00", "shop": "convenience"}}, {"type": "node", "id": 11447439072, "lat": 49.275085, "lon": -123.1326542, "tags": {"name": "Easy Day Store", "opening_hours": "Mo-Su 08:00-24:00", "shop": "convenience", "wheelchair": "yes"}}, {"type": "node", "id": 11654759425, "lat": 49.2810656, "lon": -123.1140114, "tags": {"addr:city": "Vancouver", "addr:housenumber": "658", "addr:postcode": "V6B 0S5", "addr:province": "BC", "addr:street": "Homer Street", "air_conditioning": "yes", "brand": "Loblaws", "brand:wikidata": "Q3257626", "level": "1", "name": "Loblaws", "opening_hours": "Mo-Su 07:00-22:00", "payment:cash": "yes", "payment:contactless": "yes", "payment:credit_cards": "yes", "payment:debit_cards": "yes", "phone": "+1-604-632-3906", "shop": "supermarket", "website": "https://www.loblaws.ca/store-locator/details/7155", "wheelchair": "yes"}}, {"type": "node", "id": 11965660297, "lat": 49.2849258, "lon": -123.1122173, "tags": {"name": "Harbour News", "shop": "convenience"}}, {"type": "node", "id": 12062122321, "lat": 49.2882438, "lon": -123.1308257, "tags": {"addr:city": "Vancouver", "addr:housenumber": "1400", "addr:province": "BC", "addr:street": "Robson Street", "branch": "Robson", "name": "Aisle 24 Market", "shop": "convenience"}}, {"type": "node", "id": 12339738817, "lat": 49.290088, "lon": -123.132668, "tags": {"addr:city": "Vancouver", "addr:housenumber": "1675", "addr:postcode": "V6G 1C8", "addr:province": "BC", "addr:street": "Robson Street", "branch": "Robson", "brand": "Whole Foods Market", "brand:wikidata": "Q1809448", "brand:wikipedia": "en:Whole Foods Market", "check_date": "2024-10-03", "check_date:opening_hours": "2024-10-03", "name": "Whole Foods Market", "opening_hours": "Mo-Su 08:00-21:00", "phone": "+1-604-687-5288", "ref": "robson", "shop": "supermarket", "website": "https://www.wholefoodsmarket.com/stores/robson", "wheelchair": "yes"}}, {"type": "way", "id": 223173357, "nodes": [2288279916, 2321011530, 3679459602, 3679459603, 2321015151, 2321011537, 3679459601, 2288279918, 3679459604, 3679459606, 3679459607, 3679459605, 2288279916], "tags": {"addr:city": "Vancouver", "addr:housenumber": "1255", "addr:postcode": "V6E 1N4", "addr:province": "BC", "addr:street": "Davie Street", "brand": "Your Independent Grocer", "brand:wikidata": "Q8058833", "brand:wikipedia": "en:Your Independent Grocer", "building": "retail", "building:levels": "1", "height": "5", "name": "Your Independent Grocer", "opening_hours": "Mo-Su 07:00-24:00", "operator": "Loblaws Inc", "phone": "+1-604-688-0911", "roof:colour": "#bbb4ac", "roof:shape": "flat", "shop": "supermarket", "source": "https://www.yourindependentgrocer.ca/", "website": "https://www.yourindependentgrocer.ca/", "wheelchair": "yes"}}]}