{"version": 0.6, "generator": "Overpass API 0.7.62.8 e802775f", "osm3s": {"timestamp_osm_base": "2025-11-22T19:08:00Z", "copyright": "The data included in this document is from www.openstreetmap.org. The data is made available under ODbL."}, "elements": [{"type": "node", "id": 1101488369, "lat": 49.1970049, "lon": -122.8464156, "tags": {"addr:city": "Surrey", "addr:housenumber": "10692", "addr:street": "135A Street", "amenity": "cafe", "name": "Ken's Tea House", "source": "City of Surrey 2010 GIS Data", "surrey:addrid": "11216", "surrey:date": "19851206"}}, {"type": "node", "id": 1101496415, "lat": 49.1946233, "lon": -122.8466723, "tags": {"addr:city": "Surrey", "addr:housenumber": "13551", "addr:street": "105A Avenue", "amenity": "cafe", "cuisine": "sandwich", "name": "Huyen Cafe", "source": "City of Surrey 2010 GIS Data", "surrey:addrid": "46772", "surrey:date": "19851209"}}, {"type": "node", "id": 1101508483, "lat": 49.1967314, "lon": -122.8456602, "tags": {"addr:city": "Surrey", "addr:housenumber": "10671", "addr:province": "BC", "addr:street": "King George Boulevard", "amenity": "restaurant", "cuisine": "mexican", "name": "Guacamole Mexican Grill", "source": "City of Surrey 2010 GIS Data", "surrey:addrid": "27758", "surrey:date": "19851205"}}, {"type": "node", "id": 1101518201, "lat": 49.1970164, "lon": -122.8462529, "tags": {"addr:city": "Surrey", "addr:housenumber": "10694", "addr:street": "135A Street", "amenity": "restaurant", "cuisine": "african", "name": "Alebi African Cuisine", "source": "City of Surrey 2010 GIS Data", "surrey:addrid": "85162", "surrey:date": "19851206"}}, {"type": "node", "id": 1101537762, "lat": 49.1967391, "lon": -122.8459387, "tags": {"addr:city": "Surrey", "addr:housenumber": "10673", "addr:street": "King George Boulevard", "amenity": "restaurant", "cuisine": "chinese", "name": "Goto Moto & Huong Que", "source": "City of Surrey 2010 GIS Data", "surrey:addrid": "24127", "surrey:date": "19851205"}}, {"type": "node", "id": 1101538499, "lat": 49.1967353, "lon": -122.8460612, "tags": {"addr:city": "Surrey", "addr:housenumber": "10675", "addr:province": "BC", "addr:street": "King George Boulevard", "amenity": "restaurant", "cuisine": "mexican", "name": "Taqueria Jalisco Mexican Restaurant", "source": "City of Surrey 2010 GIS Data", "surrey:addrid": "72537", "surrey:date": "19851205"}}, {"type": "node", "id": 1735983179, "lat": 49.1886617, "lon": -122.8449817}, {"type": "node", "id": 1735983180, "lat": 49.1886618, "lon": -122.8448797}, {"type": "node", "id": 1735983181, "lat": 49.1886622, "lon": -122.8445831}, {"type": "node", "id": 1735983182, "lat": 49.1887242, "lon": -122.8449819}, {"type": "node", "id": 1735983183, "lat": 49.1887525, "lon": -122.8449723}, {"type": "node", "id": 1735983184, "lat": 49.1887742, "lon": -122.8449353}, {"type": "node", "id": 1735983185, "lat": 49.1887824, "lon": -122.8448801}, {"type": "node", "id": 1735983186, "lat": 49.1887828, "lon": -122.8445835}, {"type": "node", "id": 1736021535, "lat": 49.1917865, "lon": -122.8438, "tags": {"addr:housenumber": "13655", "addr:street": "104 Avenue", "amenity": "restaurant", "check_date": "2024-06-09", "name": "Bozzini's", "opening_hours": "Mo-Th 11:00-22:00; Fr 11:00-23:00; Sa 04:00-23:00; Su 16:00-22:00", "phone": "+1-604-588-6880", "website": "https://bozzinissurrey.com"}}, {"type": "node", "id": 1736021571, "lat": 49.1918267, "lon": -122.8442801, "tags": {"amenity": "restaurant"}}, {"type": "node", "id": 3309052402, "lat": 49.1910007, "lon": -122.8446255, "tags": {"addr:city": "Surrey", "addr:housenumber": "10362", "addr:street": "King George Boulevard", "amenity": "cafe", "brand": "Starbucks", "brand:wikidata": "Q37158", "brand:wikipedia": "en:Starbucks", "cuisine": "coffee_shop", "internet_access": "wlan", "name": "Starbucks", "official_name": "Starbucks Coffee", "opening_hours": "Mo-Fr 05:00-22:00; Sa 05:30-21:30; Su 06:00-21:30", "phone": "+1-604-581-2632", "smoking": "no", "source": "City of Surrey 2010 GIS Data", "surrey:addrid": "61625", "surrey:date": "19860317", "takeaway": "yes", "website": "https://www.starbucks.ca/", "wheelchair": "yes"}}, {"type": "node", "id": 3309053915, "lat": 49.1864097, "lon": -122.8502764, "tags": {"addr:city": "Surrey", "addr:housenumber": "10153", "addr:street": "King George Boulevard", "amenity": "cafe", "brand": "Tim Hortons", "brand:wikidata": "Q175106", "brand:wikipedia": "en:Tim Hortons", "cuisine": "coffee_shop", "drive_through": "no", "internet_access": "wlan", "name": "Tim Hortons", "phone": "+1-604-582-9147", "takeaway": "yes", "website": "https://www.timhortons.com/"}}, {"type": "node", "id": 3663875431, "lat": 49.1913787, "lon": -122.8449032, "tags": {"addr:housenumber": "10392", "addr:street": "King George Boulevard", "amenity": "fast_food", "brand": "Subway", "brand:wikidata": "Q244457", "brand:wikipedia": "en:Subway (restaurant)", "cuisine": "sandwich", "name": "Subway", "opening_hours": "Mo-Fr 07:00-00:00; Sa-Su 08:00-00:00", "phone": "+1-604-580-2554", "takeaway": "yes", "website": "https://www.subway.com/"}}, {"type": "node", "id": 3941068817, "lat": 49.1874788, "lon": -122.8457508}, {"type": "node", "id": 3941068818, "lat": 49.1874826, "lon": -122.8461802}, {"type": "node", "id": 3941068819, "lat": 49.1875005, "lon": -122.8461801}, {"type": "node", "id": 3941068820, "lat": 49.1875006, "lon": -122.8462393}, {"type": "node", "id": 3941068821, "lat": 49.1875314, "lon": -122.8461799}, {"type": "node", "id": 3941068822, "lat": 49.1875319, "lon": -122.8462392}, {"type": "node", "id": 3941068823, "lat": 49.1876622, "lon": -122.8457466}, {"type": "node", "id": 3941068824, "lat": 49.1876638, "lon": -122.8459063}, {"type": "node", "id": 3941068825, "lat": 49.1876679, "lon": -122.8459062}, {"type": "node", "id": 3941068826, "lat": 49.1876698, "lon": -122.846179}, {"type": "node", "id": 4416979822, "lat": 49.1863982, "lon": -122.8444496, "tags": {"addr:housenumber": "10102", "addr:street": "King George Boulevard", "amenity": "restaurant", "cuisine": "american", "name": "Fresgo Inn", "name:en": "Fresgo Inn Restaurant", "opening_hours": "Mo-Th 08:00-22:00; Fr-Sa 08:00-23:00; Su 09:00-22:00", "phone": "+1-604-588-0878", "website": "https://www.fresgorestaurant.com/"}}, {"type": "node", "id": 4470909367, "lat": 49.1934619, "lon": -122.8457041, "tags": {"addr:housenumber": "10505", "addr:street": "King George Boulevard", "amenity": "restaurant", "cuisine": "chinese", "name": "Rickshaw Chinese Food", "opening_hours": "Su-Th 10:30-22:00; Fr-Sa 10:30-23:00", "phone": "+1-604-581-1161", "website": "http://www.rickshawchinesefood.com/"}}, {"type": "node", "id": 4470911306, "lat": 49.1865512, "lon": -122.847648, "tags": {"addr:housenumber": "10153", "addr:street": "King George Boulevard", "amenity": "restaurant", "cuisine": "chinese", "name": "Neptune Seafood Restaurant", "opening_hours": "Mo-Fr 09:30-14:30, Mo-Su 17:00-21:30, Sa,Su 09:30-15:00", "phone": "+1-604-495-8886", "website": "http://www.neptune-restaurant.ca/"}}, {"type": "node", "id": 4485900169, "lat": 49.1880051, "lon": -122.8492686, "tags": {"amenity": "cafe", "brand": "Blenz Coffee", "brand:wikidata": "Q4926090", "cuisine": "coffee_shop", "name": "Blenz Coffee", "takeaway": "yes"}}, {"type": "node", "id": 4636877189, "lat": 49.1945691, "lon": -122.8456605, "tags": {"addr:city": "Surrey", "addr:housenumber": "10565", "addr:province": "BC", "addr:street": "King George Boulevard", "alt_name": "Kentucky Fried Chicken", "amenity": "fast_food", "brand": "KFC", "brand:wikidata": "Q524757", "cuisine": "chicken", "name": "KFC", "takeaway": "yes"}}, {"type": "node", "id": 4636882389, "lat": 49.1942617, "lon": -122.844799, "tags": {"addr:housenumber": "10542", "addr:street": "King George Boulevard", "amenity": "fast_food", "brand": "Church's Chicken", "brand:wikidata": "Q1089932", "brand:wikipedia": "en:Church's Chicken", "cuisine": "chicken", "name": "Church's Chicken", "name:en": "Church's Chicken", "opening_hours": "24/7", "phone": "+1-604-588-2252", "takeaway": "yes", "website": "http://www.churchschickenbc.ca/"}}, {"type": "node", "id": 4703005692, "lat": 49.1876519, "lon": -122.8447333, "tags": {"amenity": "restaurant", "check_date": "2025-07-02", "cuisine": "vietnamese", "internet_access": "wlan", "internet_access:fee": "customers", "internet_access:ssid": "allaboutpho", "name": "All About Pho", "name:en": "All About Pho", "opening_hours": "Su-Th 10:00-23:00; Fr-Sa 10:00-00:00", "phone": "+1-604-498-0222", "website": "https://www.allaboutpho.ca/"}}, {"type": "node", "id": 4744317225, "lat": 49.1863895, "lon": -122.8474565, "tags": {"amenity": "restaurant", "brand": "Boston Pizza", "brand:wikidata": "Q894578", "brand:wikipedia": "en:Boston Pizza", "cuisine": "pizza", "name": "Boston Pizza", "name:en": "Boston Pizza", "opening_hours": "Su-Th 11:00-23:00; Fr,Sa 11:00-24:00"}}, {"type": "node", "id": 4744317226, "lat": 49.1861186, "lon": -122.8474382, "tags": {"amenity": "restaurant", "name": "Ricky's", "name:en": "Ricky's"}}, {"type": "node", "id": 4744317229, "lat": 49.1861239, "lon": -122.8479282, "tags": {"amenity": "cafe", "name": "Blenz", "name:en": "Blenz"}}, {"type": "node", "id": 4744317231, "lat": 49.1860857, "lon": -122.8479254, "tags": {"amenity": "cafe", "brand": "Big Orange", "brand:wikidata": "Q125537935", "cuisine": "bubble_tea", "name": "Big Orange", "name:en": "Big Orange", "takeaway": "yes"}}, {"type": "node", "id": 4744317242, "lat": 49.1855201, "lon": -122.84755, "tags": {"amenity": "restaurant", "check_date": "2023-07-17", "cuisine": "vietnamese", "name": "An Nam", "phone": "+1-604-498-8111"}}, {"type": "node", "id": 4744317275, "lat": 49.1868482, "lon": -122.8490317, "tags": {"amenity": "fast_food", "brand": "Orange Julius", "brand:wikidata": "Q3355059", "brand:wikipedia": "en:Orange Julius", "cuisine": "juice", "name": "Orange Julius", "name:en": "Orange Julius", "takeaway": "yes"}}, {"type": "node", "id": 4744317276, "lat": 49.1871184, "lon": -122.8490357, "tags": {"amenity": "fast_food", "brand": "Booster Juice", "brand:wikidata": "Q4943796", "brand:wikipedia": "en:Booster Juice", "cuisine": "juice", "name": "Booster Juice", "name:en": "Booster Juice", "takeaway": "yes"}}, {"type": "node", "id": 4744317288, "lat": 49.1871177, "lon": -122.8491133, "tags": {"amenity": "fast_food", "brand": "A&W", "brand:wikidata": "Q2818848", "brand:wikipedia": "en:A&W (Canada)", "cuisine": "burger", "name": "A&W", "name:en": "A&W", "takeaway": "yes"}}, {"type": "node", "id": 4744317289, "lat": 49.1871162, "lon": -122.8492835, "tags": {"amenity": "fast_food", "name": "Go Grill", "name:en": "Go Grill"}}, {"type": "node", "id": 4744317290, "lat": 49.1871155, "lon": -122.8493572, "tags": {"amenity": "fast_food", "brand": "Manchu Wok", "brand:wikidata": "Q6747622", "brand:wikipedia": "en:Manchu Wok", "cuisine": "chinese", "name": "Manchu Wok", "name:en": "Manchu Wok", "takeaway": "yes"}}, {"type": "node", "id": 4744317291, "lat": 49.187114, "lon": -122.849531, "tags": {"amenity": "fast_food", "brand": "Freshslice Pizza", "brand:wikidata": "Q5503082", "cuisine": "pizza", "name": "Freshslice Pizza", "name:en": "Fresh Slice", "takeaway": "yes"}}, {"type": "node", "id": 4744317292, "lat": 49.1871697, "lon": -122.849752, "tags": {"amenity": "fast_food", "cuisine": "indian", "name": "Surrey Indian Bite", "old_name": "Little Saigon", "takeaway": "yes"}}, {"type": "node", "id": 4744317293, "lat": 49.1871291, "lon": -122.849602, "tags": {"amenity": "fast_food", "brand": "Quesada", "brand:wikidata": "Q66070360", "cuisine": "mexican", "name": "Quesada", "official_name": "Quesada Burritos & Tacos", "takeaway": "yes"}}, {"type": "node", "id": 4744317294, "lat": 49.1871919, "lon": -122.849834, "tags": {"alt_name": "Kentucky Fried Chicken", "amenity": "fast_food", "brand": "KFC", "brand:wikidata": "Q524757", "brand:wikipedia": "en:KFC", "cuisine": "chicken", "name": "KFC", "name:en": "KFC", "takeaway": "yes"}}, {"type": "node", "id": 4744349435, "lat": 49.1864343, "lon": -122.8488672, "tags": {"amenity": "cafe", "brand": "Starbucks", "brand:wikidata": "Q37158", "brand:wikipedia": "en:Starbucks", "cuisine": "coffee_shop", "name": "Starbucks", "name:en": "Starbucks", "official_name": "Starbucks Coffee", "takeaway": "yes"}}, {"type": "node", "id": 4744349438, "lat": 49.1867508, "lon": -122.848725, "tags": {"amenity": "cafe", "branch": "Fresh", "brand": "CoCo", "brand:wikidata": "Q65084369", "brand:wikipedia": "en:CoCo Fresh Tea & Juice", "cuisine": "bubble_tea", "name": "CoCo Fresh Tea & Juice", "shop": "tea", "short_name": "CoCo", "takeaway": "yes"}}, {"type": "node", "id": 4744349448, "lat": 49.187117, "lon": -122.8491994, "tags": {"amenity": "fast_food", "name": "Toyama Express"}}, {"type": "node", "id": 4744349449, "lat": 49.1871146, "lon": -122.8494584, "tags": {"amenity": "fast_food", "brand": "Charleys Philly Steaks", "brand:wikidata": "Q1066777", "brand:wikipedia": "en:Charleys Philly Steaks", "cuisine": "sandwich", "name": "Charleys Philly Steaks", "takeaway": "yes"}}, {"type": "node", "id": 4744349451, "lat": 49.1871485, "lon": -122.8496743, "tags": {"amenity": "fast_food", "name": "Opa!", "name:en": "Opa!"}}, {"type": "node", "id": 4744349452, "lat": 49.1869648, "lon": -122.8498822, "tags": {"amenity": "fast_food", "cuisine": "seafood", "disused:craft": "shoemaker", "name": "Steve's Pok\u00e9 Bar"}}, {"type": "node", "id": 4744349453, "lat": 49.186992, "lon": -122.84998, "tags": {"amenity": "fast_food", "brand": "Subway", "brand:wikidata": "Q244457", "brand:wikipedia": "en:Subway (restaurant)", "cuisine": "sandwich", "drive_through": "no", "name": "Subway", "name:en": "Subway", "takeaway": "yes"}}, {"type": "node", "id": 4744349459, "lat": 49.186768, "lon": -122.8499392, "tags": {"amenity": "fast_food", "brand": "Burger King", "brand:wikidata": "Q177054", "brand:wikipedia": "en:Burger King", "cuisine": "burger", "name": "Burger King", "name:en": "Burger King", "takeaway": "yes"}}, {"type": "node", "id": 4744363823, "lat": 49.1863136, "lon": -122.8480116, "tags": {"amenity": "fast_food", "brand": "Potato Corner", "brand:wikidata": "Q60741625", "cuisine": "fries", "name": "Potato Corner", "start_date": "2020", "takeaway": "yes"}}, {"type": "node", "id": 5422105678, "lat": 49.190346, "lon": -122.8448374, "tags": {"addr:housenumber": "10344", "addr:street": "King George Boulevard", "amenity": "fast_food", "brand": "Burger King", "brand:wikidata": "Q177054", "brand:wikipedia": "en:Burger King", "cuisine": "burger", "drive_through": "yes", "name": "Burger King", "opening_hours": "Su-Sa 05:30-22:00", "phone": "+1-604-584-3371", "takeaway": "yes", "website": "https://locations.burgerking.ca/bc/surrey/10344-king-george-blvd.html", "wheelchair": "yes"}}, {"type": "node", "id": 5422105679, "lat": 49.190348, "lon": -122.8450114, "tags": {"addr:city": "Surrey", "addr:housenumber": "10344", "addr:street": "King George Boulevard", "addr:unit": "102", "amenity": "restaurant", "cuisine": "sushi;japanese", "name": "Sushi King George", "opening_hours": "Mo-Sa 11:00-22:00; Su 11:00-21:00", "outdoor_seating": "no", "phone": "+1-778-395-8989", "smoking": "no", "website": "https://www.sushikinggeorge.com/", "wheelchair": "yes"}}, {"type": "node", "id": 5506259225, "lat": 49.1981403, "lon": -122.8421071, "tags": {"addr:housenumber": "10768", "addr:postcode": "V3T 0G1", "addr:street": "Whalley Boulevard", "addr:unit": "116", "alt_name": "Manis Restaurant", "amenity": "restaurant", "cuisine": "asian", "level": "0", "name": "Manis Pan-Asian Eatery", "opening_hours": "Mo,Tu,Th 11:30-15:00,16:30-20:00; We off; Fr 11:30-15:00,16:30-21:00; Sa 12:00-21:00; Su 11:30-20:00", "website": "https://www.manisrestaurant.com/"}}, {"type": "node", "id": 5778400993, "lat": 49.190781, "lon": -122.848331, "tags": {"addr:housenumber": "13475", "addr:street": "103 Avenue", "amenity": "cafe", "name": "Prado Cafe", "opening_hours": "Mo-Fr 07:00-17:00; Sa-Su 08:00-17:00", "phone": "+1-604-953-1010", "website": "https://www.pradocafe.com"}}, {"type": "node", "id": 5778400995, "lat": 49.1902621, "lon": -122.8482749, "tags": {"amenity": "restaurant", "name": "Dominion Bar & Kitchen", "outdoor_seating": "yes", "smoking": "no"}}, {"type": "node", "id": 5866838135, "lat": 49.1948776, "lon": -122.8443305, "tags": {"addr:city": "Surrey", "addr:housenumber": "10592", "addr:street": "King George Boulevard", "amenity": "restaurant", "name": "DONI Korean Restaurant"}}, {"type": "node", "id": 5866838137, "lat": 49.189735, "lon": -122.8474426, "tags": {"addr:city": "Surrey", "addr:housenumber": "10294", "addr:street": "City Parkway", "amenity": "restaurant", "cuisine": "chinese", "name": "Top King's Restaurant & Cafe"}}, {"type": "node", "id": 5866838138, "lat": 49.1899411, "lon": -122.847341, "tags": {"addr:city": "Surrey", "addr:housenumber": "10302", "addr:province": "BC", "addr:street": "City Parkway", "addr:unit": "1", "amenity": "restaurant", "cuisine": "japanese", "name": "Umami Ramen + Grill"}}, {"type": "node", "id": 5866838139, "lat": 49.1899408, "lon": -122.8468149, "tags": {"addr:city": "Surrey", "addr:housenumber": "10302", "addr:street": "City Parkway", "amenity": "restaurant", "cuisine": "vietnamese", "name": "Ph\u1edf T\u00e2m", "opening_hours": "Mo-Su 11:00-20:00"}}, {"type": "node", "id": 5866838140, "lat": 49.1892746, "lon": -122.8463189, "tags": {"addr:city": "Surrey", "addr:housenumber": "10257", "addr:street": "King George Boulevard", "amenity": "restaurant", "name": "Grandt Kitchen"}}, {"type": "node", "id": 5866838141, "lat": 49.1891857, "lon": -122.8463132, "tags": {"addr:city": "Surrey", "addr:housenumber": "10255", "addr:street": "King George Boulevard", "amenity": "cafe", "brand": "Chatime", "brand:en": "Chatime", "brand:wikidata": "Q16829306", "brand:wikipedia": "en:Chatime", "brand:zh": "\u65e5\u51fa\u8336\u592a", "cuisine": "bubble_tea", "name": "Chatime", "name:en": "Chatime", "name:zh": "\u65e5\u51fa\u8336\u592a", "takeaway": "yes"}}, {"type": "node", "id": 5866838142, "lat": 49.1889683, "lon": -122.8461338, "tags": {"addr:city": "Surrey", "addr:housenumber": "10241", "addr:street": "King George Boulevard", "amenity": "restaurant", "name": "Sushi & Roll"}}, {"type": "node", "id": 5866838143, "lat": 49.1880887, "lon": -122.8465151, "tags": {"addr:city": "Surrey", "addr:housenumber": "10209", "addr:street": "King George Boulevard", "addr:unit": "102", "amenity": "restaurant", "name": "Bubble 88"}}, {"type": "node", "id": 5866838146, "lat": 49.1845873, "lon": -122.843637, "tags": {"addr:city": "Surrey", "addr:housenumber": "10009", "addr:street": "Whalley Boulevard", "amenity": "restaurant", "check_date": "2025-05-21", "cuisine": "indian", "name": "Ustaad G 76"}}, {"type": "node", "id": 5866838147, "lat": 49.1821446, "lon": -122.8439927, "tags": {"addr:city": "Surrey", "addr:housenumber": "9900", "addr:street": "King George Boulevard", "amenity": "cafe", "brand": "Tim Hortons", "brand:wikidata": "Q175106", "brand:wikipedia": "en:Tim Hortons", "check_date": "2025-01-01", "cuisine": "coffee_shop", "drive_through": "no", "name": "Tim Hortons", "outdoor_seating": "no", "takeaway": "yes"}}, {"type": "node", "id": 5866838148, "lat": 49.1822909, "lon": -122.84436, "tags": {"addr:city": "Surrey", "addr:housenumber": "9900", "addr:street": "King George Boulevard", "amenity": "fast_food", "brand": "A&W", "brand:wikidata": "Q2818848", "brand:wikipedia": "en:A&W (Canada)", "cuisine": "burger", "name": "A&W", "takeaway": "yes"}}, {"type": "node", "id": 5866838149, "lat": 49.1829337, "lon": -122.844312, "tags": {"addr:city": "Surrey", "addr:housenumber": "9908", "addr:street": "King George Boulevard", "amenity": "fast_food", "brand": "Freshslice Pizza", "brand:wikidata": "Q5503082", "brand:wikipedia": "en:Freshslice Pizza", "cuisine": "pizza", "name": "Freshslice Pizza", "takeaway": "yes"}}, {"type": "node", "id": 5999692249, "lat": 49.1899409, "lon": -122.8469496, "tags": {"addr:housenumber": "10302", "addr:street": "City Pkwy", "amenity": "restaurant", "cuisine": "chinese", "name": "New Town Bakery"}}, {"type": "node", "id": 6297957737, "lat": 49.1896608, "lon": -122.847876, "tags": {"addr:city": "Surrey", "addr:housenumber": "10277", "addr:province": "BC", "addr:street": "City Parkway", "addr:unit": "111", "amenity": "fast_food", "cuisine": "pizza", "name": "Uncle Fatih\u2019s Pizza"}}, {"type": "node", "id": 6901279506, "lat": 49.189941, "lon": -122.847175, "tags": {"addr:city": "Surrey", "addr:housenumber": "10302", "addr:province": "BC", "addr:street": "City Parkway", "addr:unit": "4", "alt_name": "Ph\u1edf Ho\u00e0", "alt_name:en": "Pho Hoa", "alt_name:vi": "Ph\u1edf Ho\u00e0", "amenity": "restaurant", "branch": "Hong Vietnamese Restaurant", "brand": "Ph\u1edf H\u00f2a", "brand:wikidata": "Q55629932", "cuisine": "vietnamese;noodle", "name": "Ph\u1edf H\u00f2a", "name:vi": "Ph\u1edf H\u00f2a", "opening_hours": "Mo-Su 10:00-21:00"}}, {"type": "node", "id": 6988836747, "lat": 49.1880039, "lon": -122.8465109, "tags": {"amenity": "fast_food", "cuisine": "pizza", "name": "D-Plus Pizza", "phone": "+1 604 588 4545"}}, {"type": "node", "id": 6991459863, "lat": 49.1890794, "lon": -122.8474254, "tags": {"amenity": "fast_food", "brand": "Freshslice Pizza", "brand:wikidata": "Q5503082", "brand:wikipedia": "en:Freshslice Pizza", "cuisine": "pizza", "name": "Freshslice Pizza", "takeaway": "yes"}}, {"type": "node", "id": 6991459864, "lat": 49.1890081, "lon": -122.8474254, "tags": {"amenity": "cafe", "name": "Central Cafe"}}, {"type": "node", "id": 7272793341, "lat": 49.1946688, "lon": -122.844843, "tags": {"addr:housenumber": "10558", "addr:street": "King George Boulevard", "amenity": "fast_food", "brand": "Papa John's", "brand:wikidata": "Q2759586", "brand:wikipedia": "en:Papa John's Pizza", "cuisine": "pizza", "name": "Papa John's", "phone": "+1-604-954-0677", "takeaway": "yes"}}, {"type": "node", "id": 7272793342, "lat": 49.1947506, "lon": -122.844843, "tags": {"addr:housenumber": "10576", "addr:street": "King George Boulevard", "amenity": "restaurant", "leisure": "bowling_alley", "name": "Dell Lanes", "phone": "+1-604-581-8230", "website": "https://delllanes.ca"}}, {"type": "node", "id": 7399890113, "lat": 49.1886619, "lon": -122.8448014, "tags": {"entrance": "main"}}, {"type": "node", "id": 7399890115, "lat": 49.1876682, "lon": -122.8459561, "tags": {"entrance": "main"}}, {"type": "node", "id": 7783141719, "lat": 49.1895759, "lon": -122.8478744, "tags": {"amenity": "fast_food", "cuisine": "donair", "drive_through": "no", "name": "Donair Hub"}}, {"type": "node", "id": 8358659820, "lat": 49.1886617, "lon": -122.8449525, "tags": {"entrance": "yes"}}, {"type": "node", "id": 9223435625, "lat": 49.19063, "lon": -122.847976, "tags": {"addr:city": "Surrey", "addr:housenumber": "10305", "addr:province": "BC", "addr:street": "City Parkway", "addr:unit": "104", "amenity": "restaurant", "brand": "Freshii", "brand:wikidata": "Q5503051", "brand:wikipedia": "en:Freshii", "cuisine": "salad", "name": "Freshii"}}, {"type": "node", "id": 9223435626, "lat": 49.1896312, "lon": -122.8474531, "tags": {"addr:city": "Surrey", "addr:housenumber": "10294", "addr:province": "BC", "addr:street": "City Parkway", "addr:unit": "104", "amenity": "cafe", "brand": "Gong Cha", "brand:wikidata": "Q5581670", "brand:wikipedia": "en:Gong Cha", "brand:zh": "\u8ca2\u8336", "cuisine": "bubble_tea", "int_name": "Gong Cha", "name": "Gong Cha", "name:zh": "\u8ca2\u8336", "takeaway": "yes"}}, {"type": "node", "id": 9223435627, "lat": 49.1899799, "lon": -122.8480699, "tags": {"addr:city": "Surrey", "addr:housenumber": "10277", "addr:province": "BC", "addr:street": "City Parkway", "addr:unit": "120", "amenity": "cafe", "brand": "Tim Hortons", "brand:wikidata": "Q175106", "brand:wikipedia": "en:Tim Hortons", "cuisine": "coffee_shop", "name": "Tim Hortons", "takeaway": "yes"}}, {"type": "node", "id": 9223435628, "lat": 49.1845633, "lon": -122.8446011, "tags": {"addr:city": "Surrey", "addr:housenumber": "13631", "addr:province": "BC", "addr:street": "100 Avenue", "amenity": "restaurant", "check_date": "2025-05-21", "name": "Newton Hotpot", "old_name": "Flame On Mongolian Grill"}}, {"type": "node", "id": 9223435629, "lat": 49.1963325, "lon": -122.845583, "tags": {"addr:city": "Surrey", "addr:housenumber": "10663", "addr:province": "BC", "addr:street": "King George Boulevard", "air_conditioning": "yes", "amenity": "restaurant", "check_date": "2024-09-08", "check_date:opening_hours": "2024-09-08", "cuisine": "african", "indoor_seating": "yes", "name": "Taste of Africa", "opening_hours": "Tu-Fr 12:00-20:30; Sa 12:00-20:00; Su 12:20-20:00", "outdoor_seating": "no", "payment:credit_cards": "yes", "payment:debit_cards": "yes", "phone": "+1-604-582-4803", "smoking": "no", "website": "https://tasteofafrica.zomi.menu/", "wheelchair": "yes"}}, {"type": "node", "id": 10588691006, "lat": 49.18181, "lon": -122.8437168, "tags": {"addr:city": "Surrey", "addr:housenumber": "13639", "addr:province": "BC", "addr:street": "George Junction", "addr:unit": "103", "amenity": "restaurant", "cuisine": "japanese", "name": "KINTON RAMEN"}}, {"type": "node", "id": 10588691007, "lat": 49.1815854, "lon": -122.8450706, "tags": {"addr:city": "Surrey", "addr:housenumber": "9850", "addr:province": "BC", "addr:street": "King George Boulevard", "addr:unit": "110", "amenity": "fast_food", "brand": "Jollibee", "brand:wikidata": "Q37614", "check_date": "2024-04-03", "cuisine": "burger", "internet_access": "wlan", "internet_access:fee": "customers", "name": "Jollibee", "opening_hours": "09:00-22:00", "payment:cash": "yes", "payment:credit_cards": "yes", "payment:debit_cards": "yes", "phone": "+1-236-900-1952", "takeaway": "yes", "wheelchair": "yes"}}, {"type": "node", "id": 10588691008, "lat": 49.1815364, "lon": -122.8439289, "tags": {"addr:city": "Surrey", "addr:housenumber": "13660", "addr:province": "BC", "addr:street": "George Junction", "amenity": "cafe", "brand": "Starbucks", "brand:wikidata": "Q37158", "cuisine": "coffee_shop", "name": "Starbucks", "official_name": "Starbucks Coffee", "takeaway": "yes"}}, {"type": "node", "id": 10588691011, "lat": 49.1820709, "lon": -122.8436052, "tags": {"addr:city": "Surrey", "addr:housenumber": "13639", "addr:province": "BC", "addr:street": "George Junction", "addr:unit": "106", "amenity": "restaurant", "check_date": "2025-01-01", "internet_access": "wlan", "internet_access:fee": "customers", "internet_access:ssid": "welcome123", "name": "Pho 68", "opening_hours": "11:00-22:00"}}, {"type": "node", "id": 10588691012, "lat": 49.1815234, "lon": -122.8437147, "tags": {"addr:city": "Surrey", "addr:housenumber": "13660", "addr:province": "BC", "addr:street": "George Junction", "addr:unit": "160", "amenity": "fast_food", "brand": "Subway", "brand:wikidata": "Q244457", "cuisine": "sandwich", "name": "Subway", "takeaway": "yes"}}, {"type": "node", "id": 10588691013, "lat": 49.1807575, "lon": -122.8445437, "tags": {"addr:city": "Surrey", "addr:housenumber": "13615", "addr:province": "BC", "addr:street": "Fraser Highway", "addr:unit": "120", "amenity": "restaurant", "name": "Ruex Caf\u00e9 & Bar"}}, {"type": "node", "id": 10889531165, "lat": 49.1815554, "lon": -122.8438437, "tags": {"addr:city": "Surrey", "addr:housenumber": "13660", "addr:province": "BC", "addr:street": "George Junction", "addr:unit": "150", "amenity": "fast_food", "brand": "Panago", "brand:wikidata": "Q17111672", "cuisine": "pizza", "name": "Panago", "takeaway": "yes"}}, {"type": "node", "id": 10889531166, "lat": 49.1814971, "lon": -122.8435709, "tags": {"addr:city": "Surrey", "addr:housenumber": "13660", "addr:province": "BC", "addr:street": "George Junction", "addr:unit": "170", "amenity": "restaurant", "cuisine": "sushi", "name": "Sushi Street"}}, {"type": "node", "id": 10889531167, "lat": 49.1814401, "lon": -122.8435132, "tags": {"addr:city": "Surrey", "addr:housenumber": "13660", "addr:province": "BC", "addr:street": "George Junction", "addr:unit": "180", "amenity": "cafe", "cuisine": "bubble_tea", "name": "Presotea"}}, {"type": "node", "id": 10889531168, "lat": 49.1811913, "lon": -122.843764, "tags": {"addr:city": "Surrey", "addr:housenumber": "13660", "addr:province": "BC", "addr:street": "George Junction", "addr:unit": "110", "amenity": "restaurant", "cuisine": "breakfast;diner", "name": "Waffle House Diner", "opening_hours": "Mo-Su 08:00-18:00", "phone": "+1 604-496-1117", "start_date": "2023-05", "website": "https://wafflehousediner.com"}}, {"type": "node", "id": 10925304606, "lat": 49.1980603, "lon": -122.8421098, "tags": {"addr:housenumber": "10768", "addr:street": "Whalley Boulevard", "amenity": "fast_food", "brand": "Domino's", "brand:wikidata": "Q839466", "cuisine": "pizza", "level": "0", "name": "Domino's", "opening_hours": "Su-Th 10:00-01:00; Fr-Sa 10:00-02:00", "phone": "+1-604-585-9800", "takeaway": "yes", "website": "https://www.dominos.ca/"}}, {"type": "node", "id": 11120960931, "lat": 49.1899397, "lon": -122.850122, "tags": {"addr:housenumber": "10299", "addr:street": "University Drive", "addr:unit": "V3T 0N3", "amenity": "cafe", "cuisine": "cheesecake", "email": "surreymanager@treescoffee.com", "name": "Trees Organic Coffee & Cheesecake", "opening_hours": "Mo-Fr 07:00-24:00; Sa-Su 08:00-24:00", "phone": "+1-604-684-5060", "website": "https://treescoffee.com/"}}, {"type": "node", "id": 11135027270, "lat": 49.1907076, "lon": -122.8479761, "tags": {"addr:unit": "103", "amenity": "restaurant", "cuisine": "indian", "name": "D-Plus Curry House", "website": "dpluscurreyhouse.com"}}, {"type": "node", "id": 11270709118, "lat": 49.1845652, "lon": -122.844393, "tags": {"addr:city": "Surrey", "addr:housenumber": "13635", "addr:postcode": "V3T 1H9", "addr:province": "BC", "addr:street": "100 Avenue", "amenity": "fast_food", "check_date": "2025-05-21", "cuisine": "kebab", "drive_through": "+1-604-589-1327", "name": "King George Donair", "takeaway": "yes", "website": "https://kinggeorgedonair.ca"}}, {"type": "node", "id": 11582696185, "lat": 49.1828263, "lon": -122.8450068, "tags": {"amenity": "fast_food", "brand": "Freshslice Pizza", "brand:wikidata": "Q5503082", "cuisine": "pizza", "name": "Freshslice Pizza", "takeaway": "yes"}}, {"type": "node", "id": 11582708747, "lat": 49.1830091, "lon": -122.8445188, "tags": {"amenity": "fast_food", "brand": "Pita Pit", "brand:wikidata": "Q7757289", "cuisine": "pita", "name": "Pita Pit", "takeaway": "yes"}}, {"type": "node", "id": 11582734468, "lat": 49.1845682, "lon": -122.8437612, "tags": {"addr:housenumber": "13651", "addr:street": "100 Avenue", "amenity": "fast_food", "check_date": "2025-05-21", "cuisine": "pizza", "name": "A-1Pizza"}}, {"type": "node", "id": 12101703002, "lat": 49.1819249, "lon": -122.8436855, "tags": {"addr:housenumber": "13639", "addr:street": "George Junction", "addr:unit": "105", "amenity": "restaurant", "check_date": "2024-08-09", "cuisine": "asian", "name": "Rice and Noodle", "phone": "+1 2364272520"}}, {"type": "node", "id": 12103782486, "lat": 49.1914366, "lon": -122.8571974, "tags": {"addr:housenumber": "13186", "addr:postcode": "V3T1T5", "addr:street": "104 Avenue", "amenity": "fast_food", "check_date": "2024-08-10", "cuisine": "pizza", "name": "Ocean Park Pizza", "phone": "+1 6045859255"}}, {"type": "node", "id": 12290965975, "lat": 49.1866524, "lon": -122.8495796, "tags": {"amenity": "cafe", "name": "Chiiwala of London"}}, {"type": "node", "id": 12455310380, "lat": 49.182038, "lon": -122.8459243, "tags": {"addr:city": "Surrey", "addr:housenumber": "9873", "addr:province": "BC", "addr:street": "King George Boulevard", "amenity": "restaurant", "name": "Combine Cafe & Bar"}}, {"type": "node", "id": 12455310386, "lat": 49.1912503, "lon": -122.8364887, "tags": {"addr:city": "Surrey", "addr:housenumber": "13922", "addr:province": "BC", "addr:street": "104 Avenue", "amenity": "restaurant", "cuisine": "chinese", "name": "King Do Seafood Restaurant"}}, {"type": "node", "id": 12607421595, "lat": 49.1887011, "lon": -122.8515284, "tags": {"addr:city": "Surrey", "addr:housenumber": "13380", "addr:province": "BC", "addr:street": "102A Avenue", "amenity": "cafe", "cuisine": "coffee_shop", "name": "Nemesis Coffee", "opening_hours": "Mo-Fr 07:00-17:00; Sa-Su 09:00-17:00", "website": "https://www.nemesis.coffee/"}}, {"type": "node", "id": 12996449410, "lat": 49.1914464, "lon": -122.8507537, "tags": {"addr:housenumber": "13402", "addr:street": "104 Avenue", "addr:unit": "103", "amenity": "fast_food", "capacity": "21", "cuisine": "sandwich", "diet:non-vegetarian": "yes", "diet:vegan": "yes", "diet:vegetarian": "yes", "email": "surreycentral@bigstarsandwich.com", "level": "0", "name": "Big Star Sandwich Co.", "opening_hours": "Mo-Fr 10:00-19:00; Sa 11:00-18:00; Su 11:00-16:00; PH 11:00-16:00", "phone": "+1-604-498-3101", "toilets": "yes", "toilets:wheelchair": "yes", "website": "https://bigstarsandwich.com/", "wheelchair": "yes"}}, {"type": "node", "id": 12996449415, "lat": 49.1918561, "lon": -122.8503138, "tags": {"addr:housenumber": "10418", "addr:street": "University Drive", "amenity": "restaurant", "cuisine": "japanese", "level": "0", "name": "Kokoro Japanese Ramen House", "opening_hours": "Mo-Su 11:20-22:00", "phone": "+1-604-953-0161", "website": "https://menyakokoro.com/"}}, {"type": "node", "id": 13027799823, "lat": 49.187633, "lon": -122.8434895, "tags": {"addr:housenumber": "13650", "addr:street": "102 Avenue", "addr:unit": "102", "amenity": "restaurant", "check_date": "2025-07-26", "cuisine": "indian", "name": "AHA Indian Food Paradise"}}, {"type": "node", "id": 13061192473, "lat": 49.1911074, "lon": -122.8491663, "tags": {"amenity": "cafe", "level": "0", "name": "Take Five Caf\u00e9", "website": "https://www.takefivecafe.ca/store/surrey/"}}, {"type": "node", "id": 13061192475, "lat": 49.1877134, "lon": -122.8485694, "tags": {"addr:housenumber": "13450", "addr:street": "102 Avenue", "addr:unit": "190", "amenity": "restaurant", "diet:gluten_free": "yes", "diet:vegetarian": "yes", "indoor_seating": "yes", "name": "Skye Avenue Kitchen & Lounge", "opening_hours": "Su-Th 11:00-22:00; Fr-Sa 11:00-24:00", "outdoor_seating": "yes", "phone": "+1-604-590-0900", "smoking": "no", "website": "https://skyeavenue.com/"}}, {"type": "way", "id": 161623000, "nodes": [1735983186, 1735983181, 7399890113, 1735983180, 8358659820, 1735983179, 1735983182, 1735983183, 1735983184, 1735983185, 1735983186], "tags": {"addr:city": "Surrey", "addr:housenumber": "10240", "addr:street": "King George Boulevard", "amenity": "fast_food", "brand": "McDonald's", "brand:wikidata": "Q38076", "brand:wikipedia": "en:McDonald's", "building": "retail", "cuisine": "burger", "drive_through": "yes", "internet_access": "wlan", "name": "McDonald's", "opening_hours": "24/7", "phone": "+1-604-587-7015", "surrey:addrid": "5543", "surrey:date": "19850924", "takeaway": "yes", "website": "http://www.mcdonalds.ca/"}}, {"type": "way", "id": 390952997, "nodes": [3941068818, 3941068819, 3941068820, 3941068822, 3941068821, 3941068826, 7399890115, 3941068825, 3941068824, 3941068823, 3941068817, 3941068818], "tags": {"addr:city": "Surrey", "addr:housenumber": "13580", "addr:street": "102 Avenue", "amenity": "restaurant", "brand": "White Spot", "brand:wikidata": "Q7995414", "brand:wikipedia": "en:White Spot", "building": "yes", "check_date": "2025-07-02", "cuisine": "burger", "name": "White Spot", "opening_hours": "Mo-Sa 06:30-23:00; Su 08:00-22:00", "phone": "+1-604-581-2511", "smoking": "no", "source": "City of Surrey 2010 GIS Data", "surrey:addrid": "42220", "surrey:date": "19850801", "takeaway": "yes", "website": "https://www.whitespot.ca/", "wheelchair": "yes"}}]}