{"version": 0.6, "generator": "Overpass API 0.7.62.8 e802775f", "osm3s": {"timestamp_osm_base": "2025-11-22T19:06:56Z", "copyright": "The data included in this document is from www.openstreetmap.org. The data is made available under ODbL."}, "elements": [{"type": "node", "id": 430973593, "lat": 49.2782824, "lon": -123.1066962}, {"type": "node", "id": 638863775, "lat": 49.2835251, "lon": -123.1306011}, {"type": "node", "id": 638863778, "lat": 49.2838065, "lon": -123.1301891}, {"type": "node", "id": 990861185, "lat": 49.2791171, "lon": -123.116727, "tags": {"addr:city": "Vancouver", "addr:province": "BC", "addr:street": "Robson Street", "amenity": "college", "name": "Canada Capstone College"}}, {"type": "node", "id": 1313402023, "lat": 49.283118, "lon": -123.1154181}, {"type": "node", "id": 1313402026, "lat": 49.2833438, "lon": -123.1157728}, {"type": "node", "id": 1313402030, "lat": 49.2834986, "lon": -123.1148488}, {"type": "node", "id": 1430667751, "lat": 49.2783698, "lon": -123.106668}, {"type": "node", "id": 1529901614, "lat": 49.284384, "lon": -123.1122171}, {"type": "node", "id": 1572442577, "lat": 49.2841856, "lon": -123.1118953}, {"type": "node", "id": 1572442592, "lat": 49.2846899, "lon": -123.1111394}, {"type": "node", "id": 1798834303, "lat": 49.2769886, "lon": -123.1306637, "tags": {"addr:city": "Vancouver", "addr:housenumber": "1351", "addr:province": "BC", "addr:street": "Hornby Street", "amenity": "school", "name": "Anchor Point Montesorri", "wheelchair": "limited"}}, {"type": "node", "id": 2321115328, "lat": 49.2835511, "lon": -123.1297912}, {"type": "node", "id": 2421458447, "lat": 49.2827045, "lon": -123.1294749}, {"type": "node", "id": 2421458448, "lat": 49.2827059, "lon": -123.1291838}, {"type": "node", "id": 2421458450, "lat": 49.2829293, "lon": -123.1288227}, {"type": "node", "id": 2421458457, "lat": 49.2830327, "lon": -123.1289857}, {"type": "node", "id": 2421458462, "lat": 49.2831693, "lon": -123.1291946}, {"type": "node", "id": 2421458465, "lat": 49.2832254, "lon": -123.1302996}, {"type": "node", "id": 2421458469, "lat": 49.2833194, "lon": -123.1302916}, {"type": "node", "id": 3038387111, "lat": 49.2787173, "lon": -123.1068232}, {"type": "node", "id": 3038387112, "lat": 49.2786843, "lon": -123.106651}, {"type": "node", "id": 3038387138, "lat": 49.2789115, "lon": -123.1069739}, {"type": "node", "id": 3038387139, "lat": 49.2788888, "lon": -123.1068434}, {"type": "node", "id": 3038387140, "lat": 49.2789063, "lon": -123.1068326}, {"type": "node", "id": 3038387141, "lat": 49.2788888, "lon": -123.1067455}, {"type": "node", "id": 3038387149, "lat": 49.2786264, "lon": -123.1072284}, {"type": "node", "id": 3038387150, "lat": 49.2786931, "lon": -123.1071986}, {"type": "node", "id": 3038387151, "lat": 49.2787561, "lon": -123.1071396}, {"type": "node", "id": 3038387152, "lat": 49.2788313, "lon": -123.1071076}, {"type": "node", "id": 3038387153, "lat": 49.2788856, "lon": -123.1071026}, {"type": "node", "id": 3059998251, "lat": 49.2830743, "lon": -123.1106633}, {"type": "node", "id": 3059998252, "lat": 49.2828389, "lon": -123.1110132}, {"type": "node", "id": 3059998254, "lat": 49.2832737, "lon": -123.1109718}, {"type": "node", "id": 3059998255, "lat": 49.2830402, "lon": -123.1113258}, {"type": "node", "id": 3675538329, "lat": 49.2846438, "lon": -123.1112085}, {"type": "node", "id": 3675538332, "lat": 49.2842347, "lon": -123.1118217}, {"type": "node", "id": 3675538333, "lat": 49.2848908, "lon": -123.1114473}, {"type": "node", "id": 3675538336, "lat": 49.2845878, "lon": -123.1112924}, {"type": "node", "id": 3676025254, "lat": 49.2845041, "lon": -123.1120359}, {"type": "node", "id": 3676025256, "lat": 49.2848589, "lon": -123.1114957}, {"type": "node", "id": 3676025257, "lat": 49.2848166, "lon": -123.1115599}, {"type": "node", "id": 3676869552, "lat": 49.2848829, "lon": -123.1114593}, {"type": "node", "id": 3725404708, "lat": 49.2824032, "lon": -123.1085513, "tags": {"addr:housenumber": "149", "addr:street": "West Hastings Street", "alt_name": "SFU Woodwards", "amenity": "university", "name": "Simon Fraser University", "short_name": "SFU", "website": "https://www.sfu.ca/"}}, {"type": "node", "id": 3734942644, "lat": 49.2809046, "lon": -123.124905, "tags": {"addr:city": "Vancouver", "addr:housenumber": "981", "addr:postcode": "V6Z 3B6", "addr:province": "BC", "addr:street": "Nelson Street", "amenity": "school", "check_date": "2024-03-04", "email": "info@pattisonhighschool.ca", "grades": "9-12", "name": "Pattison High School", "toilets:wheelchair": "yes", "website": "https://www.pattisonhighschool.ca/", "wheelchair": "yes"}}, {"type": "node", "id": 3755319079, "lat": 49.2835785, "lon": -123.1147762, "tags": {"addr:city": "Vancouver", "addr:housenumber": "543", "addr:province": "BC", "addr:street": "Seymour Street", "amenity": "school", "name": "Cornerstone Community College"}}, {"type": "node", "id": 3755320481, "lat": 49.2833602, "lon": -123.1145916, "tags": {"addr:city": "Vancouver", "addr:housenumber": "554", "addr:province": "BC", "addr:street": "Seymour Street", "amenity": "school"}}, {"type": "node", "id": 3769892480, "lat": 49.28166, "lon": -123.127029, "tags": {"addr:city": "Vancouver", "addr:housenumber": "1016", "addr:province": "BC", "addr:street": "Nelson Street", "amenity": "college", "check_date": "2025-08-05", "name": "Vanwest College"}}, {"type": "node", "id": 3843236755, "lat": 49.2798087, "lon": -123.1176899, "tags": {"addr:city": "Vancouver", "addr:housenumber": "460", "addr:postcode": "V6B 2B5", "addr:province": "BC", "addr:street": "Robson Street", "amenity": "college", "branch": "Downtown Campus \u2013 Robson", "description": "Learn from award-winning instructors and industry experts at Blanche Macdonald Centre, a leading college for makeup, hair, fashion, esthetics and nail artistry. Explore our programs, stories, admissions and student resources.", "name": "Blanche MacDonald Centre", "phone": "+1 604 685 0337", "website": "https://www.blanchemacdonald.com/"}}, {"type": "node", "id": 4232965028, "lat": 49.2839535, "lon": -123.115639, "tags": {"addr:city": "Vancouver", "addr:housenumber": "560", "addr:province": "BC", "addr:street": "Granville Street", "amenity": "college", "check_date": "2025-08-21", "name": "Greystone College Vancouver"}}, {"type": "node", "id": 4261863289, "lat": 49.2786617, "lon": -123.114003, "tags": {"addr:city": "Vancouver", "addr:housenumber": "750", "addr:province": "BC", "addr:street": "Cambie Street", "addr:unit": "200", "amenity": "school", "check_date": "2024-07-18", "name": "EF International Language Centre Vancouver", "opening_hours": "Mo-Fr", "website": "https://www.ef.com.br/contact/schools/canada/vancouver"}}, {"type": "node", "id": 4390232009, "lat": 49.2827302, "lon": -123.115289, "tags": {"addr:city": "Vancouver", "addr:housenumber": "578", "addr:street": "Dunsmuir Street", "amenity": "school", "name": "Enjoy Canada"}}, {"type": "node", "id": 4454235293, "lat": 49.2888774, "lon": -123.121472, "tags": {"addr:city": "Vancouver", "addr:housenumber": "1186", "addr:province": "BC", "addr:street": "West Cordova Street", "amenity": "school", "name": "ILAC", "name:en": "ILAC", "name:fr": "ILAC"}}, {"type": "node", "id": 4826324888, "lat": 49.2876052, "lon": -123.124216, "tags": {"addr:city": "Vancouver", "addr:province": "BC", "amenity": "college", "name": "Ashton College", "website": "https://www.ashtoncollege.ca/vancouver-campus/", "wikidata": "Q4806022"}}, {"type": "node", "id": 4888589421, "lat": 49.2819085, "lon": -123.108188, "tags": {"addr:city": "Vancouver", "addr:housenumber": "128", "addr:province": "BC", "addr:street": "West Hastings Street", "amenity": "school", "name": "Light House Labs", "name:en": "Light House Labs"}}, {"type": "node", "id": 5010472966, "lat": 49.2837148, "lon": -123.1140662, "tags": {"addr:city": "Vancouver", "addr:housenumber": "520", "addr:province": "BC", "addr:street": "Seymour Street", "amenity": "university", "name": "Adler University", "website": "https://www.adler.edu/page/campuses/vancouver"}}, {"type": "node", "id": 5049976076, "lat": 49.2785634, "lon": -123.1072631}, {"type": "node", "id": 5049976077, "lat": 49.2783617, "lon": -123.1068767}, {"type": "node", "id": 5049976078, "lat": 49.2786609, "lon": -123.1065338}, {"type": "node", "id": 5062659359, "lat": 49.2844007, "lon": -123.115654, "tags": {"addr:city": "Vancouver", "addr:housenumber": "535", "addr:province": "BC", "addr:street": "Granville Street", "amenity": "school", "level": "0", "name": "VGC International College"}}, {"type": "node", "id": 5162084604, "lat": 49.2824292, "lon": -123.121177, "tags": {"addr:city": "Vancouver", "addr:housenumber": "800", "addr:postcode": "V6Z 3B7", "addr:street": "Robson Street", "amenity": "university", "internet_access": "yes", "internet_access:fee": "no", "internet_access:ssid": "ubcvisitor", "level": "-1;-2", "name": "UBC Robson Square", "opening_hours": "Mo-Fr 07:00-22:00; Sa-Su 08:00-17:00", "operator": "University of British Columbia", "phone": "+1-604-822-3333", "website": "https://robsonsquare.ubc.ca/", "wheelchair": "yes"}}, {"type": "node", "id": 5241750021, "lat": 49.2773055, "lon": -123.116045, "tags": {"addr:city": "Vancouver", "addr:province": "BC", "addr:street": "Cambie Street", "amenity": "school", "name": "Global Village English Centers", "phone": "+1-604-684-2112", "website": "https://gvenglish.com/schools/canada/vancouver.html"}}, {"type": "node", "id": 5251394287, "lat": 49.2831009, "lon": -123.1290878}, {"type": "node", "id": 5251408041, "lat": 49.2831738, "lon": -123.1302246}, {"type": "node", "id": 5251408042, "lat": 49.28318, "lon": -123.1302052}, {"type": "node", "id": 5251408043, "lat": 49.2834161, "lon": -123.130437, "tags": {"barrier": "gate"}}, {"type": "node", "id": 5251408044, "lat": 49.2834914, "lon": -123.1305504}, {"type": "node", "id": 5251408051, "lat": 49.2829421, "lon": -123.1298398}, {"type": "node", "id": 5417490423, "lat": 49.2837244, "lon": -123.1152035}, {"type": "node", "id": 5476825016, "lat": 49.2811388, "lon": -123.1123501, "tags": {"barrier": "kerb", "kerb": "lowered", "tactile_paving": "no"}}, {"type": "node", "id": 5476825017, "lat": 49.2806017, "lon": -123.1115051, "tags": {"barrier": "kerb", "kerb": "lowered", "tactile_paving": "no"}}, {"type": "node", "id": 6629504831, "lat": 49.2795986, "lon": -123.1228028, "tags": {"addr:city": "Vancouver", "addr:housenumber": "987", "addr:postcode": "V6Z 1L3", "addr:province": "BC", "addr:street": "Granville Street", "amenity": "college", "name": "New Image College", "phone": "+1-866-354-6243", "website": "https://newimage.ca/"}}, {"type": "node", "id": 6783692403, "lat": 49.2812082, "lon": -123.114825, "tags": {"addr:city": "Vancouver", "addr:housenumber": "401", "addr:postcode": "V6B 5A1", "addr:province": "BC", "addr:street": "West Georgia Street", "addr:unit": "600", "amenity": "college", "name": "Lighthouse Labs"}}, {"type": "node", "id": 6859044407, "lat": 49.2832374, "lon": -123.107818, "tags": {"addr:housenumber": "151", "addr:street": "West Cordova Street", "amenity": "school", "name": "Vancouver Film School"}}, {"type": "node", "id": 8120172824, "lat": 49.2820183, "lon": -123.1110159, "tags": {"barrier": "kerb", "kerb": "lowered", "tactile_paving": "no"}}, {"type": "node", "id": 8402215131, "lat": 49.2842936, "lon": -123.1095896, "tags": {"addr:city": "Vancouver", "addr:housenumber": "328", "addr:postcode": "V6B 1B6", "addr:province": "BC", "addr:street": "Water Street", "addr:unit": "300", "amenity": "school", "name": "Sino Bright School BC", "website": "https://www.sinobrightschools.com/"}}, {"type": "node", "id": 9594169828, "lat": 49.2786638, "lon": -123.1065445}, {"type": "node", "id": 9594169840, "lat": 49.2785965, "lon": -123.1065635}, {"type": "node", "id": 9906294558, "lat": 49.2846393, "lon": -123.1231492, "tags": {"addr:city": "Vancouver", "addr:housenumber": "1050", "addr:province": "BC", "addr:street": "Alberni Street", "addr:unit": "2000", "amenity": "college", "name": "Canadian College", "website": "https://www.canadiancollege.com/", "wikidata": "Q5029883"}}, {"type": "node", "id": 10052755932, "lat": 49.2805472, "lon": -123.1158219, "tags": {"addr:city": "Vancouver", "addr:housenumber": "410", "addr:province": "BC", "addr:street": "West Georgia Street", "addr:unit": "1400", "amenity": "university", "branch": "Vancouver", "name": "Northeastern University"}}, {"type": "node", "id": 11286421015, "lat": 49.2789331, "lon": -123.107098}, {"type": "node", "id": 11432902216, "lat": 49.2819642, "lon": -123.1254284, "tags": {"addr:city": "Vancouver", "addr:housenumber": "909", "addr:province": "BC", "addr:street": "Burrard Street", "addr:unit": "Floor 3", "amenity": "college", "name": "Canada College Vancouver", "phone": "+1-604-620-8088", "website": "https://canadacollegevancouver.com/"}}, {"type": "node", "id": 11461417183, "lat": 49.2826985, "lon": -123.1153061, "tags": {"addr:housenumber": "570", "addr:street": "Dunsmuir Street", "addr:unit": "400", "amenity": "school", "grades": "10-12", "name": "Alexander Academy", "operator:type": "private", "phone": "+1-604-687-8832", "religion": "none", "website": "https://www.alexanderacademy.ca/"}}, {"type": "node", "id": 11742811569, "lat": 49.2767088, "lon": -123.1156086, "tags": {"addr:city": "Vancouver", "addr:housenumber": "101", "addr:postcode": "V6B 4Z8", "addr:province": "BC", "addr:street": "Smithe Street", "amenity": "college", "name": "Canadian College of Technology and Business", "opening_hours": "Mo 06:00-15:00; Tu-Fr 08:00-17:00", "phone": "+1 778-300-0977", "website": "https://www.canadianctb.ca"}}, {"type": "node", "id": 12121234526, "lat": 49.2850163, "lon": -123.1146838, "tags": {"addr:city": "Vancouver", "addr:housenumber": "455", "addr:postcode": "V6C 1T1", "addr:province": "BC", "addr:street": "Granville Street", "amenity": "college", "name": "Brainstation", "website": "https://brainstation.io/vancouve"}}, {"type": "node", "id": 12454888387, "lat": 49.2794052, "lon": -123.1223713, "tags": {"addr:city": "Vancouver", "addr:housenumber": "978", "addr:province": "BC", "addr:street": "Granville Street", "amenity": "college", "name": "Cornerstone Community College"}}, {"type": "node", "id": 12618829201, "lat": 49.2815497, "lon": -123.1102159}, {"type": "node", "id": 12618829202, "lat": 49.2815331, "lon": -123.1101921}, {"type": "node", "id": 12618829203, "lat": 49.2815203, "lon": -123.1101782, "tags": {"barrier": "kerb", "kerb": "lowered", "tactile_paving": "no"}}, {"type": "node", "id": 12618829204, "lat": 49.2815043, "lon": -123.1101689}, {"type": "node", "id": 12618829205, "lat": 49.2814906, "lon": -123.1101662}, {"type": "node", "id": 12618829206, "lat": 49.2814801, "lon": -123.1101689, "tags": {"barrier": "kerb", "kerb": "lowered", "tactile_paving": "no"}}, {"type": "node", "id": 12618829207, "lat": 49.2814647, "lon": -123.1101778}, {"type": "node", "id": 12618829208, "lat": 49.2814528, "lon": -123.1101938}, {"type": "node", "id": 12618829209, "lat": 49.2806206, "lon": -123.1114552}, {"type": "node", "id": 12618829210, "lat": 49.2806072, "lon": -123.1114839}, {"type": "node", "id": 12618829211, "lat": 49.2805986, "lon": -123.111532}, {"type": "node", "id": 12618829212, "lat": 49.2805993, "lon": -123.1115468, "tags": {"barrier": "kerb", "kerb": "lowered", "tactile_paving": "no"}}, {"type": "node", "id": 12618829213, "lat": 49.2806036, "lon": -123.1115712}, {"type": "node", "id": 12618829214, "lat": 49.2806102, "lon": -123.1115946}, {"type": "node", "id": 12618829215, "lat": 49.281083, "lon": -123.1123211}, {"type": "node", "id": 12618829216, "lat": 49.2810949, "lon": -123.1123366}, {"type": "node", "id": 12618829217, "lat": 49.2810984, "lon": -123.1123418, "tags": {"barrier": "kerb", "kerb": "lowered", "tactile_paving": "no"}}, {"type": "node", "id": 12618829218, "lat": 49.2811127, "lon": -123.1123487}, {"type": "node", "id": 12618829219, "lat": 49.2811245, "lon": -123.1123509}, {"type": "node", "id": 12618829220, "lat": 49.2811485, "lon": -123.1123449}, {"type": "node", "id": 12618829221, "lat": 49.2811575, "lon": -123.1123349}, {"type": "node", "id": 12618829222, "lat": 49.2820105, "lon": -123.1110507}, {"type": "node", "id": 12618829223, "lat": 49.282016, "lon": -123.1110346}, {"type": "node", "id": 12618829224, "lat": 49.2820167, "lon": -123.1109913, "tags": {"barrier": "kerb", "kerb": "lowered", "tactile_paving": "no"}}, {"type": "node", "id": 12618829225, "lat": 49.2820118, "lon": -123.1109661}, {"type": "node", "id": 12618829226, "lat": 49.2820018, "lon": -123.1109327}, {"type": "node", "id": 12619184249, "lat": 49.282648, "lon": -123.1154321, "tags": {"addr:housenumber": "570", "addr:street": "Dunsmuir Street", "addr:unit": "100", "amenity": "college", "branch": "Vancouver", "name": "Alexander College", "operator:type": "private", "website": "https://alexandercollege.ca/", "wikidata": "Q19871897", "wikipedia": "en:Alexander College"}}, {"type": "node", "id": 12637078573, "lat": 49.2784749, "lon": -123.1070898}, {"type": "node", "id": 12695805862, "lat": 49.2829677, "lon": -123.1108217}, {"type": "node", "id": 12737106811, "lat": 49.2766137, "lon": -123.1185482, "tags": {"addr:city": "Vancouver", "addr:housenumber": "211", "addr:street": "Nelson Street", "amenity": "university", "name": "The Westside Schools \u2013 Miniversity"}}, {"type": "node", "id": 13158589674, "lat": 49.2846929, "lon": -123.1111439, "tags": {"camera:direction": "350", "camera:mount": "wall", "camera:type": "fixed", "man_made": "surveillance", "surveillance:type": "camera"}}, {"type": "way", "id": 116527969, "nodes": [1313402023, 1313402026, 5417490423, 1313402030, 1313402023], "tags": {"addr:city": "Vancouver", "addr:housenumber": "555", "addr:province": "BC", "addr:street": "Seymour Street", "alt_name": "BCIT", "amenity": "college", "branch": "Downtown", "building": "yes", "name": "British Columbia Institute of Technology", "roof:colour": "#A39C96", "website": "https://www.bcit.ca/about/visit/campuses-directions/downtown/"}}, {"type": "way", "id": 143682595, "nodes": [1529901614, 3676025254, 3676025257, 3676025256, 3676869552, 3675538333, 13158589674, 1572442592, 3675538329, 3675538336, 3675538332, 1572442577, 1529901614], "tags": {"addr:city": "Vancouver", "addr:housenumber": "515", "addr:postcode": "V6B 4N5", "addr:province": "BC", "addr:street": "West Hastings Street", "amenity": "university", "branch": "Vancouver Campus", "building": "commercial", "building:architecture": "Art Deco", "building:start_date": "1926", "heritage:website": "https://placesthatmatter.ca/location/spencers-department-store/", "name": "Harbour Centre", "old_name": "Spencer Building", "operator": "Simon Fraser University", "operator:short": "SFU", "roof:colour": "#bab9b7", "website": "https://www.sfu.ca/campuses/vancouver.html"}}, {"type": "way", "id": 233816617, "nodes": [2421458450, 2421458448, 2421458447, 5251408051, 5251408042, 5251408041, 2421458465, 2421458469, 5251408043, 5251408044, 638863775, 638863778, 2321115328, 2421458462, 5251394287, 2421458457, 2421458450], "tags": {"amenity": "school", "check_date": "2024-05-24", "fee": "no", "isced:level": "0-1", "name": "Lord Roberts School Annex", "operator": "Vancouver School Board"}}, {"type": "way", "id": 301848107, "nodes": [3059998251, 3059998254, 3059998255, 3059998252, 12695805862, 3059998251], "tags": {"addr:city": "Vancouver", "addr:housenumber": "392", "addr:province": "BC", "addr:street": "West Hastings Street", "amenity": "college", "building": "college", "building:levels": "3", "name": "Vancouver Film School", "roof:colour": "#736a6b"}}, {"type": "way", "id": 517499719, "nodes": [3038387149, 5049976076, 12637078573, 5049976077, 430973593, 1430667751, 9594169840, 5049976078, 9594169828]}, {"type": "way", "id": 1042209982, "nodes": [3038387149, 3038387150, 3038387151, 3038387152, 3038387153, 11286421015, 3038387138, 3038387139, 3038387140, 3038387141, 3038387111, 3038387112, 9594169828]}, {"type": "way", "id": 1362914589, "nodes": [12618829201, 12618829202, 12618829203, 12618829204, 12618829205, 12618829206, 12618829207, 12618829208, 12618829209, 12618829210, 5476825017, 12618829211, 12618829212, 12618829213, 12618829214, 12618829215, 12618829216, 12618829217, 12618829218, 12618829219, 5476825016, 12618829220, 12618829221, 12618829222, 12618829223, 8120172824, 12618829224, 12618829225, 12618829226, 12618829201], "tags": {"addr:housenumber": "250", "addr:street": "West Pender Street", "amenity": "college", "branch": "Downtown", "name": "Vancouver Community College", "old_name": "Vancouver Vocational Institute", "operator": "VCC Board of Directors", "operator:type": "public", "phone": "+1-866-565-7820", "short_name": "VCC", "start_date": "1965", "website": "https://www.vcc.ca/", "website:map": "https://www.vcc.ca/media/vancouver-community-college/content-assets/documents/contact-us/WEB-CampusMaps-DT-APR_2016.pdf", "wikidata": "Q1955962", "wikipedia": "en:Vancouver Community College"}}, {"type": "relation", "id": 13946548, "members": [{"type": "way", "ref": 517499719, "role": "outer"}, {"type": "way", "ref": 1042209982, "role": "outer"}], "tags": {"addr:city": "Vancouver", "addr:housenumber": "55", "addr:province": "BC", "addr:street": "Expo Boulevard", "amenity": "school", "grades": "0-7", "name": "\u0161x\u02b7w\u0259q\u0313\u02b7\u0259\u03b8\u0259t Crosstown Elementary School", "old_name": "Crosstown Elementary School", "start_date": "2017/09", "type": "multipolygon", "website": "https://www.vsb.bc.ca/crosstown"}}]}