{"version": 0.6, "generator": "Overpass API 0.7.62.8 e802775f", "osm3s": {"timestamp_osm_base": "2025-11-22T19:08:00Z", "copyright": "The data included in this document is from www.openstreetmap.org. The data is made available under ODbL."}, "elements": [{"type": "node", "id": 1336892557, "lat": 49.3250682, "lon": -123.0717829}, {"type": "node", "id": 1336892558, "lat": 49.3251269, "lon": -123.0717796}, {"type": "node", "id": 1336892559, "lat": 49.3249639, "lon": -123.0717801}, {"type": "node", "id": 1336892560, "lat": 49.3249674, "lon": -123.0720724}, {"type": "node", "id": 1336892561, "lat": 49.3251326, "lon": -123.0720657}, {"type": "node", "id": 1336892562, "lat": 49.3250138, "lon": -123.0717593}, {"type": "node", "id": 1336892563, "lat": 49.3250613, "lon": -123.0717601}, {"type": "node", "id": 1336892564, "lat": 49.325012, "lon": -123.0717787}, {"type": "node", "id": 1675462633, "lat": 49.3227659, "lon": -123.0720834, "tags": {"addr:city": "North Vancouver", "addr:housenumber": "1544", "addr:postcode": "V7M 2J3", "addr:province": "BC", "addr:street": "Lonsdale Avenue", "amenity": "cafe", "cuisine": "bubble_tea", "name": "Zestea"}}, {"type": "node", "id": 1744768164, "lat": 49.3217244, "lon": -123.072586, "tags": {"amenity": "restaurant", "cuisine": "ramen", "internet_access": "wlan", "name": "Danbo"}}, {"type": "node", "id": 1768129139, "lat": 49.3175133, "lon": -123.0731691}, {"type": "node", "id": 1768129166, "lat": 49.3175933, "lon": -123.073089}, {"type": "node", "id": 1768129173, "lat": 49.3176605, "lon": -123.0732028}, {"type": "node", "id": 1768129183, "lat": 49.3177254, "lon": -123.0731365}, {"type": "node", "id": 1768129184, "lat": 49.3176332, "lon": -123.0731828}, {"type": "node", "id": 1768129210, "lat": 49.3175876, "lon": -123.0733437}, {"type": "node", "id": 1768129217, "lat": 49.3176463, "lon": -123.0731701}, {"type": "node", "id": 1768129230, "lat": 49.3176707, "lon": -123.0730106}, {"type": "node", "id": 1768129238, "lat": 49.3175656, "lon": -123.0732505}, {"type": "node", "id": 1768129240, "lat": 49.3176, "lon": -123.0733314}, {"type": "node", "id": 1768311295, "lat": 49.3142851, "lon": -123.0782283}, {"type": "node", "id": 1768311308, "lat": 49.3141539, "lon": -123.0783598}, {"type": "node", "id": 1768311325, "lat": 49.3140771, "lon": -123.0781811}, {"type": "node", "id": 1768311339, "lat": 49.3142514, "lon": -123.0780046}, {"type": "node", "id": 1768311344, "lat": 49.3141592, "lon": -123.0780997}, {"type": "node", "id": 1768311353, "lat": 49.3141746, "lon": -123.0783388}, {"type": "node", "id": 1768311356, "lat": 49.3143284, "lon": -123.0781874}, {"type": "node", "id": 1777523444, "lat": 49.321953, "lon": -123.0728213, "tags": {"addr:city": "North Vancouver", "addr:housenumber": "115", "addr:street": "West 15th Street", "amenity": "restaurant", "cuisine": "pizza", "delivery": "no", "name": "Alberello Pizzeria", "opening_hours": "11:30-22:30", "phone": "+1-604-770-4484", "takeaway": "yes"}}, {"type": "node", "id": 2061050826, "lat": 49.3211676, "lon": -123.0730131, "tags": {"amenity": "restaurant", "name": "Eighties Restaurant", "wheelchair": "no"}}, {"type": "node", "id": 2061050827, "lat": 49.322223, "lon": -123.073174, "tags": {"addr:city": "North Vancouver", "addr:housenumber": "114", "addr:province": "BC", "addr:street": "West 15th Street", "amenity": "restaurant", "name": "Tehran Nights Restaurant"}}, {"type": "node", "id": 2089377871, "lat": 49.3273947, "lon": -123.072432, "tags": {"amenity": "fast_food", "brand": "McDonald's", "brand:wikidata": "Q38076", "brand:wikipedia": "en:McDonald's", "cuisine": "burger", "name": "McDonald's", "takeaway": "yes", "website": "http://www.mcdonalds.ca/"}}, {"type": "node", "id": 2089380149, "lat": 49.3242961, "lon": -123.0725862, "tags": {"amenity": "cafe", "brand": "Starbucks", "brand:wikidata": "Q37158", "brand:wikipedia": "en:Starbucks", "cuisine": "coffee_shop", "name": "Starbucks", "official_name": "Starbucks Coffee", "takeaway": "yes"}}, {"type": "node", "id": 2089383480, "lat": 49.3219602, "lon": -123.072537, "tags": {"amenity": "cafe", "brand": "Blenz Coffee", "brand:wikidata": "Q4926090", "cuisine": "coffee_shop", "name": "Blenz Coffee", "takeaway": "yes"}}, {"type": "node", "id": 2089384614, "lat": 49.3222679, "lon": -123.0714, "tags": {"addr:city": "North Vancouver", "addr:housenumber": "116", "addr:street": "East 15th Street", "amenity": "restaurant", "name": "Palki Indian", "phone": "+1-604-986-7555", "website": "https://www.palkirestaurant.com/"}}, {"type": "node", "id": 2089392820, "lat": 49.325842, "lon": -123.071965, "tags": {"amenity": "cafe", "cuisine": "coffee_shop", "name": "Brazza Gelato & Coffee"}}, {"type": "node", "id": 2089392908, "lat": 49.3260968, "lon": -123.0724768, "tags": {"amenity": "restaurant", "cuisine": "sushi", "name": "Sushi Katsu"}}, {"type": "node", "id": 2089394936, "lat": 49.3224421, "lon": -123.0726121, "tags": {"amenity": "cafe", "brand": "Tim Hortons", "brand:wikidata": "Q175106", "brand:wikipedia": "en:Tim Hortons", "cuisine": "coffee_shop", "drive_through": "no", "name": "Tim Hortons", "takeaway": "yes"}}, {"type": "node", "id": 3264434398, "lat": 49.311651, "lon": -123.0784505, "tags": {"amenity": "cafe", "internet_access": "yes", "name": "West of Java Cafe", "smoking": "no"}}, {"type": "node", "id": 3286872887, "lat": 49.3115338, "lon": -123.0801501, "tags": {"amenity": "restaurant", "check_date": "2025-01-19", "cuisine": "thai", "name": "Thai House Restaurant", "smoking": "no"}}, {"type": "node", "id": 3303320043, "lat": 49.3126535, "lon": -123.0781809, "tags": {"addr:city": "North Vancouver", "addr:housenumber": "103", "addr:province": "BC", "addr:street": "West 2nd Street", "amenity": "restaurant", "contact:phone": "+1-604-770 3295", "contact:website": "https://www.brownssocialhouse.com/lower-lonsdale", "indoor_seating": "yes", "name": "Browns Socialhouse", "opening_hours": "Mo-We 11:00-23:00; Th-Fr 11:00-24:00; Sa 10:00-24:00; Su 10:00-23:00", "outdoor_seating": "yes", "smoking": "no"}}, {"type": "node", "id": 3353389261, "lat": 49.3124756, "lon": -123.077748, "tags": {"addr:city": "North Vancouver", "addr:housenumber": "152", "addr:province": "BC", "addr:street": "Lonsdale Avenue", "amenity": "restaurant", "contact:phone": "+1 604-987-8633", "contact:website": "https://www.sushibella.com/", "cuisine": "japanese", "indoor_seating": "yes", "name": "Sushi Bella", "opening_hours": "Mo-Fr 11:30-15:00,16:30-23:00; Sa,Su 12:00-23:00", "outdoor_seating": "no", "smoking": "no"}}, {"type": "node", "id": 4576710890, "lat": 49.3124069, "lon": -123.0778328, "tags": {"addr:city": "North Vancouver", "addr:housenumber": "144", "addr:postcode": "V7M 2E8", "addr:province": "BC", "addr:street": "Lonsdale Avenue", "amenity": "restaurant", "cuisine": "irish;diner;sandwich;breakfast", "email": "meatatoneills@shaw.ca", "internet_access": "wlan", "name": "Meat at O'Neill's", "name:en": "Meat at O'Neill's", "opening_hours": "Tu-We 10:00-18:00; Th-Fr 10:00-19:00; Sa 10:00-18:00", "phone": "+1-604-987-1115", "website": "https://www.meatatoneills.com/"}}, {"type": "node", "id": 4887078207, "lat": 49.326021, "lon": -123.0724875, "tags": {"amenity": "restaurant", "cuisine": "vietnamese", "name": "Pho98", "phone": "+1-778-340-3993"}}, {"type": "node", "id": 4905491821, "lat": 49.3122034, "lon": -123.078959, "tags": {"addr:city": "North Vancouver", "addr:housenumber": "101", "addr:province": "BC", "addr:street": "West 1st Street", "amenity": "restaurant", "contact:facebook": "Buddhafullcafe", "contact:instagram": "buddhafullprovisions", "diet:vegan": "yes", "name": "Buddha-full - Lonsdale", "name:fr": "Buddha-full", "opening_hours": "Mo-Su 09:30-18:00", "phone": "+1-604-973-0231", "smoking": "no", "website": "https://www.buddha-full.ca/"}}, {"type": "node", "id": 5231664520, "lat": 49.3117439, "lon": -123.0790782, "tags": {"addr:city": "North Vancouver City", "addr:housenumber": "91", "addr:street": "Lonsdale Avenue", "amenity": "restaurant", "cuisine": "seafood", "indoor_seating": "yes", "name": "Fishworks", "outdoor_seating": "yes", "smoking": "no", "toilets:wheelchair": "yes", "wheelchair": "yes"}}, {"type": "node", "id": 5231664924, "lat": 49.3117248, "lon": -123.0790946}, {"type": "node", "id": 5231664925, "lat": 49.3116662, "lon": -123.079153}, {"type": "node", "id": 5231664926, "lat": 49.3117557, "lon": -123.0793641}, {"type": "node", "id": 5231664927, "lat": 49.3118143, "lon": -123.0793056}, {"type": "node", "id": 5231816295, "lat": 49.3164945, "lon": -123.078151, "tags": {"addr:city": "North Vancouver", "addr:housenumber": "506", "addr:province": "BC", "addr:street": "Chesterfield Avenue", "amenity": "cafe", "name": "Bean Around The World"}}, {"type": "node", "id": 5235293225, "lat": 49.3125664, "lon": -123.0822132, "tags": {"addr:city": "North Vancouver City", "addr:housenumber": "88", "addr:street": "Chesterfield Avenue", "amenity": "restaurant", "brand": "Boston Pizza", "brand:wikidata": "Q894578", "brand:wikipedia": "en:Boston Pizza", "cuisine": "pizza", "name": "Boston Pizza", "phone": "+1-778-340-1514", "smoking": "no"}}, {"type": "node", "id": 5235293227, "lat": 49.3124327, "lon": -123.08221, "tags": {"addr:city": "North Vancouver City", "addr:housenumber": "180", "addr:street": "West Esplanade", "addr:unit": "2", "amenity": "restaurant", "brand": "Freshii", "brand:wikidata": "Q5503051", "brand:wikipedia": "en:Freshii", "cuisine": "salad", "name": "Freshii", "phone": "+1-778-729-0838", "smoking": "no"}}, {"type": "node", "id": 5287258573, "lat": 49.3281564, "lon": -123.0725782, "tags": {"amenity": "restaurant", "cuisine": "persian", "name": "Yaas Grill House"}}, {"type": "node", "id": 5287258574, "lat": 49.3279483, "lon": -123.0724252, "tags": {"addr:postcode": "V7M2K4", "amenity": "restaurant", "cuisine": "indian", "name": "Indian Fusion", "opening_hours": "Mo-Fr 11:30-21:30; Sa-Su 12:00-21:30", "phone": "6049849977", "website": "http://indianfusiononline.com"}}, {"type": "node", "id": 5287258575, "lat": 49.3279098, "lon": -123.0724225, "tags": {"amenity": "restaurant", "cuisine": "sushi", "name": "Haru Sushi"}}, {"type": "node", "id": 5287258576, "lat": 49.3278642, "lon": -123.0724211, "tags": {"addr:city": "North Vancouver", "addr:housenumber": "2039", "addr:province": "BC", "addr:street": "Lonsdale Avenue", "amenity": "restaurant", "cuisine": "korean", "name": "Bori Korean Restaurant", "opening_hours": "Mo 12:00-21:00; We-Su 11:30-21:30", "phone": "+1-604-987-0102", "smoking": "no", "wheelchair": "yes"}}, {"type": "node", "id": 5287258577, "lat": 49.3278104, "lon": -123.0724142, "tags": {"addr:city": "North Vancouver", "addr:housenumber": "2035", "addr:province": "BC", "addr:street": "Lonsdale Avenue", "amenity": "cafe", "cuisine": "bubble_tea", "name": "Bubble Tea Bluemoon"}}, {"type": "node", "id": 5287258581, "lat": 49.3271302, "lon": -123.072477, "tags": {"amenity": "restaurant", "cuisine": "sushi", "name": "Sushi UMI"}}, {"type": "node", "id": 5287258582, "lat": 49.327016, "lon": -123.0724817, "tags": {"amenity": "fast_food", "brand": "Panago", "brand:wikidata": "Q17111672", "brand:wikipedia": "en:Panago", "cuisine": "pizza", "name": "Panago", "takeaway": "yes"}}, {"type": "node", "id": 5287258584, "lat": 49.3268197, "lon": -123.0724864, "tags": {"addr:city": "North Vancouver", "addr:housenumber": "1933", "addr:province": "BC", "addr:street": "Lonsdale Avenue", "amenity": "restaurant", "name": "Tequila Cocina Cantina & Traditional Mexican Eatery"}}, {"type": "node", "id": 5287258585, "lat": 49.3267078, "lon": -123.0724863, "tags": {"amenity": "restaurant", "cuisine": "chinese", "name": "Chilli Lee Szechuan Cuisine"}}, {"type": "node", "id": 5287258586, "lat": 49.3266675, "lon": -123.0724874, "tags": {"amenity": "restaurant", "cuisine": "indian", "name": "Pawans Indian Kitchen"}}, {"type": "node", "id": 5297361622, "lat": 49.3118642, "lon": -123.0764933, "tags": {"addr:city": "North Vancouver", "addr:housenumber": "141", "addr:province": "BC", "addr:street": "East 2nd Street", "amenity": "restaurant", "contact:phone": "+1 604-960-0612", "contact:website": "http://www.southcastlekorean.com", "cuisine": "korean", "level": "0", "name": "South Castle Korean Restaurant", "name:ko": "\ub0a8\ud55c\uc0b0\uc131 \uc21c\ub300", "opening_hours": "Mo-Su 11:30-21:00"}}, {"type": "node", "id": 5310058460, "lat": 49.3126822, "lon": -123.0774776, "tags": {"addr:city": "North Vancouver", "addr:housenumber": "100", "addr:province": "BC", "addr:street": "East 2nd Street", "amenity": "restaurant", "contact:phone": "+1 236-551-2236", "contact:website": "https://gringorestaurants.com/north-van/", "cuisine": "mexican", "name": "Gringo", "opening_hours": "Mo-Su 12:00-24:00"}}, {"type": "node", "id": 5310061144, "lat": 49.3130233, "lon": -123.077144, "tags": {"addr:city": "North Vancouver City", "addr:housenumber": "228", "addr:province": "BC", "addr:street": "Lonsdale Avenue", "amenity": "restaurant", "name": "Winston"}}, {"type": "node", "id": 5310061586, "lat": 49.3131411, "lon": -123.0768211, "tags": {"addr:housenumber": "107", "addr:street": "East 3rd Street", "amenity": "fast_food", "brand": "Subway", "brand:wikidata": "Q244457", "brand:wikipedia": "en:Subway (restaurant)", "cuisine": "sandwich", "name": "Subway", "opening_hours": "24/7", "takeaway": "yes"}}, {"type": "node", "id": 6014566785, "lat": 49.3116069, "lon": -123.0748444, "tags": {"addr:city": "North Vancouver", "addr:housenumber": "180", "addr:province": "BC", "addr:street": "East 2nd Street", "amenity": "restaurant", "contact:phone": "+1 778-340-0777", "contact:website": "https://sushikumo.ca/", "cuisine": "japanese;sushi", "name": "Sushi Kumo", "opening_hours": "Mo-Su 11:30-21:30"}}, {"type": "node", "id": 6014566885, "lat": 49.3120538, "lon": -123.0743405, "tags": {"amenity": "restaurant", "cuisine": "vietnamese", "name": "V-Nam", "smoking": "no"}}, {"type": "node", "id": 6148834594, "lat": 49.3120589, "lon": -123.0795495, "tags": {"addr:city": "North Vancouver", "addr:housenumber": "117", "addr:street": "West 1st Street", "amenity": "restaurant", "contact:phone": "+1-604-968-1171", "contact:website": "http://greenleafsushi.ca/northvancouver/", "cuisine": "sushi", "indoor_seating": "yes", "name": "The Green Leaf Aburi Sushi", "opening_hours": "Mo-Su 11:00-21:00", "outdoor_seating": "no", "smoking": "no"}}, {"type": "node", "id": 6148834595, "lat": 49.3122227, "lon": -123.077183, "tags": {"addr:city": "North Vancouver", "addr:housenumber": "119", "addr:province": "BC", "addr:street": "East 2nd Street", "amenity": "restaurant", "contact:phone": "+1 604-980-3300", "contact:website": "https://www.farinaalegna.com", "cuisine": "pizza;italian", "name": "Farina a Legna", "opening_hours": "Mo-Th 16:00-21:00; Fr 16:00-22:00; Sa 12:00-22:00; Su 12:00-21:00"}}, {"type": "node", "id": 6148845952, "lat": 49.3123621, "lon": -123.07931, "tags": {"addr:housenumber": "124", "addr:street": "West 1st Street", "addr:unit": "100", "amenity": "fast_food", "contact:website": "https://www.leesdonuts.ca/", "cuisine": "donut", "name": "Lee's Donuts", "not:brand:wikidata": "Q6512810", "opening_hours": "Th-Mo 09:00-17:00"}}, {"type": "node", "id": 6148845953, "lat": 49.3200814, "lon": -123.070244, "tags": {"addr:city": "North Vancouver", "addr:housenumber": "148", "addr:street": "East 13th Street", "amenity": "restaurant", "amenity_1": "fast_food", "brand": "Nando's", "brand:wikidata": "Q3472954", "brand:wikipedia": "en:Nando's", "cuisine": "chicken;portuguese", "name": "Nando's"}}, {"type": "node", "id": 6148845957, "lat": 49.3208761, "lon": -123.0721449, "tags": {"addr:city": "North Vancouver", "addr:housenumber": "1356", "addr:street": "Lonsdale Avenue", "amenity": "fast_food", "brand": "Subway", "brand:wikidata": "Q244457", "brand:wikipedia": "en:Subway (restaurant)", "cuisine": "sandwich", "name": "Subway", "takeaway": "yes"}}, {"type": "node", "id": 6148845958, "lat": 49.3190471, "lon": -123.0726675, "tags": {"addr:city": "North Vancouver", "addr:housenumber": "1205", "addr:street": "Lonsdale Avenue", "amenity": "restaurant", "contact:phone": "+1-604-929-1231", "contact:website": "http://www.gahyangru.com/", "cuisine": "korean;chinese", "name": "Ga Hyang Ru", "name:ko": "\uac00\ud5a5\ub8e8", "opening_hours": "Mo-Su 11:30-21:00"}}, {"type": "node", "id": 6148845959, "lat": 49.3191771, "lon": -123.0726668, "tags": {"addr:city": "North Vancouver", "addr:housenumber": "1211", "addr:street": "Lonsdale Avenue", "amenity": "restaurant", "contact:phone": "+1-604-990-1218", "contact:website": "https://www.bridgebrewing.com/lonsdale-bridgedeck", "name": "BridgeDeck Kitchen & Taps", "opening_hours": "Mo-Fr 11:00-22:00; Sa,Su 10:00-22:00"}}, {"type": "node", "id": 6180068145, "lat": 49.3116539, "lon": -123.080344, "tags": {"addr:city": "North Vancouver", "addr:housenumber": "132", "addr:postcode": "V7M 1A2", "addr:street": "West Esplanade", "addr:unit": "120", "amenity": "fast_food", "brand": "Freshslice Pizza", "brand:wikidata": "Q5503082", "brand:wikipedia": "en:Freshslice Pizza", "check_date": "2025-01-19", "cuisine": "pizza", "drive_through": "no", "name": "Freshslice Pizza", "opening_hours": "Mo-Sa 10:00-22:00; Su 11:00-22:00", "takeaway": "yes"}}, {"type": "node", "id": 6180068146, "lat": 49.3117019, "lon": -123.08043, "tags": {"addr:city": "North Vancouver", "addr:housenumber": "132", "addr:postcode": "V7M 1A2", "addr:street": "West Esplanade", "addr:unit": "112", "amenity": "cafe", "brand": "Tim Hortons", "brand:wikidata": "Q175106", "brand:wikipedia": "en:Tim Hortons", "check_date": "2025-01-19", "cuisine": "coffee_shop", "drive_through": "no", "name": "Tim Hortons", "opening_hours": "Mo-Su 05:00-22:00", "takeaway": "yes"}}, {"type": "node", "id": 6594078624, "lat": 49.3150944, "lon": -123.066758, "tags": {"addr:city": "North Vancouver City", "addr:housenumber": "279", "addr:street": "East 8th Street", "amenity": "cafe", "name": "Andrews on 8th"}}, {"type": "node", "id": 7125237471, "lat": 49.3253307, "lon": -123.0720196, "tags": {"addr:city": "North Vancouver", "addr:housenumber": "1802", "addr:province": "BC", "addr:street": "Lonsdale Avenue", "amenity": "restaurant", "cuisine": "italian", "name": "Palermo Cucina"}}, {"type": "node", "id": 7133649285, "lat": 49.3233764, "lon": -123.0725666, "tags": {"addr:city": "North Vancouver", "addr:housenumber": "1615", "addr:province": "BC", "addr:street": "Lonsdale Avenue", "amenity": "restaurant", "name": "Sadra"}}, {"type": "node", "id": 7379087160, "lat": 49.3202692, "lon": -123.0665723, "tags": {"amenity": "cafe", "cuisine": "coffee_shop", "name": "BLENZ HOpe cafe", "opening_hours": "Mo-Fr 6:30-17:00, Sa 09:00-16:00", "outdoor_seating": "yes"}}, {"type": "node", "id": 8794299041, "lat": 49.3123632, "lon": -123.0774675, "tags": {"addr:city": "North Vancouver", "addr:housenumber": "109", "addr:province": "BC", "addr:street": "East 2nd Street", "amenity": "fast_food", "contact:phone": "+1 604-980-4507", "contact:website": "https://chickenbox.ca/", "cuisine": "chicken", "name": "Chicken Box", "opening_hours": "Mo-Su 11:30-15:00,16:00-21:00"}}, {"type": "node", "id": 8794299047, "lat": 49.3137959, "lon": -123.0783722, "tags": {"addr:city": "North Vancouver City", "addr:housenumber": "129", "addr:province": "BC", "addr:street": "West 3rd Street", "amenity": "restaurant", "contact:website": "https://minemurasushi.com/", "cuisine": "sushi", "name": "Minemura Sushi", "opening_hours": "Mo-Fr 11:00-15:00, 16:00-21:00; Sa 12:00-15:00, 16:00-21:00", "smoking": "no"}}, {"type": "node", "id": 9181815210, "lat": 49.3248856, "lon": -123.0720621, "tags": {"addr:city": "North Vancouver", "addr:housenumber": "1750", "addr:province": "BC", "addr:street": "Lonsdale Avenue", "amenity": "restaurant", "cuisine": "pizza", "name": "Lionsgate Pizza"}}, {"type": "node", "id": 9181815211, "lat": 49.3240082, "lon": -123.071704, "tags": {"addr:city": "North Vancouver", "addr:housenumber": "125", "addr:province": "BC", "addr:street": "East 17th Street", "amenity": "cafe", "branch": "Coffee Roasters", "brand": "JJ Bean", "brand:wikidata": "Q111937483", "cuisine": "coffee_shop", "name": "JJ Bean", "takeaway": "yes"}}, {"type": "node", "id": 9181842417, "lat": 49.3238971, "lon": -123.072524, "tags": {"addr:city": "North Vancouver", "addr:housenumber": "1661", "addr:province": "BC", "addr:street": "Lonsdale Avenue", "amenity": "restaurant", "name": "Rice and Noodle"}}, {"type": "node", "id": 9181842418, "lat": 49.3240173, "lon": -123.0725195, "tags": {"addr:city": "North Vancouver", "addr:housenumber": "1669", "addr:province": "BC", "addr:street": "Lonsdale Avenue", "amenity": "restaurant", "check_date:currency:XBT": "2025-09-18", "currency:XBT": "yes", "name": "Rosemary Rocksalt", "payment:coinos": "yes", "payment:lightning": "yes", "payment:onchain": "yes"}}, {"type": "node", "id": 9181842419, "lat": 49.323137, "lon": -123.0720611, "tags": {"addr:city": "North Vancouver", "addr:housenumber": "1596", "addr:province": "BC", "addr:street": "Lonsdale Avenue", "amenity": "fast_food", "cuisine": "pizza", "name": "Pizza Garden"}}, {"type": "node", "id": 9181842420, "lat": 49.3227045, "lon": -123.0720872, "tags": {"addr:city": "North Vancouver", "addr:housenumber": "1540", "addr:province": "BC", "addr:street": "Lonsdale Avenue", "amenity": "restaurant", "name": "Yuko Maki"}}, {"type": "node", "id": 9181842421, "lat": 49.321125, "lon": -123.0710738, "tags": {"addr:city": "North Vancouver", "addr:housenumber": "128", "addr:province": "BC", "addr:street": "East 14th Street", "amenity": "restaurant", "name": "Pho North Vancouver"}}, {"type": "node", "id": 9181842422, "lat": 49.3217677, "lon": -123.0721213, "tags": {"addr:city": "North Vancouver", "addr:housenumber": "1448", "addr:province": "BC", "addr:street": "Lonsdale Avenue", "amenity": "restaurant", "name": "Poke Bar", "smoking": "no"}}, {"type": "node", "id": 9181842423, "lat": 49.3216488, "lon": -123.0721226, "tags": {"addr:city": "North Vancouver", "addr:housenumber": "1440", "addr:province": "BC", "addr:street": "Lonsdale Avenue", "amenity": "restaurant", "cuisine": "malaysian", "name": "Tamarind Hill", "smoking": "no"}}, {"type": "node", "id": 9181842424, "lat": 49.3218539, "lon": -123.0725965, "tags": {"addr:city": "North Vancouver", "addr:housenumber": "1449", "addr:province": "BC", "addr:street": "Lonsdale Avenue", "amenity": "fast_food", "brand": "Freshslice Pizza", "brand:wikidata": "Q5503082", "cuisine": "pizza", "name": "Freshslice Pizza", "takeaway": "yes"}}, {"type": "node", "id": 9353710950, "lat": 49.3197861, "lon": -123.0720516, "tags": {"addr:city": "North Vancouver", "addr:housenumber": "107", "addr:street": "East 13th Street", "amenity": "cafe", "name": "Take Five Caf\u00e9"}}, {"type": "node", "id": 10141691123, "lat": 49.3254598, "lon": -123.0724871, "tags": {"addr:city": "North Vancouver", "addr:housenumber": "1813", "addr:province": "BC", "addr:street": "Lonsdale Avenue", "amenity": "fast_food", "contact:phone": "+1-604-770-3229", "contact:website": "https://chickochicken.ca/", "cuisine": "chicken", "name": "Chicko Chicken", "opening_hours": "Mo-Su 11:00-21:00"}}, {"type": "node", "id": 10141691124, "lat": 49.3253197, "lon": -123.072497, "tags": {"addr:city": "North Vancouver", "addr:housenumber": "1805", "addr:province": "BC", "addr:street": "Lonsdale Avenue", "amenity": "restaurant", "name": "Grab and Go Persian Restaurant"}}, {"type": "node", "id": 10141691125, "lat": 49.3264632, "lon": -123.0720099, "tags": {"addr:city": "North Vancouver", "addr:housenumber": "1902", "addr:province": "BC", "addr:street": "Lonsdale Avenue", "amenity": "cafe", "name": "Roastmastir's"}}, {"type": "node", "id": 10141691133, "lat": 49.3218795, "lon": -123.0703026, "tags": {"addr:city": "North Vancouver", "addr:housenumber": "143", "addr:province": "BC", "addr:street": "East 15th Street", "amenity": "restaurant", "check_date": "2023-04-01", "level": "0", "name": "OEB Breakfast Co.", "website": "https://eatoeb.com/", "website:menu": "https://eatoeb.com/menu/vancouver/"}}, {"type": "node", "id": 10141691134, "lat": 49.3218816, "lon": -123.0700146, "tags": {"addr:city": "North Vancouver", "addr:housenumber": "155", "addr:province": "BC", "addr:street": "East 15th Street", "amenity": "restaurant", "cuisine": "sushi", "name": "Jordan Sushi"}}, {"type": "node", "id": 10141691136, "lat": 49.3218789, "lon": -123.0697738, "tags": {"addr:city": "North Vancouver", "addr:housenumber": "161", "addr:province": "BC", "addr:street": "East 15th Street", "amenity": "restaurant", "brand": "Freshii", "brand:wikidata": "Q5503051", "cuisine": "salad", "name": "Freshii"}}, {"type": "node", "id": 10141691149, "lat": 49.3201798, "lon": -123.072639, "tags": {"addr:city": "North Vancouver", "addr:housenumber": "1301", "addr:province": "BC", "addr:street": "Lonsdale Avenue", "amenity": "fast_food", "brand": "Chipotle", "brand:wikidata": "Q465751", "cuisine": "mexican", "name": "Chipotle", "official_name": "Chipotle Mexican Grill", "takeaway": "yes"}}, {"type": "node", "id": 10141691159, "lat": 49.3118474, "lon": -123.0764432, "tags": {"addr:city": "North Vancouver", "addr:housenumber": "143", "addr:province": "BC", "addr:street": "East 2nd Street", "amenity": "fast_food", "contact:phone": "+1 604-929-0599", "contact:website": "https://theperiperishack.com", "cuisine": "chicken", "drive_through": "no", "level": "0", "name": "The Peri Peri Shack: Flame Grilled Chicken", "opening_hours": "Su-Th 11:00-23:00; Fr-Sa 11:00-24:00"}}, {"type": "node", "id": 10141691160, "lat": 49.3121773, "lon": -123.0786326, "tags": {"addr:city": "North Vancouver", "addr:housenumber": "105", "addr:province": "BC", "addr:street": "Lonsdale Avenue", "amenity": "restaurant", "contact:website": "https://mrsushicanada.com/lonsdale/", "cuisine": "sushi", "indoor_seating": "yes", "name": "Mr. Sushi", "outdoor_seating": "yes", "smoking": "no"}}, {"type": "node", "id": 10141691161, "lat": 49.3125199, "lon": -123.0782838, "tags": {"addr:city": "North Vancouver", "addr:housenumber": "139", "addr:province": "BC", "addr:street": "Lonsdale Avenue", "amenity": "fast_food", "brand": "Quesada", "brand:wikidata": "Q66070360", "contact:website": "https://quesada.ca/", "cuisine": "mexican", "name": "Quesada", "official_name": "Quesada Burritos & Tacos", "opening_hours": "Mo-Sa 10:00-24:00; Su 10:00-22:00", "takeaway": "yes"}}, {"type": "node", "id": 10141691162, "lat": 49.3119053, "lon": -123.078315, "tags": {"addr:city": "North Vancouver", "addr:housenumber": "100", "addr:province": "BC", "addr:street": "East 1st Street", "addr:unit": "110", "amenity": "restaurant", "contact:website": "https://jamcafes.com/", "cuisine": "breakfast;lunch", "name": "Jam Cafe", "opening_hours": "Mo-Fr 08:00-14:30; Sa-Su 08:00-15:00", "smoking": "no"}}, {"type": "node", "id": 10588212705, "lat": 49.3232875, "lon": -123.0720089, "tags": {"amenity": "restaurant", "cuisine": "persian", "name": "Akbar Joojeh", "outdoor_seating": "no", "phone": "+1 604-770-1010", "self_service": "no", "website": "https://www.akbarjoojeh.ca"}}, {"type": "node", "id": 10798574739, "lat": 49.3256907, "lon": -123.0724742, "tags": {"amenity": "fast_food", "cuisine": "falafel", "name": "Best Falafel"}}, {"type": "node", "id": 11182331253, "lat": 49.3204821, "lon": -123.072635, "tags": {"addr:city": "North Vancouver", "addr:housenumber": "1325", "addr:province": "BC", "addr:street": "Lonsdale Avenue", "addr:unit": "105", "amenity": "restaurant", "cuisine": "ramen", "name": "KINTON RAMEN", "opening_hours": "Mo-Su 11:00-22:00"}}, {"type": "node", "id": 11182331254, "lat": 49.3230826, "lon": -123.072076, "tags": {"addr:city": "North Vancouver", "addr:housenumber": "1564", "addr:province": "BC", "addr:street": "Lonsdale Avenue", "amenity": "restaurant", "name": "Bukchon Korean Cuisine"}}, {"type": "node", "id": 11182331255, "lat": 49.3236666, "lon": -123.0725268, "tags": {"addr:city": "North Vancouver", "addr:housenumber": "1629", "addr:province": "BC", "addr:street": "Lonsdale Avenue", "amenity": "restaurant", "name": "Shishlik Grill House"}}, {"type": "node", "id": 11534864469, "lat": 49.3127032, "lon": -123.0758594, "tags": {"addr:housenumber": "149", "addr:postcode": "V7L 1E5", "addr:street": "East 3rd Street", "amenity": "restaurant", "cuisine": "filipino", "name": "Alloz Grill", "website": "https://allozgrill.business.site"}}, {"type": "node", "id": 11991261277, "lat": 49.3118877, "lon": -123.0765498, "tags": {"addr:city": "North Vancouver", "addr:housenumber": "137", "addr:province": "BC", "addr:street": "East 2nd Street", "amenity": "restaurant", "contact:phone": "+1 604-987-3303", "contact:website": "https://coral-court.com", "cuisine": "chinese", "level": "0", "name": "Coral Court Szechuan Cuisine", "opening_hours": "Mo-Su 11:30-15:00,16:00-21:00"}}, {"type": "node", "id": 12024654583, "lat": 49.3113021, "lon": -123.0784509, "tags": {"addr:housenumber": "111", "addr:street": "East 1st Street", "addr:unit": "B2", "amenity": "fast_food", "cuisine": "donut;fried_chicken", "name": "Cream Pony", "opening_hours": "Mo,Tu 09:00-19:00; We-Fr 09:00-20:00; Sa,Su 09:00-21:00"}}, {"type": "node", "id": 12024661687, "lat": 49.3191178, "lon": -123.0726664, "tags": {"addr:housenumber": "1209", "addr:street": "Lonsdale Avenue", "amenity": "restaurant", "contact:phone": "+1-604-985-3006", "contact:website": "https://www.bravocucinanorthvancouver.com/", "cuisine": "italian", "name": "Bravo Cucina Ristorante Italiano", "opening_hours": "Mo-Th 11:30-14:00,17:00-21:00; Fr 11:30-14:00,17:00-23:00; Sa 17:00-23:00; Su 17:00-21:00"}}, {"type": "node", "id": 12099961393, "lat": 49.312302, "lon": -123.0779397, "tags": {"addr:housenumber": "140", "addr:street": "Lonsdale Avenue", "amenity": "restaurant", "contact:phone": "+1-604-990-9168", "contact:website": "https://jlsushi.ca/", "cuisine": "sushi;japanese", "name": "Sushi & Kitchen", "opening_hours": "Mo-Th 11:30-15:00,16:00-20:50; Fr 11:30-20:50; Sa 11:30-15:00,16:00-20:50; Su 12:00-15:00,16:00-20:50"}}, {"type": "node", "id": 12133370825, "lat": 49.3201455, "lon": -123.072056, "tags": {"addr:housenumber": "1300", "addr:street": "Lonsdale Avenue", "amenity": "fast_food", "contact:phone": "+1-236-551-2255", "contact:website": "https://www.ykikipoke.com/", "name": "Ykiki Poke", "opening_hours": "Mo-Su 11:00-21:00", "takeaway": "yes"}}, {"type": "node", "id": 12217028266, "lat": 49.321441, "lon": -123.072694, "tags": {"addr:city": "North Vancouver", "addr:housenumber": "1433", "addr:province": "BC", "addr:street": "Lonsdale Avenue", "amenity": "restaurant", "check_date": "2024-12-03", "check_date:currency:XBT": "2025-09-18", "currency:XBT": "yes", "name": "Jack Lonsdale's Public House", "payment:coinos": "yes", "payment:lightning": "yes", "payment:onchain": "yes", "phone": "+1-604-986-7333", "website": "https://jacklonsdales.ca/"}}, {"type": "node", "id": 12496985006, "lat": 49.321834, "lon": -123.0713306, "tags": {"amenity": "cafe", "check_date": "2025-01-12", "name": "Haida Sandwich", "phone": "+1 6049716021"}}, {"type": "node", "id": 12516872997, "lat": 49.3110822, "lon": -123.081236, "tags": {"addr:housenumber": "128", "addr:street": "Carrie Cates Court", "amenity": "restaurant", "check_date": "2025-10-21", "check_date:smoking": "2025-10-21", "indoor_seating": "yes", "name": "Catch 122", "outdoor_seating": "yes", "smoking": "no"}}, {"type": "node", "id": 12530468441, "lat": 49.3216815, "lon": -123.0721243, "tags": {"amenity": "restaurant", "cuisine": "vietnamese", "name": "Pho Spot", "smoking": "no"}}, {"type": "node", "id": 12573186803, "lat": 49.3120038, "lon": -123.0793968, "tags": {"addr:housenumber": "113", "addr:street": "West 1st Street", "amenity": "fast_food", "contact:phone": "+1-877-352-2063", "cuisine": "pizza", "name": "Dave & Mel's Pizzeria", "opening_hours": "Mo 12:00-21:00; Tu-Th 11:30-21-00; Fr-Sa 11:30-22:00"}}, {"type": "node", "id": 12594475946, "lat": 49.3118386, "lon": -123.0789907, "tags": {"addr:housenumber": "93", "addr:street": "Lonsdale Avenue", "amenity": "cafe", "brand": "49th Parallel Coffee Roasters", "brand:wikidata": "Q104844785", "contact:phone": "+1-236-477-5509", "contact:website": "https://49thcoffee.com/pages/locations-north-vancouver", "cuisine": "coffee_shop", "name": "49th Parallel Coffee Roasters", "opening_hours": "Mo-Su 07:00-18:00", "smoking": "no", "takeaway": "yes"}}, {"type": "node", "id": 12709130458, "lat": 49.3207571, "lon": -123.0721438, "tags": {"air_conditioning": "yes", "amenity": "restaurant", "cuisine": "italian", "name": "Roma Italian Ristorante", "opening_hours": "Mo-Su 11:30-22:00", "payment:credit_cards": "yes", "payment:debit_cards": "yes", "phone": "+1-604-990-9986", "smoking": "no", "wheelchair": "no"}}, {"type": "way", "id": 118932487, "nodes": [1336892560, 1336892561, 1336892558, 1336892557, 1336892563, 1336892562, 1336892564, 1336892559, 1336892560], "tags": {"addr:city": "North Vancouver", "addr:housenumber": "1780", "addr:province": "BC", "addr:street": "Lonsdale Avenue", "amenity": "restaurant", "building": "yes", "name": "Browns Socialhouse"}}, {"type": "way", "id": 165256983, "nodes": [1768129173, 1768129217, 1768129184, 1768129166, 1768129230, 1768129183, 1768129173], "tags": {"addr:city": "North Vancouver City", "addr:housenumber": "741", "addr:street": "Lonsdale Avenue", "amenity": "restaurant", "building": "yes", "cuisine": "chinese", "name": "Red Chilli Szechuan", "opening_hours": "Tu-Th,Sa,Su 13:30-21:00; Fr 11:30-21:00", "phone": "+1-604-986-2088"}}, {"type": "way", "id": 165256994, "nodes": [1768129139, 1768129166, 1768129184, 1768129238, 1768129240, 1768129210, 1768129139], "tags": {"addr:city": "North Vancouver City", "addr:housenumber": "731", "addr:street": "Lonsdale Avenue", "amenity": "restaurant", "building": "yes", "cuisine": "persian", "name": "Kolbeh", "phone": "+1-604-990-0062", "smoking": "no", "takeaway": "yes"}}, {"type": "way", "id": 165275388, "nodes": [1768311356, 1768311295, 1768311353, 1768311308, 1768311325, 1768311344, 1768311339, 1768311356], "tags": {"addr:city": "North Vancouver City", "addr:housenumber": "132", "addr:province": "BC", "addr:street": "West 3rd Street", "amenity": "restaurant", "building": "yes", "cuisine": "greek", "name": "Mythos Taverna"}}, {"type": "way", "id": 540887248, "nodes": [5231664924, 5231664925, 5231664926, 5231664927, 5231664924], "tags": {"addr:city": "North Vancouver City", "addr:housenumber": "71", "addr:street": "Lonsdale Avenue", "amenity": "restaurant", "building": "yes", "cuisine": "german", "indoor_seating": "yes", "name": "J\u00e4gerhof", "outdoor_seating": "no", "smoking": "no"}}]}