{"version": 0.6, "generator": "Overpass API 0.7.62.8 e802775f", "osm3s": {"timestamp_osm_base": "2025-11-22T19:08:00Z", "copyright": "The data included in this document is from www.openstreetmap.org. The data is made available under ODbL."}, "elements": [{"type": "node", "id": 338165917, "lat": 49.1660487, "lon": -123.1375967}, {"type": "node", "id": 338165918, "lat": 49.1660934, "lon": -123.1377375}, {"type": "node", "id": 338165919, "lat": 49.1665792, "lon": -123.1377348}, {"type": "node", "id": 338165920, "lat": 49.1666029, "lon": -123.1375954}, {"type": "node", "id": 768967487, "lat": 49.1722688, "lon": -123.136106, "tags": {"addr:city": "Richmond", "addr:housenumber": "8111", "addr:postcode": "V6X 3J9", "addr:province": "BC", "addr:street": "Ackroyd Road", "addr:unit": "140", "amenity": "cafe", "brand": "Starbucks", "brand:wikidata": "Q37158", "brand:wikipedia": "en:Starbucks", "cuisine": "coffee_shop", "internet_access": "wlan", "internet_access:fee": "no", "internet_access:ssid": "Starbucks Wifi", "name": "Starbucks", "official_name": "Starbucks Coffee", "opening_hours": "Mo-Su 05:30-19:30; Sa 06:00-19:30; Su 06:00-19:30", "outdoor_seating": "yes", "phone": "+1-604-279-9676", "takeaway": "yes", "website": "https://www.starbucks.ca/store-locator/store/1299"}}, {"type": "node", "id": 768967488, "lat": 49.1719086, "lon": -123.1361294}, {"type": "node", "id": 768967489, "lat": 49.171717, "lon": -123.1361323}, {"type": "node", "id": 768967490, "lat": 49.1716989, "lon": -123.1357454}, {"type": "node", "id": 768967491, "lat": 49.17189, "lon": -123.1359584}, {"type": "node", "id": 768967658, "lat": 49.1711386, "lon": -123.136051, "tags": {"addr:city": "Richmond", "addr:housenumber": "8100", "addr:street": "Ackroyd Road", "addr:unit": "50", "amenity": "restaurant", "check_date": "2025-10-18", "indoor_seating": "yes", "name": "Gyubee Japanese Grill", "opening_hours": "Mo-Su 12:00-23:00", "outdoor_seating": "no", "smoking": "no"}}, {"type": "node", "id": 768967659, "lat": 49.1712706, "lon": -123.135892, "tags": {"addr:city": "Richmond", "amenity": "cafe", "brand": "Blenz Coffee", "brand:wikidata": "Q4926090", "check_date": "2025-10-18", "cuisine": "coffee_shop", "diet:vegetarian": "yes", "indoor_seating": "yes", "name": "Blenz Coffee", "opening_hours": "Su-Th 07:00-19:30; Fr,Sa 07:00-21:00", "outdoor_seating": "yes", "smoking": "no", "takeaway": "yes", "wheelchair": "yes"}}, {"type": "node", "id": 769453762, "lat": 49.1645143, "lon": -123.136119, "tags": {"addr:city": "Richmond", "addr:housenumber": "6780", "addr:postcode": "V6Y 2C4", "addr:province": "BC", "addr:street": "Number 3 Road", "amenity": "restaurant", "brand": "IHOP", "brand:wikidata": "Q1185675", "brand:wikipedia": "en:IHOP", "check_date": "2024-09-03", "cuisine": "breakfast;pancake", "name": "IHOP", "opening_hours": "07:00-21:00", "phone": "+1 604-273-3411", "source": "official website", "website": "https://restaurants.ihop.com/en-ca/bc/richmond/breakfast-6780-number-3-road-0304"}}, {"type": "node", "id": 769453907, "lat": 49.1708481, "lon": -123.1369363, "tags": {"addr:city": "Richmond", "addr:housenumber": "5951", "addr:postcode": "V6X 2E3", "addr:street": "Number 3 Road", "addr:unit": "200", "amenity": "restaurant", "cuisine": "chinese", "name": "Empire Seafood Restaurant", "note": "Open 7 days a week (including Christmas Day)", "opening_hours": "09:00-15:00; 17:30-22:30", "smoking": "no", "website": "https://www.empirerestaurant.ca/"}}, {"type": "node", "id": 1289751969, "lat": 49.1642526, "lon": -123.134705, "tags": {"addr:city": "Richmond", "addr:housenumber": "8130", "addr:province": "BC", "addr:street": "Park Road", "amenity": "restaurant", "cuisine": "filipino", "name": "Kumare Restaurant & Bakery", "opening_hours": "Mo-Su 09:30-21:00"}}, {"type": "node", "id": 1446631822, "lat": 49.175189, "lon": -123.13441}, {"type": "node", "id": 1446631823, "lat": 49.1751901, "lon": -123.1345726}, {"type": "node", "id": 1673005364, "lat": 49.1700091, "lon": -123.1316949}, {"type": "node", "id": 1673005365, "lat": 49.1700092, "lon": -123.1318476}, {"type": "node", "id": 1673005366, "lat": 49.1697914, "lon": -123.1316979}, {"type": "node", "id": 1673005367, "lat": 49.1697906, "lon": -123.1318488}, {"type": "node", "id": 2630439795, "lat": 49.1724594, "lon": -123.1361327, "tags": {"addr:city": "Richmond", "addr:housenumber": "8111", "addr:postcode": "V6X 3J9", "addr:street": "Ackroyd Road", "addr:unit": "100", "amenity": "restaurant", "name": "Myth Grill & Yakitori Bistro", "phone": "+1-778-297-6555"}}, {"type": "node", "id": 3630714966, "lat": 49.1615732, "lon": -123.136137}, {"type": "node", "id": 3630714967, "lat": 49.1615694, "lon": -123.1356603}, {"type": "node", "id": 3630714976, "lat": 49.1617189, "lon": -123.1361343}, {"type": "node", "id": 3630714977, "lat": 49.1617151, "lon": -123.1356576}, {"type": "node", "id": 4279705966, "lat": 49.1698815, "lon": -123.1368146, "tags": {"addr:city": "Richmond", "addr:housenumber": "105-6011", "addr:postcode": "V6Y 2B2", "addr:street": "Number 3 Road", "amenity": "cafe", "cuisine": "coffee_shop", "name": "theVenti", "takeaway": "yes"}}, {"type": "node", "id": 4419829858, "lat": 49.1697933, "lon": -123.1378771, "tags": {"addr:housenumber": "7900", "addr:street": "Westminster Highway", "amenity": "restaurant", "name": "Kirin Seafood Restaurant"}}, {"type": "node", "id": 4439613736, "lat": 49.1707675, "lon": -123.135859, "tags": {"addr:city": "Richmond", "addr:housenumber": "5890", "addr:province": "BC", "addr:street": "Number 3 Road", "addr:unit": "200", "amenity": "restaurant", "brand": "Haidilao Hot Pot", "brand:en": "Haidilao Hot Pot", "brand:wikidata": "Q5638920", "brand:zh": "\u6d77\u5e95\u635e\u706b\u9505", "cuisine": "chinese;hotpot", "indoor_seating": "yes", "name": "Haidilao Hot Pot", "name:en": "Haidilao Hot Pot", "name:zh": "\u6d77\u5e95\u635e\u706b\u9505", "opening_hours": "Su-Th 11:00-03:00; Fr-Sa 11:00-04:00", "outdoor_seating": "no", "phone": "+1-604-370-6665", "smoking": "no", "website": "https://www.haidilao-inc.com/ca"}}, {"type": "node", "id": 4448730307, "lat": 49.1630345, "lon": -123.1363814, "tags": {"addr:housenumber": "6950", "addr:street": "Number 3 Road", "amenity": "restaurant", "cuisine": "vietnamese", "name": "Pho Lan Beef Noodle Soup", "opening_hours": "Mo-Su 10:30-22:00", "payment:cash": "yes", "payment:credit_cards": "no", "payment:debit_cards": "no", "payment:interac_e-transfer": "yes", "toilets": "yes", "toilets:access": "customers"}}, {"type": "node", "id": 4625371589, "lat": 49.1721, "lon": -123.132726, "tags": {"addr:city": "Richmond", "addr:housenumber": "8231", "addr:province": "BC", "addr:street": "Ackroyd Road", "amenity": "restaurant", "name": "Once More Restaurant"}}, {"type": "node", "id": 4636117790, "lat": 49.172236, "lon": -123.135835, "tags": {"addr:city": "Richmond", "addr:housenumber": "8111", "addr:postcode": "V6X 3J9", "addr:province": "BC", "addr:street": "Ackroyd Road", "addr:unit": "160", "amenity": "restaurant", "name": "Piping Hot", "phone": "+1-604-370-9600", "smoking": "no"}}, {"type": "node", "id": 4670413996, "lat": 49.1743008, "lon": -123.1462035, "tags": {"amenity": "cafe", "name": "Big Rock Caf\u00e9", "name:en": "Big Rock Caf\u00e9", "opening_hours": "Mo-Fr 10:00-21:15; Sa 10:00-15:00; Su 10:00-16:00", "phone": "+1-604-278-1722"}}, {"type": "node", "id": 4892607422, "lat": 49.170376, "lon": -123.138704, "tags": {"addr:city": "Richmond", "addr:housenumber": "7831", "addr:postcode": "V6X 4J4", "addr:province": "BC", "addr:street": "Westminster Highway", "addr:unit": "110", "amenity": "restaurant", "cuisine": "asian", "fax": "+1 604 233 8874", "name": "Shanghai River Restaurant", "name:en": "Shanghai River", "opening_hours": "Mo-Fr 11:00-15:00,17:00-21:30; Sa,Su,PH 10:00-15:00,17:00-21:30", "phone": "+1 604 233 8885", "reservation": "recommended", "website": "https://www.shanghairivervancouver.com/", "website:menu": "https://www.shanghairivervancouver.com/menu"}}, {"type": "node", "id": 4981064355, "lat": 49.1642073, "lon": -123.136373, "tags": {"addr:city": "Richmond", "addr:housenumber": "6820", "addr:province": "BC", "addr:street": "Number 3 Road", "amenity": "restaurant", "check_date": "2024-04-03", "name": "Pho An Nam", "opening_hours": "11:00-22:00"}}, {"type": "node", "id": 4981091836, "lat": 49.1728469, "lon": -123.1361738, "tags": {"addr:city": "Richmond", "addr:housenumber": "8171", "addr:street": "Ackroyd Road", "addr:unit": "100", "amenity": "restaurant", "name": "Neptune Seafood Restaurant"}}, {"type": "node", "id": 5041710304, "lat": 49.1703624, "lon": -123.1323842, "tags": {"addr:city": "Richmond", "addr:housenumber": "180-8291", "addr:street": "Westminster Highway", "amenity": "restaurant", "name": "Kingspark Steak House"}}, {"type": "node", "id": 5041710305, "lat": 49.1705561, "lon": -123.1323956, "tags": {"addr:city": "Richmond", "addr:housenumber": "130-8291", "addr:street": "Westminster Highway", "amenity": "restaurant", "name": "Chuan BBQ Restaurant"}}, {"type": "node", "id": 5041710306, "lat": 49.1707296, "lon": -123.132402, "tags": {"addr:city": "Richmond", "addr:housenumber": "8291", "addr:province": "BC", "addr:street": "Westminster Highway", "addr:unit": "110", "amenity": "restaurant", "name": "Fisherman's Seafood House"}}, {"type": "node", "id": 5041710307, "lat": 49.1704519, "lon": -123.1329301, "tags": {"addr:city": "Richmond", "addr:housenumber": "8251", "addr:street": "Westminster Highway", "addr:unit": "60", "amenity": "restaurant", "name": "Beijing Hot Pot"}}, {"type": "node", "id": 5041710309, "lat": 49.1706192, "lon": -123.1330644, "tags": {"addr:city": "Richmond", "addr:housenumber": "8251", "addr:street": "Westminster Highway", "addr:unit": "40", "amenity": "restaurant", "name": "Banzai Sushi House"}}, {"type": "node", "id": 5041710310, "lat": 49.1705547, "lon": -123.133066, "tags": {"addr:city": "Richmond", "addr:housenumber": "8251", "addr:street": "Westminster Highway", "addr:unit": "50", "amenity": "restaurant", "name": "Tsim Chai Noodles"}}, {"type": "node", "id": 5041710312, "lat": 49.1707515, "lon": -123.1334065, "tags": {"addr:city": "Richmond", "addr:housenumber": "140-8211", "addr:street": "Westminster Highway", "amenity": "restaurant", "name": "Samsoonie Noodle & Rice"}}, {"type": "node", "id": 5041710313, "lat": 49.1708683, "lon": -123.134169, "tags": {"addr:city": "Richmond", "addr:housenumber": "8171", "addr:street": "Westminster Highway", "amenity": "restaurant", "name": "Enjoy Cafe 1+1"}}, {"type": "node", "id": 5041710316, "lat": 49.1699868, "lon": -123.134371, "tags": {"addr:city": "Richmond", "addr:housenumber": "8180", "addr:province": "BC", "addr:street": "Westminster Highway", "amenity": "restaurant", "cuisine": "thai", "name": "Thai Box Restaurant"}}, {"type": "node", "id": 5041710317, "lat": 49.1693064, "lon": -123.136163, "tags": {"addr:city": "Richmond", "addr:housenumber": "130-6068", "addr:street": "Number 3 Road", "amenity": "cafe", "cuisine": "bubble_tea", "name": "\u8993Me Coffee&Tea", "takeaway": "yes"}}, {"type": "node", "id": 5041710319, "lat": 49.171046, "lon": -123.1394324, "tags": {"addr:city": "Richmond", "addr:housenumber": "5960", "addr:street": "Minoru Boulevard", "amenity": "restaurant", "name": "Mui Garden", "opening_hours": "Mo-Su 11:00-20:30"}}, {"type": "node", "id": 5042146107, "lat": 49.1690148, "lon": -123.133937, "tags": {"addr:city": "Richmond", "addr:housenumber": "8191", "addr:street": "Saba Road", "addr:unit": "150", "amenity": "restaurant", "cuisine": "vietnamese", "name": "Ph\u1edf M&K Vietnamese House"}}, {"type": "node", "id": 5042146108, "lat": 49.16895, "lon": -123.1352595, "tags": {"addr:city": "Richmond", "addr:housenumber": "8033", "addr:province": "BC", "addr:street": "Saba Road", "addr:unit": "130", "amenity": "restaurant", "name": "Converge Restaurant"}}, {"type": "node", "id": 5042146109, "lat": 49.1687064, "lon": -123.135534, "tags": {"addr:city": "Richmond", "addr:housenumber": "120-8010", "addr:street": "Saba Road", "amenity": "fast_food", "brand": "Freshslice Pizza", "brand:wikidata": "Q5503082", "brand:wikipedia": "en:Freshslice Pizza", "cuisine": "pizza", "name": "Freshslice Pizza", "takeaway": "yes"}}, {"type": "node", "id": 5042147502, "lat": 49.1654384, "lon": -123.1377643}, {"type": "node", "id": 5173305064, "lat": 49.1665786, "lon": -123.1378101}, {"type": "node", "id": 5358206061, "lat": 49.1669349, "lon": -123.1393947}, {"type": "node", "id": 5358206064, "lat": 49.1657268, "lon": -123.137598}, {"type": "node", "id": 5358206065, "lat": 49.1658233, "lon": -123.1375976}, {"type": "node", "id": 5358206068, "lat": 49.1669308, "lon": -123.1375954}, {"type": "node", "id": 5358206088, "lat": 49.167046, "lon": -123.1375948}, {"type": "node", "id": 5358206090, "lat": 49.1679084, "lon": -123.1379854}, {"type": "node", "id": 5358206091, "lat": 49.1679366, "lon": -123.1379476}, {"type": "node", "id": 5358206099, "lat": 49.1670483, "lon": -123.1386666}, {"type": "node", "id": 5358206107, "lat": 49.1660917, "lon": -123.1376611}, {"type": "node", "id": 5358206108, "lat": 49.1665783, "lon": -123.1376316}, {"type": "node", "id": 5374181778, "lat": 49.1671045, "lon": -123.1378005}, {"type": "node", "id": 5374181780, "lat": 49.1671381, "lon": -123.1378004}, {"type": "node", "id": 5374181783, "lat": 49.1672151, "lon": -123.1377989}, {"type": "node", "id": 5374181784, "lat": 49.1671765, "lon": -123.1377995}, {"type": "node", "id": 5374181786, "lat": 49.1672676, "lon": -123.137798}, {"type": "node", "id": 5374181787, "lat": 49.1670464, "lon": -123.1378008}, {"type": "node", "id": 5374181788, "lat": 49.1672663, "lon": -123.1375923}, {"type": "node", "id": 5374181800, "lat": 49.1678376, "lon": -123.1376487}, {"type": "node", "id": 5374181801, "lat": 49.1678389, "lon": -123.1379859}, {"type": "node", "id": 5374181802, "lat": 49.1679344, "lon": -123.1376493}, {"type": "node", "id": 5426171535, "lat": 49.167345, "lon": -123.1385653}, {"type": "node", "id": 5426171555, "lat": 49.1654366, "lon": -123.1375992}, {"type": "node", "id": 5426171557, "lat": 49.1656514, "lon": -123.1377884}, {"type": "node", "id": 5426171558, "lat": 49.1657268, "lon": -123.1377869}, {"type": "node", "id": 5426171559, "lat": 49.1658233, "lon": -123.1377308}, {"type": "node", "id": 5426171562, "lat": 49.1658233, "lon": -123.137877}, {"type": "node", "id": 5426171563, "lat": 49.1659636, "lon": -123.137877}, {"type": "node", "id": 5426171564, "lat": 49.1658233, "lon": -123.1379816}, {"type": "node", "id": 5426171565, "lat": 49.1659636, "lon": -123.1379829}, {"type": "node", "id": 5426171566, "lat": 49.1659636, "lon": -123.1377348}, {"type": "node", "id": 5426171568, "lat": 49.1660171, "lon": -123.1377362}, {"type": "node", "id": 5426171576, "lat": 49.1666531, "lon": -123.1378084}, {"type": "node", "id": 5426171578, "lat": 49.1667159, "lon": -123.1378089}, {"type": "node", "id": 5426171583, "lat": 49.1669317, "lon": -123.1379777}, {"type": "node", "id": 5426171584, "lat": 49.1668245, "lon": -123.1379801}, {"type": "node", "id": 5426171585, "lat": 49.1668222, "lon": -123.1378076}, {"type": "node", "id": 5426171586, "lat": 49.166823, "lon": -123.1378951}, {"type": "node", "id": 5426171587, "lat": 49.1669315, "lon": -123.1378915}, {"type": "node", "id": 5426171588, "lat": 49.1669313, "lon": -123.1378064}, {"type": "node", "id": 5587381121, "lat": 49.1721471, "lon": -123.1335978, "tags": {"addr:city": "Richmond", "addr:housenumber": "8211", "addr:street": "Ackroyd Road", "addr:unit": "130", "amenity": "restaurant", "cuisine": "japanese", "name": "Tokyo Joe's Sushi"}}, {"type": "node", "id": 5591454122, "lat": 49.1713091, "lon": -123.1349132, "tags": {"addr:city": "Richmond", "addr:housenumber": "8100", "addr:street": "Ackroyd Road", "addr:unit": "130", "amenity": "restaurant", "cuisine": "chinese", "indoor_seating": "yes", "name": "Oriental Rice Noodle", "name:zh": "\u96f2\u5c1a\u904e\u6a4b\u7c73\u7dda", "opening_hours": "Su-Th 11:00-22:30; Fr-Sa 11:00-23:00", "outdoor_seating": "no", "phone": "+1-604-370-3738", "smoking": "no"}}, {"type": "node", "id": 5629830214, "lat": 49.1721939, "lon": -123.1335185, "tags": {"addr:city": "Richmond", "addr:housenumber": "8211", "addr:province": "BC", "addr:street": "Ackroyd Road", "addr:unit": "140", "amenity": "cafe", "cuisine": "bubble_tea", "description": "Koreean bingsu desserts", "name": "Sun Tea", "phone": "+1-604-285-2718", "website": "https://www.sulmidarichmond.com/"}}, {"type": "node", "id": 6043413427, "lat": 49.1636243, "lon": -123.1351027, "tags": {"addr:city": "Richmond", "addr:housenumber": "8111", "addr:province": "BC", "addr:street": "Anderson Road", "amenity": "restaurant", "name": "Golden Paramount Seafood Restaurant"}}, {"type": "node", "id": 6043413432, "lat": 49.1641291, "lon": -123.136378, "tags": {"addr:city": "Richmond", "addr:housenumber": "6838", "addr:province": "BC", "addr:street": "Number 3 Road", "amenity": "restaurant", "branch": "Richmond", "brand": "John 3:16 Malaysian Delights", "check_date": "2024-04-03", "name": "John 3:16 Malaysian Delights", "opening_hours": "Mo-Sa 11:00-15:00,17:00-21:30", "opening_hours:kitchen": "Mo-Sa 11:00-14:45; Mo-Sa 17:00-21:15", "phone": "+1-604-214-8181", "website": "https://john316mydelights.com"}}, {"type": "node", "id": 6043413433, "lat": 49.1633547, "lon": -123.1350931, "tags": {"addr:city": "Richmond", "addr:housenumber": "8080", "addr:street": "Anderson Road", "addr:unit": "110", "amenity": "cafe", "name": "Storeys Cafe", "website": "https://www.storeyscafe.org/"}}, {"type": "node", "id": 6043413436, "lat": 49.1622749, "lon": -123.132539, "tags": {"addr:city": "Richmond", "addr:housenumber": "8260", "addr:street": "Granville Avenue", "amenity": "restaurant", "name": "Wing Kee Restaurant"}}, {"type": "node", "id": 6043413437, "lat": 49.16229, "lon": -123.1316477, "tags": {"addr:city": "Richmond", "addr:housenumber": "8360", "addr:street": "Granville Avenue", "amenity": "restaurant", "name": "Redbud Restaurant", "opening_hours": "Mo-Su 11:00-22:00"}}, {"type": "node", "id": 6043413438, "lat": 49.1620454, "lon": -123.1316764, "tags": {"addr:city": "Richmond", "addr:housenumber": "8360", "addr:street": "Granville Avenue", "addr:unit": "145", "amenity": "restaurant", "name": "Sea Fortune Restaurant", "opening_hours": "Mo-Su 09:00-15:00,17:00-22:00"}}, {"type": "node", "id": 6043413456, "lat": 49.1691429, "lon": -123.136796, "tags": {"addr:city": "Richmond", "addr:housenumber": "6111", "addr:street": "Number 3 Road", "amenity": "restaurant", "cuisine": "chinese", "name": "Tian Shi Fu Restaurant", "opening_hours": "Mo-Su 11:30-14:00"}}, {"type": "node", "id": 6043413457, "lat": 49.1692987, "lon": -123.136793, "tags": {"addr:city": "Richmond", "addr:housenumber": "6091", "addr:province": "BC", "addr:street": "Number 3 Road", "amenity": "restaurant", "name": "Xiang Chuan Mansion"}}, {"type": "node", "id": 6043440876, "lat": 49.1737186, "lon": -123.1464033, "tags": {"addr:city": "Richmond", "addr:housenumber": "7488", "addr:province": "BC", "addr:street": "Lansdowne Road", "addr:unit": "135", "amenity": "restaurant", "cuisine": "chinese", "name": "Sing Cafe Fusion Style"}}, {"type": "node", "id": 6043440877, "lat": 49.1736747, "lon": -123.1472813, "tags": {"addr:city": "Richmond", "addr:housenumber": "5668", "addr:street": "Hollybridge Way", "addr:unit": "115", "amenity": "restaurant", "name": "JJang Korean BBQ and Social House"}}, {"type": "node", "id": 6147068653, "lat": 49.173166, "lon": -123.146525, "tags": {"addr:city": "Richmond", "addr:housenumber": "5555", "addr:street": "Gilbert Road", "addr:unit": "150", "amenity": "restaurant", "cuisine": "chinese", "name": "Dinesty Dumpling House"}}, {"type": "node", "id": 6147068654, "lat": 49.1741305, "lon": -123.143635, "tags": {"addr:city": "Richmond", "addr:housenumber": "7688", "addr:street": "Alderbridge Way", "addr:unit": "120", "amenity": "restaurant", "cuisine": "vietnamese", "name": "Co'm Vietnamese", "website": "https://www.comvietnamese.com/"}}, {"type": "node", "id": 6283800704, "lat": 49.1713829, "lon": -123.1356013, "tags": {"addr:city": "Richmond", "addr:housenumber": "8100", "addr:street": "Ackroyd Road", "addr:unit": "80", "amenity": "restaurant", "check_date": "2025-10-18", "indoor_seating": "yes", "name": "Myth Szechuan Cuisine", "outdoor_seating": "no"}}, {"type": "node", "id": 6283800705, "lat": 49.1713722, "lon": -123.1350086, "tags": {"addr:city": "Richmond", "addr:housenumber": "8100", "addr:street": "Ackroyd Road", "addr:unit": "120", "amenity": "restaurant", "cuisine": "chinese", "indoor_seating": "yes", "internet_access": "wlan", "internet_access:fee": "no", "name": "Top Shanghai Cuisine Restaurant", "opening_hours": "Mo-Su 10:30-22:30", "outdoor_seating": "no", "phone": "+1-604-278-8798", "smoking": "no", "website": "https://www.topshanghaicuisine.com/"}}, {"type": "node", "id": 6283800706, "lat": 49.1723518, "lon": -123.1324365, "tags": {"addr:city": "Richmond", "addr:housenumber": "8291", "addr:street": "Ackroyd Road", "addr:unit": "150", "amenity": "restaurant", "name": "Yanbian BBQ"}}, {"type": "node", "id": 6283800707, "lat": 49.1723529, "lon": -123.1332043, "tags": {"addr:city": "Richmond", "addr:housenumber": "8291", "addr:province": "BC", "addr:street": "Ackroyd Road", "addr:unit": "100", "amenity": "restaurant", "cuisine": "vietnamese", "name": "H\u1ed3ng Ph\u00e1t", "old_name": "Suhang Restaurant", "website": "https://hutieuhongphat.com/en/hong-phat-richmond-canada/"}}, {"type": "node", "id": 6312962180, "lat": 49.1615716, "lon": -123.1359364, "tags": {"entrance": "yes"}}, {"type": "node", "id": 6312962181, "lat": 49.1615713, "lon": -123.1358961, "tags": {"board_type": "history", "information": "board", "inscription": "In commemoration of the first McDonald's restaurant in Canada Opened June 1, 1967 Richmond, B.C.", "name": "First McDonald's in Canada", "tourism": "information", "website": "https://www.waymarking.com/waymarks/WM105G6_First_McDonalds_Restaurant_in_Canada_Richmond_BC"}}, {"type": "node", "id": 6638531589, "lat": 49.1700098, "lon": -123.1437868, "tags": {"addr:city": "Richmond", "addr:housenumber": "7260", "addr:street": "Westminster Highway", "amenity": "restaurant", "cuisine": "chinese", "name": "South Silk Road Restaurant"}}, {"type": "node", "id": 6862116515, "lat": 49.1689583, "lon": -123.1330128, "tags": {"addr:city": "Richmond", "addr:housenumber": "8279", "addr:street": "Saba Road", "addr:unit": "199", "amenity": "cafe", "brand": "Matcha Cafe Maiko", "brand:wikidata": "Q113528897", "cuisine": "coffee_shop", "name": "Matcha Cafe Maiko", "takeaway": "yes"}}, {"type": "node", "id": 7042637569, "lat": 49.171158, "lon": -123.1416095, "tags": {"addr:housenumber": "7551", "addr:street": "Westminster Highway", "amenity": "restaurant", "check_date:opening_hours": "2023-06-01", "cuisine": "buffet", "name": "Harold's", "opening_hours": "Su-Th 06:30-21:00, Fr-Sa 06:30-22:00", "website": "http://haroldskitchenbar.com"}}, {"type": "node", "id": 7083403418, "lat": 49.1642937, "lon": -123.1353047, "tags": {"addr:city": "Richmond", "addr:housenumber": "8088", "addr:province": "BC", "addr:street": "Park Road", "amenity": "restaurant", "cuisine": "noodle", "name": "Wo Fung Noodle Express"}}, {"type": "node", "id": 7083403420, "lat": 49.1704803, "lon": -123.1326878, "tags": {"addr:city": "Richmond", "addr:housenumber": "8271", "addr:province": "BC", "addr:street": "Westminster Highway", "addr:unit": "1", "amenity": "cafe", "cuisine": "bubble_tea", "name": "Mango Yummy"}}, {"type": "node", "id": 7083403421, "lat": 49.1712741, "lon": -123.134055, "tags": {"addr:city": "Richmond", "addr:housenumber": "8100", "addr:province": "BC", "addr:street": "Ackroyd Road", "addr:unit": "195", "amenity": "restaurant", "indoor_seating": "yes", "name": "Yang Guo Fu Malatang", "opening_hours": "Mo-Su 11:00-23:00", "outdoor_seating": "no", "smoking": "no"}}, {"type": "node", "id": 7083403422, "lat": 49.1704108, "lon": -123.1404738, "tags": {"addr:city": "Richmond", "addr:housenumber": "7571", "addr:province": "BC", "addr:street": "Westminster Highway", "amenity": "restaurant", "name": "75 West Coast Grill", "opening_hours": "Mo-Su 06:00-21:00"}}, {"type": "node", "id": 7557777885, "lat": 49.1700508, "lon": -123.137816, "tags": {"addr:city": "Richmond", "addr:housenumber": "7900", "addr:province": "BC", "addr:street": "Westminster Highway", "addr:unit": "101", "amenity": "fast_food", "brand": "Subway", "brand:wikidata": "Q244457", "brand:wikipedia": "en:Subway (restaurant)", "cuisine": "sandwich", "name": "Subway", "opening_hours": "24/7", "takeaway": "yes"}}, {"type": "node", "id": 8095747621, "lat": 49.170351, "lon": -123.1448673, "tags": {"addr:city": "Richmond", "addr:housenumber": "5991", "addr:postcode": "V6X 1A3", "addr:province": "BC", "addr:street": "Alderbridge Way", "amenity": "restaurant", "happy_hours": "15:00-18:00", "name": "Free Bird Table & Bar", "opening_hours": "07:00-22:00", "phone": "+1 604 279 5598", "website": "https://www.thefreebird.ca/aboutrichmond"}}, {"type": "node", "id": 8104515714, "lat": 49.1673444, "lon": -123.1384906}, {"type": "node", "id": 8464821422, "lat": 49.1737227, "lon": -123.1467201, "tags": {"addr:city": "Richmond", "addr:housenumber": "7488", "addr:postcode": "V7C 0B9", "addr:province": "BC", "addr:street": "Lansdowne Road", "addr:unit": "125", "amenity": "cafe", "cuisine": "bubble_tea", "internet_access": "wlan", "internet_access:fee": "customers", "name": "Penguin Bros.", "opening_hours": "Fr-Su 15:00-22:30", "outdoor_seating": "no", "phone": "+1-604-370-2697", "website": "https://www.penguinbros.net"}}, {"type": "node", "id": 9104523035, "lat": 49.1750112, "lon": -123.130625, "tags": {"addr:city": "Richmond", "addr:housenumber": "8311", "addr:province": "BC", "addr:street": "Lansdowne Road", "amenity": "cafe", "brand": "Xing Fu Tang", "brand:en": "Xing Fu Tang", "brand:wikidata": "Q95720330", "brand:wikipedia": "zh:\u5e78\u798f\u5802", "brand:zh": "\u5e78\u798f\u5802", "cuisine": "bubble_tea", "int_name": "Xing Fu Tang", "name": "Xing Fu Tang", "name:en": "Xing Fu Tang", "name:zh": "\u5e78\u798f\u5802", "outdoor_seating": "no", "takeaway": "yes"}}, {"type": "node", "id": 9760734095, "lat": 49.1736077, "lon": -123.1327199, "tags": {"amenity": "cafe", "cuisine": "coffee_shop", "email": "rkicoffeelab@gmail.com", "internet_access": "yes", "internet_access:fee": "customers", "name": "R Ki Coffee Lab", "opening_hours": "Th-Tu,PH 10:00-17:30", "phone": "+1-604-278-0774", "toilets": "yes", "toilets:access": "customers", "website": "https://rkicoffeelab.com"}}, {"type": "node", "id": 10065888256, "lat": 49.169084, "lon": -123.1339168, "tags": {"addr:city": "Richmond", "addr:housenumber": "6211", "addr:province": "BC", "addr:street": "Buswell Street", "addr:unit": "140", "amenity": "restaurant", "cuisine": "vietnamese", "name": "Obanhmi"}}, {"type": "node", "id": 10588654828, "lat": 49.1674861, "lon": -123.1357349, "tags": {"addr:city": "Richmond", "addr:housenumber": "6386", "addr:province": "BC", "addr:street": "Number 3 Road", "addr:unit": "165", "amenity": "cafe", "name": "PETPLS Caf\u00e9 & Supply"}}, {"type": "node", "id": 10740283187, "lat": 49.1636218, "lon": -123.1348258, "tags": {"addr:city": "Richmond", "addr:housenumber": "9111", "addr:province": "BC", "addr:street": "Anderson Road", "addr:unit": "180", "amenity": "restaurant", "name": "Kumo Sukiyaki Restaurant", "phone": "+1-672-673-5866"}}, {"type": "node", "id": 10815388996, "lat": 49.1708833, "lon": -123.1338252, "tags": {"amenity": "restaurant", "check_date": "2023-04-15", "cuisine": "chinese", "description": "Fish noodle soup", "name": "Grains Fish Noodle", "name:en": "Grains Fish Noodle", "payment:cards": "no", "payment:cash": "yes", "payment:credit_cards": "no", "payment:debit_cards": "no", "phone": "+1-778-318-2338"}}, {"type": "node", "id": 11182257341, "lat": 49.1707066, "lon": -123.1326429, "tags": {"addr:city": "Richmond", "addr:housenumber": "8271", "addr:province": "BC", "addr:street": "Westminster Highway", "addr:unit": "5", "amenity": "fast_food", "cuisine": "chicken", "name": "Chicko Chicken"}}, {"type": "node", "id": 11335014657, "lat": 49.16747, "lon": -123.1349778, "tags": {"addr:city": "Richmond", "addr:housenumber": "6386", "addr:province": "BC", "addr:street": "Number 3 Road", "addr:unit": "153", "amenity": "fast_food", "cuisine": "pizza", "name": "Uncle Fatih's Pizza"}}, {"type": "node", "id": 11512176291, "lat": 49.1666941, "lon": -123.1347739, "tags": {"addr:city": "Richmond", "addr:housenumber": "8133", "addr:province": "BC", "addr:street": "Cook Road", "addr:unit": "140", "amenity": "restaurant", "cuisine": "japanese", "name": "Yoki Tapas"}}, {"type": "node", "id": 11512176293, "lat": 49.1687065, "lon": -123.1357152, "tags": {"addr:city": "Richmond", "addr:housenumber": "8010", "addr:province": "BC", "addr:street": "Saba Road", "addr:unit": "110", "amenity": "restaurant", "cuisine": "ramen", "name": "Hokkaido Ramen Santouka"}}, {"type": "node", "id": 11512176294, "lat": 49.1710526, "lon": -123.13679, "tags": {"addr:city": "Richmond", "addr:housenumber": "5951", "addr:province": "BC", "addr:street": "Number 3 Road", "addr:unit": "118", "amenity": "fast_food", "brand": "Quesada", "brand:wikidata": "Q66070360", "cuisine": "mexican", "drive_through": "no", "name": "Quesada", "official_name": "Quesada Burritos & Tacos", "takeaway": "yes"}}, {"type": "node", "id": 11811067975, "lat": 49.1668279, "lon": -123.1361749, "tags": {"addr:city": "Richmond", "addr:housenumber": "6386", "addr:province": "BC", "addr:street": "Number 3 Road", "addr:unit": "195", "amenity": "cafe", "cuisine": "bubble_tea", "name": "Tea Industries"}}, {"type": "node", "id": 11811067976, "lat": 49.1667123, "lon": -123.135791, "tags": {"addr:city": "Richmond", "addr:housenumber": "6386", "addr:province": "BC", "addr:street": "Number 3 Road", "addr:unit": "110", "amenity": "fast_food", "cuisine": "pizza", "name": "Yummy Slice Pizza"}}, {"type": "node", "id": 12040963567, "lat": 49.1710445, "lon": -123.1398065, "tags": {"addr:city": "Richmond", "addr:housenumber": "5960", "addr:province": "BC", "addr:street": "Minoru Boulevard", "addr:unit": "140", "amenity": "restaurant", "name": "Jing Tan Grill House", "opening_hours": "Mo-Su 11:30-14:30,17:00-23:00"}}, {"type": "node", "id": 12040983169, "lat": 49.1751215, "lon": -123.1472565, "tags": {"addr:city": "Richmond", "addr:housenumber": "6628", "addr:province": "BC", "addr:street": "River Road", "addr:unit": "175", "amenity": "restaurant", "cuisine": "japanese", "name": "SYU Japanese Cuisine & Sushi Bar"}}, {"type": "node", "id": 12098198484, "lat": 49.171278, "lon": -123.1343497, "tags": {"addr:city": "Richmond", "addr:housenumber": "8100", "addr:province": "BC", "addr:street": "Ackroyd Road", "addr:unit": "175", "amenity": "restaurant", "branch": "Ackroyd", "indoor_seating": "yes", "name": "Big Way Hot Pot", "outdoor_seating": "no", "website": "https://www.bigwayhotpot.com"}}, {"type": "node", "id": 12387223980, "lat": 49.1666276, "lon": -123.1375953}, {"type": "node", "id": 12455022776, "lat": 49.1727529, "lon": -123.135531, "tags": {"addr:city": "Richmond", "addr:housenumber": "8171", "addr:province": "BC", "addr:street": "Ackroyd Road", "addr:unit": "130", "amenity": "restaurant", "name": "House of Dawn Steakhouse + Bar"}}, {"type": "node", "id": 12511419001, "lat": 49.1705095, "lon": -123.1396205, "tags": {"addr:city": "Richmond", "addr:housenumber": "7771", "addr:street": "Westminster Highway", "addr:unit": "140", "amenity": "fast_food", "brand": "Panago", "brand:wikidata": "Q17111672", "cuisine": "pizza", "name": "Panago", "opening_hours": "Su-Th 11:00-00:00; Fr-Sa 11:00-01:00", "takeaway": "yes", "website:menu": "https://www.panago.com/wp-content/uploads/2024/12/Q1_2025_Scroll_Menu-300_PL1.pdf"}}, {"type": "node", "id": 12523521211, "lat": 49.1673981, "lon": -123.1384897}, {"type": "node", "id": 12528226634, "lat": 49.1668031, "lon": -123.1394425}, {"type": "node", "id": 12528226635, "lat": 49.1668029, "lon": -123.1392392}, {"type": "node", "id": 12528226636, "lat": 49.1669345, "lon": -123.1392373}, {"type": "node", "id": 12528226654, "lat": 49.1673984, "lon": -123.1385646}, {"type": "node", "id": 12528226686, "lat": 49.1668602, "lon": -123.1392384}, {"type": "node", "id": 12528226688, "lat": 49.1668916, "lon": -123.1392379}, {"type": "node", "id": 12542783699, "lat": 49.1719224, "lon": -123.1362296}, {"type": "node", "id": 12542783700, "lat": 49.1719075, "lon": -123.1359582}, {"type": "node", "id": 12542785401, "lat": 49.1719218, "lon": -123.1361292}, {"type": "node", "id": 12542785402, "lat": 49.171805, "lon": -123.1361796}, {"type": "node", "id": 12542785403, "lat": 49.1717695, "lon": -123.136124}, {"type": "node", "id": 12542785404, "lat": 49.1717298, "lon": -123.1361534}, {"type": "node", "id": 12542785405, "lat": 49.1717496, "lon": -123.1361537}, {"type": "node", "id": 12542785406, "lat": 49.1717003, "lon": -123.1359646}, {"type": "node", "id": 12542785407, "lat": 49.1717163, "lon": -123.1359936}, {"type": "node", "id": 12542785408, "lat": 49.1718184, "lon": -123.1357437}, {"type": "node", "id": 12542785409, "lat": 49.1718191, "lon": -123.1358486}, {"type": "node", "id": 12542785410, "lat": 49.1718893, "lon": -123.1358475}, {"type": "node", "id": 12542785411, "lat": 49.1718585, "lon": -123.1361786}, {"type": "node", "id": 12542785412, "lat": 49.1718734, "lon": -123.1362061}, {"type": "node", "id": 12542785413, "lat": 49.1718735, "lon": -123.1362303}, {"type": "node", "id": 12550920475, "lat": 49.1704462, "lon": -123.1373673, "tags": {"addr:city": "Richmond", "addr:housenumber": "7997", "addr:province": "BC", "addr:street": "Westminster Highway", "addr:unit": "200", "amenity": "restaurant", "cuisine": "chinese", "name": "Parkhill Seafood Restaurant", "smoking": "no", "website": "https://www.parkhillrestaurant.com/"}}, {"type": "node", "id": 12550920477, "lat": 49.1706323, "lon": -123.1373731, "tags": {"amenity": "restaurant", "cuisine": "japanese", "name": "Real Love Sushi & BBQ"}}, {"type": "node", "id": 12550921038, "lat": 49.16748, "lon": -123.1353296, "tags": {"amenity": "cafe", "brand": "Chicha San Chen", "brand:en": "Chicha San Chen", "brand:wikidata": "Q133042869", "brand:zh": "\u5403\u8336\u4e09\u5343", "cuisine": "bubble_tea", "name": "Chicha San Chen", "name:en": "Chicha San Chen", "name:zh": "\u5403\u8336\u4e09\u5343", "takeaway": "yes"}}, {"type": "node", "id": 12550921039, "lat": 49.1673668, "lon": -123.1361286, "tags": {"amenity": "fast_food", "name": "Triple O's"}}, {"type": "node", "id": 12550921040, "lat": 49.1667249, "lon": -123.1360567, "tags": {"amenity": "cafe", "branch": "Paramount", "name": "Fresh Press Coffee Bar"}}, {"type": "node", "id": 12550921041, "lat": 49.1666991, "lon": -123.1352522, "tags": {"amenity": "cafe", "name": "Miion Caf\u00e9"}}, {"type": "node", "id": 12550921042, "lat": 49.1674854, "lon": -123.1354911, "tags": {"amenity": "restaurant", "cuisine": "chinese", "name": "A Bao Time"}}, {"type": "node", "id": 12573531228, "lat": 49.173312, "lon": -123.1464253, "tags": {"amenity": "cafe", "cuisine": "bubble_tea", "name": "Lattea"}}, {"type": "node", "id": 12591734880, "lat": 49.1674525, "lon": -123.1384893}, {"type": "node", "id": 12591734882, "lat": 49.1674528, "lon": -123.1385641}, {"type": "node", "id": 12591734885, "lat": 49.1680235, "lon": -123.1382969}, {"type": "node", "id": 12591734886, "lat": 49.1681496, "lon": -123.1382963}, {"type": "node", "id": 12591734888, "lat": 49.1681499, "lon": -123.1383905}, {"type": "node", "id": 12591734889, "lat": 49.1680239, "lon": -123.1383915}, {"type": "node", "id": 12591756207, "lat": 49.1684013, "lon": -123.1389748}, {"type": "node", "id": 12591756225, "lat": 49.168479, "lon": -123.1389015}, {"type": "node", "id": 12591756226, "lat": 49.1684005, "lon": -123.1389018}, {"type": "node", "id": 12591756227, "lat": 49.1683923, "lon": -123.1389917}, {"type": "node", "id": 12591756228, "lat": 49.1684787, "lon": -123.1389903}, {"type": "node", "id": 12591756273, "lat": 49.1681847, "lon": -123.1387441}, {"type": "node", "id": 12591756274, "lat": 49.1681847, "lon": -123.1387087}, {"type": "node", "id": 12591756275, "lat": 49.1681277, "lon": -123.1387087}, {"type": "node", "id": 12591756276, "lat": 49.1681277, "lon": -123.1387441}, {"type": "node", "id": 12591756287, "lat": 49.167048, "lon": -123.1385258}, {"type": "node", "id": 12591876196, "lat": 49.1658233, "lon": -123.1379644}, {"type": "node", "id": 12591880005, "lat": 49.1656508, "lon": -123.1377644}, {"type": "node", "id": 12591880006, "lat": 49.1655949, "lon": -123.1377654}, {"type": "node", "id": 12591880007, "lat": 49.1655506, "lon": -123.1377651}, {"type": "node", "id": 12591880008, "lat": 49.1654944, "lon": -123.1377647}, {"type": "node", "id": 12760239634, "lat": 49.167838, "lon": -123.1377619}, {"type": "node", "id": 12769734109, "lat": 49.1676338, "lon": -123.1390949}, {"type": "node", "id": 12769734110, "lat": 49.1675806, "lon": -123.1390956}, {"type": "node", "id": 12769734111, "lat": 49.1676065, "lon": -123.138849}, {"type": "node", "id": 12769734112, "lat": 49.1675806, "lon": -123.1388486}, {"type": "node", "id": 12769734113, "lat": 49.1675283, "lon": -123.1386446}, {"type": "node", "id": 12769734118, "lat": 49.1674822, "lon": -123.1392697}, {"type": "node", "id": 12769734119, "lat": 49.167482, "lon": -123.1391774}, {"type": "node", "id": 12769734121, "lat": 49.16729, "lon": -123.139232}, {"type": "node", "id": 12769734122, "lat": 49.1672303, "lon": -123.1392331}, {"type": "node", "id": 12769734123, "lat": 49.1673456, "lon": -123.1389437}, {"type": "node", "id": 12769734124, "lat": 49.1674066, "lon": -123.1388195}, {"type": "node", "id": 12769734125, "lat": 49.1673531, "lon": -123.1388194}, {"type": "node", "id": 12769734127, "lat": 49.1675062, "lon": -123.1384892}, {"type": "node", "id": 12769734202, "lat": 49.1676334, "lon": -123.139014}, {"type": "node", "id": 12769734203, "lat": 49.1676225, "lon": -123.1388794}, {"type": "node", "id": 12769734204, "lat": 49.1676065, "lon": -123.138855}, {"type": "node", "id": 12769734205, "lat": 49.1676224, "lon": -123.1388548}, {"type": "node", "id": 12769734206, "lat": 49.1676203, "lon": -123.1386424}, {"type": "node", "id": 12769734208, "lat": 49.1675346, "lon": -123.1391761}, {"type": "node", "id": 12769734209, "lat": 49.1675418, "lon": -123.1391915}, {"type": "node", "id": 12769734210, "lat": 49.1674318, "lon": -123.1391776}, {"type": "node", "id": 12769734211, "lat": 49.1673687, "lon": -123.1391773}, {"type": "node", "id": 12769734312, "lat": 49.1675458, "lon": -123.1392231}, {"type": "node", "id": 12769734314, "lat": 49.1673685, "lon": -123.139269}, {"type": "node", "id": 12769734315, "lat": 49.1673385, "lon": -123.1392876}, {"type": "node", "id": 12769734316, "lat": 49.1673685, "lon": -123.1392546}, {"type": "node", "id": 12769734318, "lat": 49.1672308, "lon": -123.1393197}, {"type": "node", "id": 12769734319, "lat": 49.1671683, "lon": -123.1393193}, {"type": "node", "id": 12769734320, "lat": 49.1671062, "lon": -123.139318}, {"type": "node", "id": 12769734321, "lat": 49.1671112, "lon": -123.1393181}, {"type": "node", "id": 12769734322, "lat": 49.1674058, "lon": -123.1389434}, {"type": "node", "id": 12769734323, "lat": 49.167506, "lon": -123.1385642}, {"type": "node", "id": 12769734409, "lat": 49.1676343, "lon": -123.1391775}, {"type": "node", "id": 12769734410, "lat": 49.1675813, "lon": -123.1391776}, {"type": "node", "id": 12769734411, "lat": 49.1675802, "lon": -123.1390147}, {"type": "node", "id": 12769734412, "lat": 49.1676335, "lon": -123.1389326}, {"type": "node", "id": 12769734413, "lat": 49.1675804, "lon": -123.138933}, {"type": "node", "id": 12769734414, "lat": 49.1676333, "lon": -123.1388794}, {"type": "node", "id": 12769734415, "lat": 49.1675304, "lon": -123.1388497}, {"type": "node", "id": 12769734419, "lat": 49.1675347, "lon": -123.1391917}, {"type": "node", "id": 12769734420, "lat": 49.1675422, "lon": -123.1392232}, {"type": "node", "id": 12769734421, "lat": 49.1675463, "lon": -123.1392694}, {"type": "node", "id": 12769734423, "lat": 49.1674317, "lon": -123.1392693}, {"type": "node", "id": 12769734426, "lat": 49.167352, "lon": -123.1392299}, {"type": "node", "id": 12769734427, "lat": 49.1673523, "lon": -123.1392712}, {"type": "node", "id": 12769734428, "lat": 49.1673384, "lon": -123.1392714}, {"type": "node", "id": 12769734429, "lat": 49.1672828, "lon": -123.1392995}, {"type": "node", "id": 12769734430, "lat": 49.1672829, "lon": -123.1393191}, {"type": "node", "id": 12769734432, "lat": 49.1671067, "lon": -123.1392486}, {"type": "node", "id": 12769734433, "lat": 49.1674059, "lon": -123.1389863}, {"type": "node", "id": 12769734434, "lat": 49.1673457, "lon": -123.1389867}, {"type": "node", "id": 12769734435, "lat": 49.167353, "lon": -123.1388737}, {"type": "node", "id": 12769734436, "lat": 49.1675059, "lon": -123.138564}, {"type": "node", "id": 12769734502, "lat": 49.1673522, "lon": -123.1392546}, {"type": "node", "id": 12769734602, "lat": 49.1674065, "lon": -123.1388911}, {"type": "node", "id": 12769734603, "lat": 49.167353, "lon": -123.1388909}, {"type": "node", "id": 12769734707, "lat": 49.1672903, "lon": -123.1392883}, {"type": "node", "id": 12769734804, "lat": 49.1672904, "lon": -123.1392994}, {"type": "node", "id": 12769734806, "lat": 49.1671683, "lon": -123.1392329}, {"type": "node", "id": 12769734810, "lat": 49.1673531, "lon": -123.1388435}, {"type": "node", "id": 12769734811, "lat": 49.1675734, "lon": -123.1385646}, {"type": "node", "id": 12769734812, "lat": 49.1675736, "lon": -123.1384898}, {"type": "node", "id": 12769734901, "lat": 49.1676223, "lon": -123.1388372}, {"type": "node", "id": 12769765603, "lat": 49.1677992, "lon": -123.1383132}, {"type": "node", "id": 12769765604, "lat": 49.1678001, "lon": -123.1383846}, {"type": "node", "id": 12769765606, "lat": 49.1679384, "lon": -123.1383132}, {"type": "node", "id": 12769765809, "lat": 49.1678303, "lon": -123.1383132}, {"type": "node", "id": 12769766101, "lat": 49.1679386, "lon": -123.1383833}, {"type": "node", "id": 12770795077, "lat": 49.1670995, "lon": -123.1385257}, {"type": "node", "id": 12770795078, "lat": 49.1670997, "lon": -123.1386665}, {"type": "node", "id": 12772851302, "lat": 49.1636183, "lon": -123.1346381, "tags": {"amenity": "cafe", "cuisine": "brunch;coffee_shop;sandwich;dessert", "name": "cafe & life co."}}, {"type": "node", "id": 12772851305, "lat": 49.1636218, "lon": -123.1343606, "tags": {"addr:city": "Richmond", "addr:housenumber": "6833", "addr:province": "BC", "addr:street": "Buswell Street", "addr:unit": "135", "amenity": "cafe", "cuisine": "tea;dessert", "name": "Tea Origin", "name:zh": "\u8317\u5916", "phone": "+1-604-285-9699", "website": "https://www.teaorigin.ca/"}}, {"type": "node", "id": 12772851308, "lat": 49.1648583, "lon": -123.1339829, "tags": {"amenity": "cafe", "brand": "Hui Lau Shan", "brand:en": "Hui Lau Shan", "brand:wikidata": "Q5934913", "brand:zh": "\u8a31\u7559\u5c71", "cuisine": "asian;dessert", "name": "Hui Lau Shan", "name:en": "Hui Lau Shan", "name:zh": "\u8a31\u7559\u5c71", "takeaway": "yes"}}, {"type": "node", "id": 12772851309, "lat": 49.1648675, "lon": -123.1353962, "tags": {"addr:city": "Richmond", "addr:housenumber": "8119", "addr:province": "BC", "addr:street": "Park Road", "addr:unit": "105", "amenity": "restaurant", "branch": "Park Road Richmond", "cuisine": "japanese", "name": "Sushi Lovers", "opening_hours": "Mo-Su 11:30-21:30", "phone": "+1-778-383-0033"}}, {"type": "node", "id": 12772851393, "lat": 49.1686976, "lon": -123.1341474, "tags": {"amenity": "cafe", "cuisine": "asian;dessert", "name": "Bubble Fruity"}}, {"type": "node", "id": 12772851395, "lat": 49.1687053, "lon": -123.1346957, "tags": {"amenity": "restaurant", "cuisine": "chinese", "diet:halal": "yes", "name": "Silkway Halal Cuisine"}}, {"type": "node", "id": 12772883166, "lat": 49.1700325, "lon": -123.1332936, "tags": {"amenity": "cafe", "name": "Eggette House"}}, {"type": "node", "id": 12772883167, "lat": 49.1700325, "lon": -123.1331783, "tags": {"amenity": "fast_food", "cuisine": "chinese", "name": "Wu Han Spicy Duck"}}, {"type": "node", "id": 12772883168, "lat": 49.1700343, "lon": -123.1330441, "tags": {"amenity": "restaurant", "cuisine": "afghan", "name": "Afghan Chopan Restaurant"}}, {"type": "node", "id": 12772974219, "lat": 49.1734218, "lon": -123.1317733, "tags": {"amenity": "restaurant", "cuisine": "chinese;noodle", "diet:halal": "yes", "name": "Quds Halal Noodle House", "name:zh": "\u53e4\u90fd\u65af\u5170\u5dde\u725b\u8089\u9762"}}, {"type": "node", "id": 12774489307, "lat": 49.1690951, "lon": -123.136794, "tags": {"amenity": "cafe", "cuisine": "bubble_tea", "name": "Milksha"}}, {"type": "node", "id": 12774748837, "lat": 49.174795, "lon": -123.1306306, "tags": {"amenity": "cafe", "brand": "Starbucks", "brand:wikidata": "Q37158", "cuisine": "coffee_shop", "name": "Starbucks", "official_name": "Starbucks Coffee", "takeaway": "yes"}}, {"type": "node", "id": 12827717121, "lat": 49.1669644, "lon": -123.1361819, "tags": {"addr:city": "Richmond", "addr:housenumber": "6386", "addr:province": "BC", "addr:street": "Number 3 Road", "addr:unit": "185", "amenity": "restaurant", "cuisine": "chinese", "name": "Lao Shan Dong Homemade Noodle House", "name:zh": "\u8001\u5c71\u6771\u9eb5\u838a", "website": "https://laoshandong.net"}}, {"type": "node", "id": 12827717122, "lat": 49.1648507, "lon": -123.1345765, "tags": {"addr:city": "Richmond", "addr:housenumber": "8119", "addr:province": "BC", "addr:street": "Park Road", "addr:unit": "120", "amenity": "restaurant", "brand": "Deer Garden Signatures", "cuisine": "chinese", "name": "Deer One Hotpot", "phone": "+1-604-821-6884", "website": "https://www.deeronehotpot.com/"}}, {"type": "node", "id": 12827717132, "lat": 49.1707646, "lon": -123.1338279, "tags": {"amenity": "restaurant", "cuisine": "chinese;barbecue", "name": "Juicy BBQ"}}, {"type": "node", "id": 12827717163, "lat": 49.172769, "lon": -123.1359934, "tags": {"addr:city": "Richmond", "addr:housenumber": "8171", "addr:province": "BC", "addr:street": "Ackroyd Road", "addr:unit": "110", "amenity": "fast_food", "cuisine": "chinese", "name": "Neptune Wonton Noodle"}}, {"type": "node", "id": 12873599689, "lat": 49.1707718, "lon": -123.1368258, "tags": {"addr:city": "Richmond", "addr:housenumber": "5951", "addr:province": "BC", "addr:street": "Number 3 Road", "addr:unit": "180", "amenity": "cafe", "brand": "Waves Coffee House", "brand:wikidata": "Q114096538", "cuisine": "coffee_shop", "name": "Waves Coffee House", "takeaway": "yes"}}, {"type": "node", "id": 12873599690, "lat": 49.1708947, "lon": -123.1368143, "tags": {"addr:city": "Richmond", "addr:housenumber": "5951", "addr:province": "BC", "addr:street": "Number 3 Road", "addr:unit": "150", "amenity": "restaurant", "cuisine": "japanese", "name": "Kiraku Sushi", "website": "https://kirakusushi.zomi.menu/"}}, {"type": "node", "id": 12873599692, "lat": 49.1697463, "lon": -123.1331147, "tags": {"addr:city": "Richmond", "addr:housenumber": "8260", "addr:province": "BC", "addr:street": "Westminster Highway", "amenity": "cafe", "cuisine": "bubble_tea", "name": "Peanut's Bubble Tea", "name:yue": "\u82b1\u751f\u7c73", "name:zh": "\u82b1\u751f\u7c73", "phone": "+1-604-278-9372"}}, {"type": "node", "id": 12873599693, "lat": 49.1696796, "lon": -123.1331173, "tags": {"addr:city": "Richmond", "addr:housenumber": "8260", "addr:province": "BC", "addr:street": "Westminster Highway", "addr:unit": "2460", "amenity": "fast_food", "cuisine": "chinese", "name": "Captain Wa", "phone": "+1-604-214-8162"}}, {"type": "node", "id": 12873599694, "lat": 49.1698421, "lon": -123.133116, "tags": {"addr:city": "Richmond", "addr:housenumber": "8260", "addr:province": "BC", "addr:street": "Westminster Highway", "addr:unit": "2110", "amenity": "fast_food", "cuisine": "vietnamese", "name": "Hight Dragon Vietnamese Cuisine", "phone": "+1-604-700-7901"}}, {"type": "node", "id": 12873599696, "lat": 49.1697215, "lon": -123.1334005, "tags": {"addr:city": "Richmond", "addr:housenumber": "8260", "addr:province": "BC", "addr:street": "Westminster Highway", "amenity": "fast_food", "cuisine": "chinese", "name": "Xi An Cuisine", "phone": "+1-778-709-8787"}}, {"type": "node", "id": 12873599697, "lat": 49.1696168, "lon": -123.1334003, "tags": {"addr:city": "Richmond", "addr:housenumber": "8260", "addr:province": "BC", "addr:street": "Westminster Highway", "addr:unit": "2270", "amenity": "fast_food", "cuisine": "chinese", "name": "1915 Lan Zhou Beef Noodle"}}, {"type": "node", "id": 12873599698, "lat": 49.1695562, "lon": -123.1334001, "tags": {"amenity": "fast_food", "cuisine": "chinese", "name": "Chef Liu Kitchen"}}, {"type": "node", "id": 12873599699, "lat": 49.1698301, "lon": -123.1334022, "tags": {"addr:city": "Richmond", "addr:housenumber": "8260", "addr:province": "BC", "addr:street": "Westminster Highway", "addr:unit": "2345", "amenity": "fast_food", "cuisine": "chinese", "name": "Hotpot Potato Noodle", "phone": "+1-604-214-9668"}}, {"type": "node", "id": 12873599700, "lat": 49.1694928, "lon": -123.1333979, "tags": {"addr:city": "Richmond", "addr:housenumber": "8260", "addr:province": "BC", "addr:street": "Westminster Highway", "amenity": "fast_food", "cuisine": "chinese", "name": "Hong Kong Cafeteria", "phone": "+1-778-713-1143"}}, {"type": "node", "id": 12873607001, "lat": 49.169429, "lon": -123.1332822, "tags": {"addr:city": "Richmond", "addr:housenumber": "8260", "addr:province": "BC", "addr:street": "Westminster Highway", "addr:unit": "2400", "amenity": "fast_food", "cuisine": "chinese", "name": "Mr. Dumpling", "name:zh": "\u5305\u597d\u5403"}}, {"type": "node", "id": 12873607002, "lat": 49.1694285, "lon": -123.1332359, "tags": {"addr:city": "Richmond", "addr:housenumber": "8260", "addr:province": "BC", "addr:street": "Westminster Highway", "addr:unit": "2400", "amenity": "cafe", "cuisine": "bubble_tea", "name": "Mr. Mango"}}, {"type": "node", "id": 12873607003, "lat": 49.1695393, "lon": -123.1331095, "tags": {"addr:city": "Richmond", "addr:housenumber": "8260", "addr:province": "BC", "addr:street": "Westminster Highway", "addr:unit": "2430", "amenity": "fast_food", "cuisine": "chinese", "name": "Hei Hei Rice Roll", "name:yue": "\u56cd\u8a18\u8178\u7c89", "name:zh": "\u56cd\u8a18\u8178\u7c89"}}, {"type": "node", "id": 12873607004, "lat": 49.1695806, "lon": -123.1331122, "tags": {"addr:city": "Richmond", "addr:housenumber": "8260", "addr:province": "BC", "addr:street": "Westminster Highway", "addr:unit": "2460", "amenity": "fast_food", "cuisine": "chinese", "name": "Chuan Siang Kitchen"}}, {"type": "node", "id": 12873607005, "lat": 49.1696702, "lon": -123.1333999, "tags": {"addr:city": "Richmond", "addr:housenumber": "8260", "addr:province": "BC", "addr:street": "Westminster Highway", "addr:unit": "2375", "amenity": "fast_food", "cuisine": "chinese", "name": "Wonder Wok"}}, {"type": "node", "id": 12873607006, "lat": 49.1694935, "lon": -123.1331088, "tags": {"addr:city": "Richmond", "addr:housenumber": "8260", "addr:province": "BC", "addr:street": "Westminster Highway", "addr:unit": "2350", "amenity": "fast_food", "cuisine": "chinese", "name": "Snail Rice Noodle King", "name:zh": "\u62fe\u87ba\u8bb0"}}, {"type": "node", "id": 12873607009, "lat": 49.169792, "lon": -123.1330015, "tags": {"addr:city": "Richmond", "addr:housenumber": "8260", "addr:province": "BC", "addr:street": "Westminster Highway", "addr:unit": "1520", "amenity": "restaurant", "cuisine": "barbecue", "name": "YM Food LTD HK Style BBQ"}}, {"type": "node", "id": 12874007861, "lat": 49.1632026, "lon": -123.1363816, "tags": {"addr:city": "Richmond", "addr:housenumber": "6920", "addr:province": "BC", "addr:street": "Number 3 Road", "amenity": "restaurant", "cuisine": "chinese", "name": "Bamboo Grove Restaurant", "phone": "+1-604-278-9585", "website": "https://bamboogrovevan.com/"}}, {"type": "node", "id": 12874007864, "lat": 49.1633703, "lon": -123.1363648, "tags": {"addr:city": "Richmond", "addr:housenumber": "6900", "addr:province": "BC", "addr:street": "Number 3 Road", "amenity": "fast_food", "cuisine": "chicken", "name": "King Fried Chicken", "name:zh": "K\u8bb0\u70b8\u9e21\u5c0f\u5356\u90e8"}}, {"type": "node", "id": 12874044094, "lat": 49.172746, "lon": -123.1346907, "tags": {"amenity": "fast_food", "cuisine": "chinese", "name": "DongShuJiaoMa"}}, {"type": "node", "id": 12903810203, "lat": 49.1705089, "lon": -123.1397502, "tags": {"addr:city": "Richmond", "addr:housenumber": "7771", "addr:province": "BC", "addr:street": "Westminster Highway", "addr:unit": "130", "amenity": "fast_food", "cuisine": "chinese", "name": "KungFu Dumplings"}}, {"type": "node", "id": 12903810204, "lat": 49.170486, "lon": -123.1394086, "tags": {"addr:unit": "180", "amenity": "restaurant", "cuisine": "chinese", "name": "Tasty BBQ & Beer Bar", "name:zh": "\u5c0f\u9152\u9986"}}, {"type": "node", "id": 12903810227, "lat": 49.1718536, "lon": -123.1404605, "tags": {"addr:city": "Richmond", "addr:housenumber": "5911", "addr:province": "BC", "addr:street": "Minoru Boulevard", "amenity": "restaurant", "cuisine": "regional", "name": "CAVU Kitchen Bar"}}, {"type": "node", "id": 12903810288, "lat": 49.1707337, "lon": -123.1472051, "tags": {"addr:city": "Richmond", "addr:housenumber": "7031", "addr:province": "BC", "addr:street": "Westminster Highway", "amenity": "fast_food", "cuisine": "sandwich", "name": "Yummy Deli & Coffee"}}, {"type": "node", "id": 13000098701, "lat": 49.1752073, "lon": -123.1316653}, {"type": "node", "id": 13000099108, "lat": 49.1751955, "lon": -123.1340121}, {"type": "node", "id": 13000099109, "lat": 49.1750636, "lon": -123.1345712}, {"type": "node", "id": 13000099217, "lat": 49.175062, "lon": -123.1340622}, {"type": "node", "id": 13000099422, "lat": 49.1752225, "lon": -123.1344094}, {"type": "node", "id": 13000099423, "lat": 49.1752214, "lon": -123.1340578}, {"type": "node", "id": 13000616461, "lat": 49.1750876, "lon": -123.1340128}, {"type": "node", "id": 13000616462, "lat": 49.1752223, "lon": -123.1343628}, {"type": "node", "id": 13000686301, "lat": 49.1752036, "lon": -123.1315202}, {"type": "node", "id": 13000686302, "lat": 49.175291, "lon": -123.1315188}, {"type": "node", "id": 13000686303, "lat": 49.1752923, "lon": -123.1316634}, {"type": "node", "id": 13000910729, "lat": 49.1756214, "lon": -123.1322491}, {"type": "node", "id": 13000910730, "lat": 49.1756227, "lon": -123.1321262}, {"type": "node", "id": 13000911019, "lat": 49.1756621, "lon": -123.132183}, {"type": "node", "id": 13000911512, "lat": 49.1755821, "lon": -123.1321934}, {"type": "node", "id": 13000930537, "lat": 49.1751893, "lon": -123.1344533, "tags": {"entrance": "shop"}}, {"type": "node", "id": 13036605600, "lat": 49.1616323, "lon": -123.1361359, "tags": {"entrance": "yes"}}, {"type": "node", "id": 13067800025, "lat": 49.1668353, "lon": -123.1393951}, {"type": "node", "id": 13067800039, "lat": 49.1668718, "lon": -123.1393948, "tags": {"door": "yes", "entrance": "shop", "level": "0"}}, {"type": "node", "id": 13067800040, "lat": 49.1666942, "lon": -123.1375951, "tags": {"door": "yes", "entrance": "shop", "level": "0"}}, {"type": "node", "id": 13067800041, "lat": 49.1671032, "lon": -123.1375949, "tags": {"door": "yes", "entrance": "shop", "level": "0"}}, {"type": "node", "id": 13153251015, "lat": 49.1700134, "lon": -123.1361993, "tags": {"addr:housenumber": "6020", "addr:street": "Number 3 Road", "addr:unit": "101", "amenity": "fast_food", "cuisine": "kebab", "drive_through": "no", "name": "Shawarma 2 Go Grill"}}, {"type": "node", "id": 13228091940, "lat": 49.167495, "lon": -123.1351417, "tags": {"amenity": "cafe", "cuisine": "bubble_tea", "name": "Choowee"}}, {"type": "way", "id": 61699187, "nodes": [768967488, 12542785401, 12542783699, 12542785413, 12542785412, 12542785411, 12542785402, 12542785403, 12542785405, 12542785404, 768967489, 12542785407, 12542785406, 768967490, 12542785408, 12542785409, 12542785410, 768967491, 12542783700, 768967488], "tags": {"addr:city": "Richmond", "addr:housenumber": "5880", "addr:postcode": "V6X 2E1", "addr:province": "BC", "addr:street": "Number 3 Road", "amenity": "restaurant", "brand": "White Spot", "brand:wikidata": "Q7995414", "building": "yes", "cuisine": "burger", "delivery": "yes", "email": "unit139@whitespot.ca", "name": "White Spot", "opening_hours": "08:00-22:00", "phone": "+1 604 273 3699", "ref": "139", "website": "https://www.whitespot.ca/locations/richmond-ackroyd/"}}, {"type": "way", "id": 154830664, "nodes": [1673005365, 1673005364, 1673005366, 1673005367, 1673005365], "tags": {"addr:housenumber": "8340", "addr:street": "Westminster Highway", "amenity": "restaurant", "brand": "Pizza Hut", "brand:wikidata": "Q191615", "brand:wikipedia": "en:Pizza Hut", "building": "yes", "cuisine": "pizza", "name": "Pizza Hut", "website": "https://www.pizzahut.ca/"}}, {"type": "way", "id": 358035257, "nodes": [3630714976, 3630714977, 3630714967, 6312962181, 6312962180, 3630714966, 13036605600, 3630714976], "tags": {"addr:city": "Richmond", "addr:housenumber": "7120", "addr:street": "Number 3 Road", "amenity": "fast_food", "brand": "McDonald's", "brand:wikidata": "Q38076", "building": "yes", "cuisine": "burger", "name": "McDonald's", "opening_hours": "24/7", "takeaway": "yes"}}, {"type": "way", "id": 557205389, "nodes": [5374181787, 5374181778, 5374181780, 5374181784, 5374181783, 5374181786, 5374181788, 13067800041, 5358206088, 5374181787], "tags": {"addr:housenumber": "6551", "addr:street": "Number 3 Road", "addr:unit": "1902", "amenity": "restaurant", "brand": "White Spot", "brand:wikidata": "Q7995414", "brand:wikipedia": "en:White Spot", "cuisine": "burger", "indoor": "room", "level": "0", "name": "White Spot", "room": "shop"}}, {"type": "way", "id": 557205394, "nodes": [5374181801, 12760239634, 5374181800, 5374181802, 5358206091, 5358206090, 5374181801], "tags": {"amenity": "cafe", "brand": "Starbucks", "brand:wikidata": "Q37158", "cuisine": "coffee_shop", "indoor": "room", "level": "0", "name": "Starbucks", "official_name": "Starbucks Coffee", "room": "shop", "takeaway": "yes"}}, {"type": "way", "id": 562964814, "nodes": [5426171558, 5426171557, 12591880005, 12591880006, 12591880007, 12591880008, 5042147502, 5426171555, 5358206064, 5426171558], "tags": {"addr:city": "Richmond", "addr:housenumber": "6551", "addr:street": "Number 3 Road", "amenity": "restaurant", "indoor": "room", "indoor_seating": "yes", "level": "0", "name": "Shi-Art Chinese Cuisine", "opening_hours": "Mo-Su 09:00-21:30", "outdoor_seating": "no", "room": "shop", "smoking": "no"}}, {"type": "way", "id": 562964816, "nodes": [5426171559, 5426171566, 5426171568, 338165918, 5358206107, 338165917, 5358206065, 5426171559], "tags": {"addr:housenumber": "6551", "addr:street": "Number 3 Road", "amenity": "cafe", "brand": "Tim Hortons", "brand:wikidata": "Q175106", "brand:wikipedia": "en:Tim Hortons", "cuisine": "coffee_shop", "indoor": "room", "indoor_seating": "yes", "internet_access": "wlan", "level": "0", "name": "Tim Hortons", "outdoor_seating": "no", "room": "shop", "takeaway": "yes"}}, {"type": "way", "id": 562964819, "nodes": [5426171563, 5426171562, 12591876196, 5426171564, 5426171565, 5426171563], "tags": {"addr:housenumber": "6551", "addr:street": "Number 3 Road", "amenity": "cafe", "cuisine": "bubble_tea", "indoor": "room", "level": "0", "name": "Hey! I am Yogost", "old_name": "Shiny Tea", "opening_hours": "closed", "room": "shop", "start_date": "2024-12-30"}}, {"type": "way", "id": 562964859, "nodes": [5426171586, 5426171584, 5426171583, 5426171587, 5426171586], "tags": {"amenity": "cafe", "brand": "Chatime", "brand:wikidata": "Q16829306", "brand:wikipedia": "en:DavidsTea", "cuisine": "bubble_tea", "indoor": "room", "level": "0", "name": "Chatime", "room": "shop", "takeaway": "yes"}}, {"type": "way", "id": 562964861, "nodes": [5426171588, 5426171585, 5426171578, 5426171576, 5173305064, 338165919, 5358206108, 338165920, 12387223980, 13067800040, 5358206068, 5426171588], "tags": {"addr:city": "Richmond", "addr:housenumber": "6551", "addr:street": "Number 3 Road", "amenity": "restaurant", "brand": "Cactus Club Cafe", "brand:wikidata": "Q5016149", "cuisine": "international", "indoor": "room", "level": "0", "name": "Cactus Club Cafe"}}, {"type": "way", "id": 1353818771, "nodes": [12528226634, 12528226635, 12528226686, 12528226688, 12528226636, 5358206061, 13067800039, 13067800025, 12528226634], "tags": {"amenity": "restaurant", "cuisine": "sushi", "indoor": "room", "level": "0", "name": "Hello Nori"}}, {"type": "way", "id": 1360165375, "nodes": [12769765606, 12769766101, 12769765604, 12769765603, 12769765809, 12769765606], "tags": {"amenity": "cafe", "brand": "Blenz Coffee", "brand:wikidata": "Q4926090", "cuisine": "coffee_shop", "indoor": "room", "layer": "-1", "level": "0", "name": "Blenz Coffee", "takeaway": "yes"}}, {"type": "way", "id": 1360217807, "nodes": [12591734886, 12591734888, 12591734889, 12591734885, 12591734886], "tags": {"amenity": "cafe", "brand": "CoCo", "brand:wikidata": "Q65084369", "cuisine": "bubble_tea", "indoor": "room", "level": "0", "name": "CoCo Fresh Tea & Juice", "short_name": "CoCo", "takeaway": "yes"}}, {"type": "way", "id": 1360217820, "nodes": [12591756227, 12591756228, 12591756225, 12591756226, 12591756207, 12591756227], "tags": {"amenity": "restaurant", "cuisine": "sushi", "indoor": "room", "level": "0", "name": "Togo Sushi"}}, {"type": "way", "id": 1360217833, "nodes": [12591756273, 12591756274, 12591756275, 12591756276, 12591756273], "tags": {"amenity": "fast_food", "brand": "Mr. Pretzels", "brand:wikidata": "Q115728208", "cuisine": "pretzel", "name": "Mr. Pretzels", "takeaway": "yes"}}, {"type": "way", "id": 1379030730, "nodes": [12769734409, 12769734109, 12769734110, 12769734410, 12769734409], "tags": {"amenity": "fast_food", "brand": "A&W", "brand:wikidata": "Q2818848", "cuisine": "burger", "indoor": "room", "level": "1", "name": "A&W", "takeaway": "yes"}}, {"type": "way", "id": 1379030731, "nodes": [12769734109, 12769734202, 12769734411, 12769734110, 12769734109], "tags": {"alt_name": "Kentucky Fried Chicken", "amenity": "fast_food", "brand": "KFC", "brand:wikidata": "Q524757", "cuisine": "chicken", "indoor": "room", "level": "1", "name": "KFC", "takeaway": "yes"}}, {"type": "way", "id": 1379030732, "nodes": [12769734202, 12769734412, 12769734413, 12769734411, 12769734202], "tags": {"amenity": "fast_food", "brand": "Subway", "brand:wikidata": "Q244457", "cuisine": "sandwich", "indoor": "room", "level": "1", "name": "Subway", "takeaway": "yes"}}, {"type": "way", "id": 1379030733, "nodes": [12769734412, 12769734414, 12769734203, 12769734205, 12769734204, 12769734111, 12769734112, 12769734413, 12769734412], "tags": {"amenity": "fast_food", "cuisine": "chinese;taiwanese", "indoor": "room", "level": "1", "name": "Dinesty Dumpling House"}}, {"type": "way", "id": 1379030734, "nodes": [12769734205, 12769734901, 12769734206, 12769734113, 12769734415, 12769734112, 12769734111, 12769734204, 12769734205], "tags": {"amenity": "fast_food", "indoor": "room", "level": "1", "name": "Umi Japanese Eatery & Udon Bar"}}, {"type": "way", "id": 1379030737, "nodes": [12769734208, 12769734419, 12769734209, 12769734420, 12769734312, 12769734421, 12769734118, 12769734119, 12769734208], "tags": {"amenity": "fast_food", "brand": "Bourbon St. Grill", "brand:wikidata": "Q123409942", "cuisine": "cajun", "indoor": "room", "level": "1", "name": "Bourbon St. Grill", "takeaway": "yes"}}, {"type": "way", "id": 1379030738, "nodes": [12769734118, 12769734119, 12769734210, 12769734423, 12769734118], "tags": {"amenity": "fast_food", "brand": "Tha\u00ef Express", "brand:wikidata": "Q7711610", "cuisine": "thai", "indoor": "room", "level": "1", "name": "Tha\u00ef Express", "takeaway": "yes"}}, {"type": "way", "id": 1379030739, "nodes": [12769734423, 12769734210, 12769734211, 12769734316, 12769734314, 12769734423], "tags": {"amenity": "fast_food", "cuisine": "chinese", "indoor": "room", "level": "1", "name": "Kung Pao Wok"}}, {"type": "way", "id": 1379030740, "nodes": [12769734707, 12769734121, 12769734426, 12769734502, 12769734427, 12769734428, 12769734315, 12769734707], "tags": {"amenity": "fast_food", "brand": "Jugo Juice", "brand:wikidata": "Q119705456", "cuisine": "juice", "indoor": "room", "level": "1", "name": "Jugo Juice", "takeaway": "yes"}}, {"type": "way", "id": 1379030742, "nodes": [12769734804, 12769734429, 12769734430, 12769734318, 12769734122, 12769734121, 12769734707, 12769734804], "tags": {"amenity": "fast_food", "cuisine": "indian", "indoor": "room", "level": "1", "name": "Curry Express"}}, {"type": "way", "id": 1379030743, "nodes": [12769734318, 12769734122, 12769734806, 12769734319, 12769734318], "tags": {"amenity": "fast_food", "brand": "New York Fries", "brand:wikidata": "Q7013558", "cuisine": "fries", "indoor": "room", "level": "1", "name": "New York Fries", "takeaway": "yes"}}, {"type": "way", "id": 1379030744, "nodes": [12769734319, 12769734806, 12769734432, 12769734320, 12769734321, 12769734319], "tags": {"amenity": "fast_food", "cuisine": "lebanese;middle_eastern;shawarma", "indoor": "room", "level": "1", "name": "Basha Restaurant"}}, {"type": "way", "id": 1379030746, "nodes": [12769734433, 12769734322, 12769734123, 12769734434, 12769734433], "tags": {"amenity": "fast_food", "brand": "Dairy Queen", "brand:wikidata": "Q1141226", "cuisine": "ice_cream;burger", "indoor": "room", "level": "1", "name": "Dairy Queen", "takeaway": "yes"}}, {"type": "way", "id": 1379030750, "nodes": [12769734602, 12769734124, 12769734125, 12769734810, 12769734435, 12769734603, 12769734602], "tags": {"amenity": "cafe", "brand": "Real Fruit Bubble Tea", "brand:wikidata": "Q66072331", "cuisine": "bubble_tea", "indoor": "room", "level": "1", "name": "Real Fruit Bubble Tea", "takeaway": "yes"}}, {"type": "way", "id": 1379030752, "nodes": [12769734811, 12769734812, 12769734127, 12769734436, 12769734811], "tags": {"amenity": "fast_food", "cuisine": "mexican", "indoor": "room", "level": "1", "name": "Don Tacos"}}, {"type": "way", "id": 1379030756, "nodes": [12769734323, 12769734127, 12591734880, 12591734882, 12769734323], "tags": {"amenity": "cafe", "brand": "Bubble Waffle Cafe", "brand:wikidata": "Q114914529", "cuisine": "waffle", "indoor": "room", "level": "1", "name": "Bubble Waffle Cafe", "name:en": "Bubble Waffle Cafe", "name:zh-Hant": "\u96de\u86cb\u4ed4\u9910\u5ef3", "takeaway": "yes"}}, {"type": "way", "id": 1379030757, "nodes": [12591734882, 12591734880, 12523521211, 12528226654, 12591734882], "tags": {"amenity": "fast_food", "indoor": "room", "level": "1", "name": "Opa! Of Greece"}}, {"type": "way", "id": 1379030758, "nodes": [12528226654, 12523521211, 8104515714, 5426171535, 12528226654], "tags": {"amenity": "fast_food", "brand": "Edo Japan", "brand:wikidata": "Q17492665", "cuisine": "japanese", "indoor": "room", "level": "1", "name": "Edo Japan", "takeaway": "yes"}}, {"type": "way", "id": 1379165907, "nodes": [12770795078, 12770795077, 12591756287, 5358206099, 12770795078], "tags": {"amenity": "cafe", "brand": "% Arabica", "brand:wikidata": "Q107639197", "cuisine": "coffee_shop", "indoor": "room", "level": "0", "name": "% Arabica", "takeaway": "yes"}}, {"type": "way", "id": 1414743615, "nodes": [13000099422, 13000616462, 13000099423, 13000099108, 13000616461, 13000099217, 13000099109, 1446631823, 13000930537, 1446631822, 13000099422], "tags": {"addr:city": "Richmond", "addr:housenumber": "5300", "addr:province": "BC", "addr:street": "Number 3 Road", "addr:unit": "720", "amenity": "restaurant", "cuisine": "chinese", "indoor": "room", "level": "0", "name": "The Dolar Shop"}}, {"type": "way", "id": 1414784809, "nodes": [13000686303, 13000686302, 13000686301, 13000098701, 13000686303], "tags": {"amenity": "cafe", "cuisine": "coffee_shop", "indoor": "room", "level": "0", "name": "Cotti Coffee"}}, {"type": "way", "id": 1414798961, "nodes": [13000911019, 13000910730, 13000911512, 13000910729, 13000911019], "tags": {"amenity": "fast_food", "cuisine": "japanese", "indoor": "room", "level": "0", "name": "Katte Poke Don & Japanese Curry"}}]}