{"version": 0.6, "generator": "Overpass API 0.7.62.8 e802775f", "osm3s": {"timestamp_osm_base": "2025-11-22T19:06:56Z", "copyright": "The data included in this document is from www.openstreetmap.org. The data is made available under ODbL."}, "elements": [{"type": "node", "id": 635894583, "lat": 49.2640388, "lon": -123.178066, "tags": {"amenity": "fast_food", "brand": "McDonald's", "brand:wikidata": "Q38076", "brand:wikipedia": "en:McDonald's", "check_date": "2024-05-01", "cuisine": "burger", "internet_access": "wlan", "name": "McDonald's", "opening_hours": "24/7", "takeaway": "yes", "website": "http://www.mcdonalds.ca/"}}, {"type": "node", "id": 644341993, "lat": 49.2643413, "lon": -123.1760619, "tags": {"addr:city": "Vancouver", "addr:housenumber": "3205", "addr:street": "West Broadway", "amenity": "restaurant", "check_date": "2025-05-23", "cuisine": "pizza", "name": "Olympia Pizza"}}, {"type": "node", "id": 644342005, "lat": 49.2642766, "lon": -123.1727212, "tags": {"addr:city": "Vancouver", "addr:housenumber": "3035", "addr:street": "West Broadway", "amenity": "restaurant", "name": "East is East", "opening_hours": "Su-Th 12:00-22:00; Fr,Sa 12:00-22:30", "smoking": "outside"}}, {"type": "node", "id": 644342008, "lat": 49.2639716, "lon": -123.1702755, "tags": {"amenity": "cafe", "brand": "JJ Bean", "brand:wikidata": "Q111937483", "cuisine": "coffee_shop", "name": "JJ Bean", "takeaway": "yes"}}, {"type": "node", "id": 644342018, "lat": 49.2641587, "lon": -123.164402, "tags": {"addr:city": "Vancouver", "addr:housenumber": "2585", "addr:postcode": "V6K 2E9", "addr:province": "BC", "addr:street": "West Broadway", "amenity": "restaurant", "contact:instagram": "folkerestaurant", "diet:vegan": "only", "email": "info@folkerestaurant.com", "indoor_seating": "yes", "name": "Folke", "opening_hours": "Th-Su 17:00-22:30; Mo 17:00-21:00", "outdoor_seating": "yes", "phone": "+1 236-455-6556", "website": "https://www.folkerestaurant.com/", "website:menu": "https://www.folkerestaurant.com/menus"}}, {"type": "node", "id": 644342020, "lat": 49.264149, "lon": -123.1633, "tags": {"addr:city": "Vancouver", "addr:housenumber": "2539", "addr:postcode": "V6K 2E9", "addr:province": "BC", "addr:street": "West Broadway", "amenity": "cafe", "cuisine": "coffee_shop", "indoor_seating": "yes", "name": "Thomas Haas Chocolates", "opening_hours": "Tu-Sa 08:00-17:30", "outdoor_seating": "yes", "phone": "+1 604 736-1848", "smoking": "no", "website": "https://www.thomashaas.com/"}}, {"type": "node", "id": 644348654, "lat": 49.2637411, "lon": -123.1578526, "tags": {"air_conditioning": "yes", "amenity": "cafe", "changing_table": "no", "check_date:opening_hours": "2025-05-04", "indoor_seating": "yes", "name": "Platform 7", "opening_hours": "Mo-Su 07:00-19:00", "outdoor_seating": "yes", "smoking": "no", "wheelchair": "yes"}}, {"type": "node", "id": 651057575, "lat": 49.26428, "lon": -123.1722925, "tags": {"addr:housenumber": "3005", "addr:street": "West Broadway", "amenity": "restaurant", "check_date": "2025-05-23", "cuisine": "malaysian", "name": "Banana Leaf", "phone": "+1-604-734-3005", "website": "https://www.bananaleaf-vancouver.com/"}}, {"type": "node", "id": 806903703, "lat": 49.2681926, "lon": -123.1647247, "tags": {"addr:city": "Vancouver", "addr:housenumber": "2610", "addr:postcode": "V6K 1P8", "addr:street": "West 4th Avenue", "amenity": "cafe", "check_date": "2025-06-22", "name": "Cafe Lokal", "opening_hours": "Mo-Su 07:30-18:00", "phone": "+1-604-739-0098", "website": "https://www.cafelokal.ca"}}, {"type": "node", "id": 889758799, "lat": 49.2680378, "lon": -123.1569284, "tags": {"addr:city": "Vancouver", "addr:housenumber": "2274", "addr:street": "West 4th Avenue", "amenity": "restaurant", "check_date": "2025-03-16", "cuisine": "japanese", "name": "Hi Nippon", "opening_hours": "Mo-Th 11:30-21:30; Fr-Sa 11:30-22:00; Su 11:30-21:30"}}, {"type": "node", "id": 955334959, "lat": 49.2680441, "lon": -123.1573309, "tags": {"addr:city": "Vancouver", "addr:housenumber": "2296", "addr:postcode": "V6K 1N8", "addr:province": "BC", "addr:street": "West 4th Avenue", "amenity": "cafe", "cuisine": "coffee_shop", "name": "Provisions Kitsilano", "opening_hours": "Mo-Su 08:00-20:00", "outdoor_seating": "yes", "phone": "+1 604 978 4299", "website": "https://provisionscafe.com/"}}, {"type": "node", "id": 961002756, "lat": 49.2637686, "lon": -123.163261, "tags": {"addr:city": "Vancouver", "addr:housenumber": "2518", "addr:postcode": "V6K 2G1", "addr:province": "BC", "addr:street": "West Broadway", "amenity": "restaurant", "brand": "White Spot", "brand:wikidata": "Q7995414", "brand:wikipedia": "en:White Spot", "cuisine": "burger", "diet:vegan": "no", "diet:vegetarian": "yes", "email": "unit104@whitespot.ca", "indoor_seating": "yes", "name": "White Spot", "opening_hours": "Mo-Th 07:00-22:00; Fr-Su 07:00-23:00", "outdoor_seating": "no", "phone": "+1 604 731-2434", "smoking": "no", "website": "https://www.whitespot.ca/locations/vancouver-kitsilano/"}}, {"type": "node", "id": 998854718, "lat": 49.2685244, "lon": -123.1709004, "tags": {"addr:housenumber": "2959", "addr:street": "West 4th Avenue", "amenity": "cafe", "name": "Artistry Coffee Shop & Bistro"}}, {"type": "node", "id": 1042157095, "lat": 49.264044, "lon": -123.174166, "tags": {"addr:city": "Vancouver", "addr:housenumber": "3102", "addr:street": "West Broadway", "amenity": "cafe", "brand": "Tim Hortons", "brand:wikidata": "Q175106", "brand:wikipedia": "en:Tim Hortons", "check_date": "2024-05-01", "cuisine": "coffee_shop", "drive_through": "no", "name": "Tim Hortons", "operator": "Restaurant Brands International Inc.", "takeaway": "yes", "website": "https://www.timhortons.com/"}}, {"type": "node", "id": 1042157300, "lat": 49.2639983, "lon": -123.1737583, "tags": {"amenity": "fast_food", "brand": "Subway", "brand:wikidata": "Q244457", "brand:wikipedia": "en:Subway (restaurant)", "cuisine": "sandwich", "name": "Subway", "opening_hours": "Mo-Fr 07:00-00:00; Sa 08:00-00:00; Su 09:00-23:00", "takeaway": "yes", "website": "https://www.subway.com/"}}, {"type": "node", "id": 1104199460, "lat": 49.2642246, "lon": -123.1686344, "tags": {"addr:housenumber": "2807", "addr:street": "West Broadway", "amenity": "restaurant", "cuisine": "vietnamese", "name": "Pho Japolo", "phone": "+1-604-737-1293", "website": "https://www.phojapolo.com/"}}, {"type": "node", "id": 1722601490, "lat": 49.264051, "lon": -123.175052, "tags": {"addr:city": "Vancouver", "addr:housenumber": "3144", "addr:street": "West Broadway", "amenity": "restaurant", "cuisine": "malaysian", "name": "Mamalee", "opening_hours": "Mo-Sa 11:00-18:30; PH \"off\"", "phone": "+1-604-733-8882", "reservation": "no", "website": "https://www.mamalee.ca/"}}, {"type": "node", "id": 1722601508, "lat": 49.2640543, "lon": -123.1748733, "tags": {"addr:city": "Vancouver", "addr:housenumber": "3132", "addr:province": "BC", "addr:street": "West Broadway", "amenity": "restaurant", "cuisine": "japanese", "name": "Uncle Pu's Sichuan Taste"}}, {"type": "node", "id": 1722601671, "lat": 49.2640299, "lon": -123.1745214, "tags": {"amenity": "restaurant", "cuisine": "lebanese", "diet:vegan": "yes", "name": "nuba"}}, {"type": "node", "id": 1722605265, "lat": 49.2640168, "lon": -123.173364, "tags": {"addr:city": "Vancouver", "addr:housenumber": "3066", "addr:street": "West Broadway", "amenity": "cafe", "name": "Neverland Tea Salon", "opening_hours": "Mo-Su 11:00-17:00", "phone": "+1-604-428-3066", "website": "https://neverlandtea.com/"}}, {"type": "node", "id": 1722613558, "lat": 49.2639753, "lon": -123.171349, "tags": {"amenity": "fast_food", "brand": "Domino's", "brand:wikidata": "Q839466", "brand:wikipedia": "en:Domino's Pizza", "cuisine": "pizza", "name": "Domino's", "takeaway": "yes"}}, {"type": "node", "id": 1722618438, "lat": 49.2639522, "lon": -123.169522, "tags": {"addr:city": "Vancouver", "addr:housenumber": "2872", "addr:street": "West Broadway", "amenity": "restaurant", "cuisine": "indian", "name": "Tandoori Fusion", "opening_hours": "Mo-Su 12:00-15:30, 16:30-22:00", "phone": "+1-604-738-2824", "website": "https://tandoorifusion.ca/"}}, {"type": "node", "id": 1722618444, "lat": 49.2639533, "lon": -123.169618, "tags": {"addr:city": "Vancouver", "addr:housenumber": "2884", "addr:province": "BC", "addr:street": "West Broadway", "amenity": "restaurant", "name": "The Painted Ship", "phone": "+1-604-734-0505"}}, {"type": "node", "id": 1722621136, "lat": 49.2639335, "lon": -123.167823, "tags": {"addr:city": "Vancouver", "addr:housenumber": "2778", "addr:province": "BC", "addr:street": "West Broadway", "amenity": "fast_food", "cuisine": "pizza", "name": "Uncle Fatih's Pizza", "opening_hours": "Fr-Sa 11:30-03:00; Mo-Th 11:00-01:00; Su 11:00-00:00"}}, {"type": "node", "id": 1723350366, "lat": 49.2639326, "lon": -123.1676074, "tags": {"amenity": "restaurant", "check_date": "2024-09-22", "cuisine": "japanese", "name": "iki Japanese Bistro", "phone": "+1-604-731-4771"}}, {"type": "node", "id": 2333683201, "lat": 49.2641579, "lon": -123.1648076}, {"type": "node", "id": 2333683243, "lat": 49.2641594, "lon": -123.1649706}, {"type": "node", "id": 2333683270, "lat": 49.2643327, "lon": -123.1649668}, {"type": "node", "id": 2333683272, "lat": 49.2643312, "lon": -123.1648039}, {"type": "node", "id": 2775935855, "lat": 49.2644636, "lon": -123.180771, "tags": {"addr:city": "Vancouver", "addr:housenumber": "3431", "addr:postcode": "V6R 2B4", "addr:street": "West Broadway", "amenity": "restaurant", "cuisine": "sushi", "diet:vegan": "limited", "name": "The Eatery", "opening_hours": "Mo-Th 16:30-22:30; Fr 15:30-23:30; Sa 12:00-23:30; Su 12:00-22:30", "phone": "+1-604-738-5298", "website": "https://theeatery.ca/"}}, {"type": "node", "id": 3712957344, "lat": 49.268174, "lon": -123.165639, "tags": {"addr:city": "Vancouver", "addr:housenumber": "2678", "addr:province": "BC", "addr:street": "West 4th Avenue", "amenity": "cafe", "name": "Amberdo Cafe and Bakery", "smoking": "no"}}, {"type": "node", "id": 3754766855, "lat": 49.2684763, "lon": -123.1671204, "tags": {"addr:city": "Vancouver", "addr:housenumber": "2741", "addr:postcode": "V6K 1P9", "addr:province": "BC", "addr:street": "West 4th Avenue", "amenity": "restaurant", "name": "Karma Indian Bistro", "phone": "+1 604-559-1666", "wikidata": "Q123143898"}}, {"type": "node", "id": 3976390430, "lat": 49.2721701, "lon": -123.1553914}, {"type": "node", "id": 3976390431, "lat": 49.2721696, "lon": -123.1551389}, {"type": "node", "id": 3976390434, "lat": 49.2722251, "lon": -123.1555535}, {"type": "node", "id": 3976390435, "lat": 49.272215, "lon": -123.1553912}, {"type": "node", "id": 3976390440, "lat": 49.2722791, "lon": -123.1555533}, {"type": "node", "id": 3976390441, "lat": 49.2722783, "lon": -123.1551384}, {"type": "node", "id": 3992893436, "lat": 49.2680211, "lon": -123.1558693, "tags": {"addr:housenumber": "2222", "addr:street": "West 4th Avenue", "amenity": "restaurant", "check_date": "2025-03-16", "cuisine": "greek", "name": "Simpatico"}}, {"type": "node", "id": 3992893445, "lat": 49.2681152, "lon": -123.1595834, "tags": {"addr:housenumber": "2394", "addr:street": "West 4th Avenue", "amenity": "restaurant", "cuisine": "chinese", "name": "Peaceful Restaurant"}}, {"type": "node", "id": 3992894492, "lat": 49.2681046, "lon": -123.1582908, "tags": {"addr:housenumber": "2340", "addr:postcode": "V6K 1P1", "addr:street": "West 4th Avenue", "amenity": "restaurant", "cuisine": "japanese", "description": "Eatery with contemporary styling turning out Japanese dishes & sushi rolls.", "name": "Raisu", "opening_hours": "11:30-14:30,17:00-22:00", "phone": "+1-604-620-1564", "website": "https://www.raisu.ca/"}}, {"type": "node", "id": 3992894634, "lat": 49.2680391, "lon": -123.157013, "tags": {"addr:housenumber": "2278", "addr:street": "West 4th Avenue", "amenity": "restaurant", "cuisine": "french", "name": "Au Comptoir", "opening_hours": "Mo-Su 08:00-22:00", "phone": "+1-604-569-2278", "website": "https://www.aucomptoir.ca/"}}, {"type": "node", "id": 3992895458, "lat": 49.2680363, "lon": -123.156837, "tags": {"addr:housenumber": "2272", "addr:street": "West 4th Avenue", "amenity": "restaurant", "cuisine": "persian", "name": "Delara", "opening_hours": "We-Fr 11:30-14:00, 17:00-22:00; Sa-Su 11:30-14:00, 17:00-22:00", "phone": "+1-604-730-4325", "website": "https://delararestaurant.ca"}}, {"type": "node", "id": 3992895754, "lat": 49.2680988, "lon": -123.1580755, "tags": {"addr:housenumber": "2324", "addr:street": "West 4th Avenue", "amenity": "restaurant", "name": "Maria's Taverna", "phone": "+1 604-731-4722"}}, {"type": "node", "id": 3992895756, "lat": 49.2683578, "lon": -123.1595125, "tags": {"addr:housenumber": "2391", "addr:street": "West 4th Avenue", "amenity": "fast_food", "brand": "McDonald's", "brand:wikidata": "Q38076", "brand:wikipedia": "en:McDonald's", "cuisine": "burger", "name": "McDonald's", "takeaway": "yes"}}, {"type": "node", "id": 4232390890, "lat": 49.26437, "lon": -123.1674354, "tags": {"amenity": "cafe", "brand": "Starbucks", "brand:wikidata": "Q37158", "brand:wikipedia": "en:Starbucks", "cuisine": "coffee_shop", "name": "Starbucks", "official_name": "Starbucks Coffee", "takeaway": "yes", "website": "https://www.starbucks.com/"}}, {"type": "node", "id": 4341912690, "lat": 49.2686141, "lon": -123.158778, "tags": {"amenity": "cafe", "brand": "Starbucks", "brand:wikidata": "Q37158", "brand:wikipedia": "en:Starbucks", "cuisine": "coffee_shop", "name": "Starbucks", "official_name": "Starbucks Coffee", "takeaway": "yes"}}, {"type": "node", "id": 4400316131, "lat": 49.2711366, "lon": -123.1552312, "tags": {"addr:city": "Vancouver", "addr:housenumber": "1631", "addr:postcode": "V6K 3E6", "addr:street": "Yew Street", "amenity": "restaurant", "cuisine": "breakfast", "internet_access": "no", "name": "Cafe Zen", "opening_hours": "Mo-Su 08:00-16:00", "phone": "+1-604-731-4018", "smoking": "no", "website": "https://cafezenonyew.com/"}}, {"type": "node", "id": 4409294222, "lat": 49.2640395, "lon": -123.1801008, "tags": {"addr:city": "Vancouver", "addr:housenumber": "3416", "addr:postcode": "V6R 2B3", "addr:street": "West Broadway", "amenity": "restaurant", "name": "Green Leaf Sushi", "phone": "+1-604-568-9406", "website": "https://www.facebook.com/GreenLeafSushi/?ref=page_internal"}}, {"type": "node", "id": 4503723421, "lat": 49.2641802, "lon": -123.15747, "tags": {"addr:city": "Vancouver", "addr:housenumber": "2480", "addr:province": "BC", "addr:street": "Vine Street", "amenity": "restaurant", "check_date": "2025-07-11", "name": "Casereccio Foods", "website": "https://www.caserecciofood.com/"}}, {"type": "node", "id": 4503723434, "lat": 49.2678638, "lon": -123.1573505, "tags": {"addr:housenumber": "2028", "addr:postcode": "V6K 3K1", "addr:street": "Vine Street", "air_conditioning": "yes", "amenity": "cafe", "changing_table": "no", "contact:facebook": "heykokomo", "contact:instagram": "heykokomo", "diet:kosher": "only", "diet:vegan": "only", "diet:vegetarian": "yes", "indoor_seating": "yes", "name": "Kokomo", "opening_hours": "Mo-Fr 08:00-21:00; Sa-Su 10:00-16:00", "outdoor_seating": "yes", "payment:credit_cards": "yes", "payment:debit_cards": "yes", "phone": "+1-604-428-5017", "smoking": "outside", "website": "https://www.heykokomo.ca"}}, {"type": "node", "id": 4505059402, "lat": 49.2637272, "lon": -123.1573404, "tags": {"addr:city": "Vancouver", "addr:province": "BC", "addr:street": "West Broadway", "amenity": "cafe", "indoor_seating": "yes", "name": "IGA Bistro", "outdoor_seating": "no"}}, {"type": "node", "id": 4670187790, "lat": 49.2683055, "lon": -123.1723907, "tags": {"addr:housenumber": "2958", "addr:street": "West 4th Avenue", "amenity": "fast_food", "name": "Yak & Yeti Bistro", "name:en": "Yak & Yeti Bistro", "opening_hours": "Tu-Su 17:00-22:00", "phone": "+1-604-428-4422"}}, {"type": "node", "id": 4828732701, "lat": 49.2643226, "lon": -123.174195, "tags": {"addr:housenumber": "3105", "addr:street": "West Broadway", "amenity": "restaurant", "check_date": "2025-01-11", "cuisine": "vietnamese", "name": "Hanoi Old Quarter Restaurant", "opening_hours": "Mo,We-Su 11:30-15:30,17:00-21:00; Tu 17:00-21:00"}}, {"type": "node", "id": 4828947743, "lat": 49.264266, "lon": -123.171855, "tags": {"addr:city": "Vancouver", "addr:housenumber": "2967", "addr:province": "BC", "addr:street": "West Broadway", "amenity": "restaurant", "check_date": "2025-05-23", "cuisine": "mexican", "name": "Taching\u00f3n"}}, {"type": "node", "id": 4828947744, "lat": 49.2642652, "lon": -123.171801, "tags": {"addr:city": "Vancouver", "addr:housenumber": "2965", "addr:street": "West Broadway", "amenity": "restaurant", "cuisine": "sushi", "name": "Pokay", "opening_hours": "Su-Th 11:00-21:00; Fr-Sa 11:00-21:30", "phone": "+1-604-730-8164", "takeaway": "yes", "website": "https://www.pokayvancouver.com/"}}, {"type": "node", "id": 4828947745, "lat": 49.2642636, "lon": -123.1717479, "tags": {"amenity": "restaurant", "description": "Delicatessen", "name": "Harvest Delicatessen"}}, {"type": "node", "id": 4828947746, "lat": 49.2642602, "lon": -123.1716944, "tags": {"amenity": "restaurant", "contact:facebook": "teravburger", "cuisine": "burger", "diet:vegan": "yes", "diet:vegetarian": "only", "name": "Tera V Burger", "website": "https://www.teravburger.com/"}}, {"type": "node", "id": 5063531621, "lat": 49.2684317, "lon": -123.1821761, "tags": {"addr:city": "Vancouver", "addr:housenumber": "3510", "addr:street": "West 4th Avenue", "amenity": "restaurant", "name": "Double DD Pizza", "opening_hours": "Mo-Su 16:00-21:00"}}, {"type": "node", "id": 5063531624, "lat": 49.2682491, "lon": -123.1690256, "tags": {"addr:city": "Vancouver", "addr:housenumber": "2836", "addr:street": "West 4th Avenue", "amenity": "restaurant", "cuisine": "syrian", "diet:vegan": "yes", "name": "Tyybeh"}}, {"type": "node", "id": 5063531625, "lat": 49.2682488, "lon": -123.1687379, "tags": {"addr:city": "Vancouver", "addr:housenumber": "2822", "addr:province": "BC", "addr:street": "West 4th Avenue", "amenity": "restaurant", "name": "Chewie's Chicken & Biscuits"}}, {"type": "node", "id": 5063531627, "lat": 49.2682531, "lon": -123.1677783, "tags": {"addr:city": "Vancouver", "addr:housenumber": "2766", "addr:street": "West 4th Avenue", "amenity": "cafe", "name": "Nusa Coffee"}}, {"type": "node", "id": 5063531628, "lat": 49.2682236, "lon": -123.16677, "tags": {"addr:city": "Vancouver", "addr:housenumber": "2716", "addr:postcode": "V6K 1R1", "addr:province": "BC", "addr:street": "West 4th Avenue", "amenity": "restaurant", "email": "colin@healthynoodlehouse.com", "name": "Healthy Noodle House", "opening_hours": "Mo-Sa 11:00-21:00, Su 11:00-18:00", "phone": "+1-778-371-8371", "website": "https://www.healthynoodlehouse.com"}}, {"type": "node", "id": 5459732921, "lat": 49.264159, "lon": -123.165409, "tags": {"addr:housenumber": "2649", "addr:street": "West Broadway", "amenity": "restaurant", "name": "Sunshine Classic Diner", "opening_hours": "Mo, Tu 08:00-15:00; We-Su 08:00-16:00", "phone": "+1-604-733-7717"}}, {"type": "node", "id": 5824312834, "lat": 49.2684412, "lon": -123.1647514, "tags": {"addr:city": "Vancouver", "addr:housenumber": "2611", "addr:postcode": "V6K 1P8", "addr:street": "West 4th Avenue", "amenity": "restaurant", "name": "Dark Table", "phone": "+1-604-739-3275", "website": "http://www.darktable.ca/"}}, {"type": "node", "id": 6305290540, "lat": 49.2682229, "lon": -123.1666416, "tags": {"addr:city": "Vancouver", "addr:housenumber": "2710", "addr:postcode": "V6K 1R1", "addr:province": "BC", "addr:street": "West 4th Avenue", "amenity": "restaurant", "cuisine": "mexican", "name": "Puerto Mexico, Tacos and Mexican Products", "phone": "+1-604-730-5660"}}, {"type": "node", "id": 6305290541, "lat": 49.2682216, "lon": -123.1665951, "tags": {"addr:city": "Vancouver", "addr:housenumber": "2708", "addr:postcode": "V6K 1R1", "addr:province": "BC", "addr:street": "West 4th Avenue", "amenity": "restaurant", "cuisine": "italian", "name": "Napoli Pastas and More"}}, {"type": "node", "id": 6357070990, "lat": 49.2685203, "lon": -123.1706945, "tags": {"addr:housenumber": "2-2953", "addr:postcode": "V6K4A7", "addr:street": "West 4th Avenue", "amenity": "restaurant", "cuisine": "thai", "name": "Thai Ni Yom", "opening_hours": "Mo-Su 11:30-15:00,16:00-21:00", "self_service": "no", "website": "https://thainiyom.ca/", "website:menu": "http://thainiyom.ca/order-online"}}, {"type": "node", "id": 6357070991, "lat": 49.2685192, "lon": -123.1706435, "tags": {"amenity": "restaurant", "cuisine": "japanese", "name": "Nishi Restaurant"}}, {"type": "node", "id": 6373327360, "lat": 49.2710152, "lon": -123.1552381, "tags": {"addr:housenumber": "1685", "addr:postcode": "V6K 3E6", "addr:street": "Yew Street", "amenity": "restaurant", "name": "Lucky Taco"}}, {"type": "node", "id": 6427053067, "lat": 49.2643867, "lon": -123.1772264, "tags": {"addr:city": "Vancouver", "addr:housenumber": "3721", "addr:street": "West Broadway", "amenity": "restaurant", "cuisine": "thai", "delivery": "yes", "name": "Thai Basil", "outdoor_seating": "yes", "phone": "+1 778 379 8424", "takeaway": "yes"}}, {"type": "node", "id": 6862194077, "lat": 49.2642325, "lon": -123.1694173, "tags": {"addr:city": "Vancouver", "addr:housenumber": "2855", "addr:street": "West Broadway", "amenity": "cafe", "brand": "Kung Fu Tea", "brand:wikidata": "Q66023886", "cuisine": "bubble_tea", "name": "Kung Fu Tea", "opening_hours": "Tu-Su 12:30-20:00", "takeaway": "yes"}}, {"type": "node", "id": 6862194080, "lat": 49.2642424, "lon": -123.1703112, "tags": {"addr:city": "Vancouver", "addr:housenumber": "2897", "addr:street": "West Broadway", "amenity": "restaurant", "check_date": "2025-05-23", "contact:yelp": "https://www.yelp.ca/biz/great-wall-mongolian-bbq-vancouver-3", "cuisine": "mongolian_grill", "name": "Great Wall Mongolian BBQ"}}, {"type": "node", "id": 6862208762, "lat": 49.2644035, "lon": -123.180076, "tags": {"addr:city": "Vancouver", "addr:housenumber": "3403", "addr:street": "West Broadway", "amenity": "cafe", "check_date": "2025-05-23", "name": "Storm City Coffee", "opening_hours": "Mo-Su 08:00-16:00", "phone": "+1-604-428-9585", "website": "https://stormcitycoffee.com/"}}, {"type": "node", "id": 6862208763, "lat": 49.2643924, "lon": -123.178298, "tags": {"addr:city": "Vancouver", "addr:housenumber": "3309", "addr:province": "BC", "addr:street": "West Broadway", "amenity": "restaurant", "check_date": "2025-05-23", "name": "Simply Sushi Bar"}}, {"type": "node", "id": 6862208765, "lat": 49.2643496, "lon": -123.176555, "tags": {"addr:city": "Vancouver", "addr:housenumber": "3217", "addr:province": "BC", "addr:street": "West Broadway", "amenity": "restaurant", "name": "China Lanzhou Beef Noodles"}}, {"type": "node", "id": 6862208766, "lat": 49.264355, "lon": -123.176937, "tags": {"addr:city": "Vancouver", "addr:housenumber": "3255", "addr:street": "West Broadway", "amenity": "restaurant", "name": "Colony"}}, {"type": "node", "id": 6862208767, "lat": 49.2643151, "lon": -123.173779, "tags": {"addr:city": "Vancouver", "addr:housenumber": "3095", "addr:street": "West Broadway", "amenity": "cafe", "brand": "Starbucks", "brand:wikidata": "Q37158", "brand:wikipedia": "en:Starbucks", "check_date": "2025-01-11", "cuisine": "coffee_shop", "name": "Starbucks", "official_name": "Starbucks Coffee", "takeaway": "yes"}}, {"type": "node", "id": 6862208768, "lat": 49.2640134, "lon": -123.172947, "tags": {"addr:city": "Vancouver", "addr:housenumber": "3040", "addr:province": "BC", "addr:street": "West Broadway", "amenity": "cafe", "name": "Just Another"}}, {"type": "node", "id": 7083378511, "lat": 49.2643516, "lon": -123.1764671, "tags": {"addr:city": "Vancouver", "addr:housenumber": "3211", "addr:province": "BC", "addr:street": "West Broadway", "amenity": "restaurant", "name": "Midam Cafe"}}, {"type": "node", "id": 7144773485, "lat": 49.2730547, "lon": -123.157463, "tags": {"amenity": "cafe", "name": "Kitsilano Beach Cafe"}}, {"type": "node", "id": 7681222098, "lat": 49.2709577, "lon": -123.1553756, "tags": {"addr:city": "Vancouver", "addr:housenumber": "2205", "addr:postcode": "V6K 1E9", "addr:province": "BC", "addr:street": "West 1st Avenue", "amenity": "cafe", "cuisine": "coffee_shop", "internet_access": "yes", "internet_access:fee": "no", "name": "Enroute Coffee", "opening_hours": "Mo-Fr 07:00-15:00; Sa, Su 07:00-16:00", "phone": "+1-604-423-9900", "shop": "bicycle", "website": "https://enroute.cc/"}}, {"type": "node", "id": 8407537338, "lat": 49.2640311, "lon": -123.176224, "tags": {"addr:city": "Vancouver", "addr:housenumber": "3204", "addr:province": "BC", "addr:street": "West Broadway", "amenity": "restaurant", "brand": "Haidilao Hot Pot", "brand:en": "Haidilao Hot Pot", "brand:wikidata": "Q5638920", "brand:zh": "\u6d77\u5e95\u635e\u706b\u9505", "cuisine": "chinese;hotpot", "name": "Haidilao Hot Pot", "name:en": "Haidilao Hot Pot", "name:zh": "\u6d77\u5e95\u635e\u706b\u9505"}}, {"type": "node", "id": 8407537339, "lat": 49.2642236, "lon": -123.168976, "tags": {"addr:city": "Vancouver", "addr:housenumber": "2821", "addr:province": "BC", "addr:street": "West Broadway", "amenity": "restaurant", "name": "Ahi Sushi", "phone": "+1-604-336-9808"}}, {"type": "node", "id": 8407537340, "lat": 49.2642236, "lon": -123.169086, "tags": {"addr:city": "Vancouver", "addr:housenumber": "2825", "addr:province": "BC", "addr:street": "West Broadway", "amenity": "restaurant", "name": "Petite Bao"}}, {"type": "node", "id": 8407537341, "lat": 49.2642338, "lon": -123.1694864, "tags": {"addr:city": "Vancouver", "addr:housenumber": "2857", "addr:province": "BC", "addr:street": "West Broadway", "amenity": "restaurant", "cuisine": "asian", "name": "Rice and Noodle", "phone": "+1-604-732-3233", "website": "https://thericeandnoodle.com/"}}, {"type": "node", "id": 8407537342, "lat": 49.2642354, "lon": -123.170206, "tags": {"addr:city": "Vancouver", "addr:housenumber": "2891", "addr:province": "BC", "addr:street": "West Broadway", "amenity": "restaurant", "check_date": "2025-05-23", "name": "The Corner Hotpot"}}, {"type": "node", "id": 9092733705, "lat": 49.2720193, "lon": -123.1551831, "tags": {"addr:city": "Vancouver", "addr:housenumber": "1555", "addr:postcode": "V6K 3E5", "addr:province": "BC", "addr:street": "Yew Street", "amenity": "cafe", "cuisine": "coffee_shop", "name": "Viva Cafe & Bakery", "opening_hours": "Mo-Fr 06:30-16:30, Sa-Su 07:00-17:00", "outdoor_seating": "yes", "phone": "+1-604-738-8482", "takeaway": "yes", "website": "https://vivafinefoods.com/"}}, {"type": "node", "id": 9155710579, "lat": 49.2682285, "lon": -123.166974, "tags": {"addr:city": "Vancouver", "addr:housenumber": "2724", "addr:postcode": "V6K 1R1", "addr:province": "BC", "addr:street": "West 4th Avenue", "amenity": "restaurant", "cuisine": "international", "diet:vegan": "yes", "diet:vegetarian": "only", "name": "The Naam", "opening_hours": "Mo-Su 09:00-23:00", "outdoor_seating": "yes", "phone": "+1-604-738-7151", "takeaway": "no", "website": "https://www.thenaam.com"}}, {"type": "node", "id": 10025349945, "lat": 49.2641806, "lon": -123.16623, "tags": {"addr:housenumber": "2697", "addr:street": "West Broadway", "amenity": "restaurant", "name": "Ah Long Sushi", "opening_hours": "Mo-Fr 11:00-21:00; Sa, Su 00:00-21:00", "phone": "+1-604-730-9229"}}, {"type": "node", "id": 10025618568, "lat": 49.2639093, "lon": -123.1657872, "tags": {"addr:city": "Vancouver", "addr:housenumber": "2680", "addr:postcode": "V6K 2G3", "addr:province": "BC", "addr:street": "West Broadway", "amenity": "restaurant", "cuisine": "vietnamese", "name": "Mr. Red Cafe", "opening_hours": "Mo, We-Su 11:30-20:30", "phone": "+1 604 559-6878", "website": "https://www.mrredcafe.ca/"}}, {"type": "node", "id": 10025623699, "lat": 49.2639141, "lon": -123.1659273, "tags": {"amenity": "restaurant", "name": "Nat's New York Pizzaria"}}, {"type": "node", "id": 10067088575, "lat": 49.2640795, "lon": -123.1766615, "tags": {"addr:housenumber": "3236", "addr:street": "West Broadway", "amenity": "cafe", "cuisine": "vietnamese", "name": "Pure Delight Cafe", "opening_hours": "Mo-Su 11:00-22:00", "phone": "+1-604-568-8812", "website": "https://www.puredelightcafe.com/"}}, {"type": "node", "id": 10067088577, "lat": 49.2643544, "lon": -123.1762496, "tags": {"addr:housenumber": "3207", "addr:street": "West Broadway", "amenity": "restaurant", "cuisine": "persian", "name": "Sahel", "opening_hours": "Mo-Su 10:00-22:00", "phone": "+1-604-423-4117", "website": "https://sahelpersianrestaurant.com/"}}, {"type": "node", "id": 10700097611, "lat": 49.2643268, "lon": -123.17142, "tags": {"addr:city": "Vancouver", "addr:housenumber": "2951", "addr:province": "BC", "addr:street": "Bayswater Street", "amenity": "cafe", "changing_table": "yes", "cuisine": "coffee_shop", "name": "La La Island", "outdoor_seating": "yes", "payment:contactless": "yes", "phone": "+1 604-423-5811", "website": "http://lalaisland.ca"}}, {"type": "node", "id": 10903425796, "lat": 49.2722249, "lon": -123.1554315}, {"type": "node", "id": 10903425797, "lat": 49.2722151, "lon": -123.1554316}, {"type": "node", "id": 11779489236, "lat": 49.2640543, "lon": -123.1753237, "tags": {"amenity": "restaurant", "check_date": "2024-04-01", "name": "Nostos Taverna"}}, {"type": "node", "id": 11779813260, "lat": 49.264348, "lon": -123.1749523, "tags": {"addr:housenumber": "3139", "addr:street": "West Broadway", "amenity": "restaurant", "check_date": "2024-04-01", "name": "Oakberry"}}, {"type": "node", "id": 11938394758, "lat": 49.2642405, "lon": -123.1699374, "tags": {"addr:housenumber": "2883", "addr:street": "West Broadway", "amenity": "cafe", "name": "Koko Monk", "outdoor_seating": "no"}}, {"type": "node", "id": 11938394764, "lat": 49.2642466, "lon": -123.1704877, "tags": {"amenity": "fast_food", "brand": "Panago", "brand:wikidata": "Q17111672", "cuisine": "pizza", "diet:vegan": "yes", "name": "Panago", "takeaway": "yes"}}, {"type": "node", "id": 11938504571, "lat": 49.2642357, "lon": -123.1689277, "tags": {"addr:housenumber": "2817", "addr:street": "West Broadway", "amenity": "fast_food", "brand": "Quesada", "brand:wikidata": "Q66070360", "cuisine": "mexican", "name": "Quesada", "official_name": "Quesada Burritos & Tacos", "takeaway": "yes"}}, {"type": "node", "id": 12039497818, "lat": 49.2682988, "lon": -123.1715376, "tags": {"addr:city": "Vancouver", "addr:housenumber": "2958", "addr:province": "BC", "addr:street": "West 4th Avenue", "amenity": "restaurant", "name": "Little Bird Dim Sum + Craft Beer"}}, {"type": "node", "id": 12310437405, "lat": 49.2709609, "lon": -123.1555104, "tags": {"addr:housenumber": "2209", "addr:street": "West 1st Avenue", "amenity": "restaurant", "name": "Hestia Kitchen Lab"}}, {"type": "node", "id": 12681972681, "lat": 49.2682483, "lon": -123.1689158, "tags": {"addr:city": "Vancouver", "addr:housenumber": "2828", "addr:street": "West 4th Avenue", "amenity": "fast_food", "cuisine": "pizza", "diet:vegan": "yes", "name": "Reggiano's Pizza", "phone": "+1-604-738-0098", "website": "https://www.reggianospizza.com/", "website:menu": "https://order.toasttab.com/online/reggianos-pizza-kitsilano"}}, {"type": "node", "id": 12766506761, "lat": 49.2711973, "lon": -123.1552278, "tags": {"addr:housenumber": "1629", "addr:street": "Yew Street", "amenity": "restaurant", "name": "CM Chicken"}}, {"type": "node", "id": 12843051131, "lat": 49.2686437, "lon": -123.1778637, "tags": {"addr:city": "Vancouver", "addr:housenumber": "3301", "addr:province": "BC", "addr:street": "West 4th Avenue", "amenity": "cafe", "name": "Kits Coffee & Bistro"}}, {"type": "node", "id": 12843051138, "lat": 49.2686567, "lon": -123.1787206, "tags": {"addr:city": "Vancouver", "addr:housenumber": "3347", "addr:province": "BC", "addr:street": "West 4th Avenue", "amenity": "restaurant", "cuisine": "japanese", "name": "Hitoe Sushi Japanese Restaurant"}}, {"type": "node", "id": 12860051573, "lat": 49.2681971, "lon": -123.1661609, "tags": {"addr:city": "Vancouver", "addr:housenumber": "2698", "addr:province": "BC", "addr:street": "West 4th Avenue", "amenity": "restaurant", "cuisine": "mexican", "name": "Sazon Mexican Cuisine"}}, {"type": "way", "id": 224542726, "nodes": [2333683270, 2333683272, 2333683201, 2333683243, 2333683270], "tags": {"addr:housenumber": "2601", "addr:street": "West Broadway", "amenity": "fast_food", "brand": "Dairy Queen", "brand:wikidata": "Q1141226", "brand:wikipedia": "en:Dairy Queen", "building": "yes", "cuisine": "ice_cream;burger", "diet:vegan": "no", "diet:vegetarian": "yes", "drive_through": "yes", "indoor_seating": "yes", "name": "Dairy Queen", "opening_hours": "Mo-Su 11:00-17:00", "outdoor_seating": "yes", "smoking": "no", "source": "survey", "takeaway": "yes"}}, {"type": "way", "id": 394667225, "nodes": [3976390430, 3976390435, 10903425797, 10903425796, 3976390434, 3976390440, 3976390441, 3976390431, 3976390430], "tags": {"addr:housenumber": "1525", "addr:street": "Yew Street", "amenity": "restaurant", "building": "yes", "cuisine": "italian", "name": "Nook", "opening_hours": "Mo,Tu 17:00-22:00; We,Th 11:30-22:00; Fr 11:30-23:00; Sa 10:30-23:00; Su 10:30-22:00", "outdoor_seating": "no", "phone": "+1-604-734-3381", "website": "https://nookrestaurant.ca/?page_id=192"}}]}